Year,m,d,Time,Time zone,Cloud amount (1/8),Pressure (msl) (hPa),Precipitation amount (mm),Relative humidity (%),Precipitation intensity (mm/h),Snow depth (cm),Air temperature (degC),Dew-point temperature (degC),Horizontal visibility (m),Wind direction (deg),Gust speed (m/s),Wind speed (m/s)
2022,9,1,00:00,UTC,7,1018.3,0,77,0,-1,7.1,3.3,50000,345,6.6,4.1
2022,9,1,00:10,UTC,7,1018.3,-,78,0,-1,7,3.4,50000,348,6.8,3.8
2022,9,1,00:20,UTC,3,1018.3,-,78,0,-1,7,3.4,50000,351,6,3.8
2022,9,1,00:30,UTC,1,1018.3,-,79,0,-1,6.9,3.4,50000,347,7.4,4
2022,9,1,00:40,UTC,3,1018.3,-,79,0,-1,6.9,3.5,50000,348,7,3.9
2022,9,1,00:50,UTC,5,1018.2,-,79,0,-1,6.9,3.5,50000,352,6.9,4.2
2022,9,1,01:00,UTC,7,1018.2,0,79,0,-1,7,3.5,50000,354,8.1,4.4
2022,9,1,01:10,UTC,5,1018.2,-,79,0,-1,6.8,3.5,50000,355,7.2,4.4
2022,9,1,01:20,UTC,3,1018.2,-,80,0,-1,6.8,3.6,50000,354,8.5,4.7
2022,9,1,01:30,UTC,1,1018.2,-,80,0,-1,6.8,3.6,50000,354,7.8,4.6
2022,9,1,01:40,UTC,1,1018.1,-,80,0,-1,6.7,3.6,50000,352,8,4.2
2022,9,1,01:50,UTC,3,1018.1,-,81,0,-1,6.6,3.6,50000,352,7.1,4.2
2022,9,1,02:00,UTC,5,1018.1,0,81,0,-1,6.6,3.6,50000,353,7.7,4.1
2022,9,1,02:10,UTC,7,1018.1,-,82,0,-1,6.5,3.7,50000,354,6.6,3.8
2022,9,1,02:20,UTC,7,1018.1,-,83,0,-1,6.4,3.7,50000,356,7,4.1
2022,9,1,02:30,UTC,7,1018.1,-,82,0,-1,6.5,3.7,50000,356,6.8,3.7
2022,9,1,02:40,UTC,7,1018.1,-,83,0,-1,6.5,3.8,50000,355,7.3,4.4
2022,9,1,02:50,UTC,7,1018.1,-,83,0,-1,6.6,3.8,50000,357,6.9,4.6
2022,9,1,03:00,UTC,7,1018,0,83,0,-1,6.6,3.9,50000,355,7,4.3
2022,9,1,03:10,UTC,7,1018.1,-,83,0,-1,6.5,3.9,50000,354,7,4.3
2022,9,1,03:20,UTC,7,1018.1,-,83,0,-1,6.5,3.9,50000,357,7.4,3.8
2022,9,1,03:30,UTC,3,1018.1,-,84,0,-1,6.4,3.9,50000,360,6.4,3.4
2022,9,1,03:40,UTC,1,1018.1,-,85,0,-1,6.3,3.9,50000,357,7,4
2022,9,1,03:50,UTC,1,1018.1,-,85,0,-1,6.4,4,50000,355,7.4,3.9
2022,9,1,04:00,UTC,1,1018.1,0,85,0,-1,6.4,4,50000,355,7.1,4
2022,9,1,04:10,UTC,1,1018.1,-,85,0,-1,6.3,4,50000,353,7.3,4.1
2022,9,1,04:20,UTC,1,1018.2,-,84,0,-1,6.4,4,50000,353,9.2,4.6
2022,9,1,04:30,UTC,0,1018.2,-,83,0,-1,6.6,4,50000,354,7.6,4.4
2022,9,1,04:40,UTC,0,1018.2,-,84,0,-1,6.6,4,50000,360,8.1,4.3
2022,9,1,04:50,UTC,0,1018.3,-,84,0,-1,6.6,4,50000,359,9.6,5
2022,9,1,05:00,UTC,0,1018.3,0,84,0,-1,6.6,4,50000,359,10.7,4.4
2022,9,1,05:10,UTC,0,1018.3,-,83,0,-1,6.7,4.1,50000,358,7,4.3
2022,9,1,05:20,UTC,0,1018.3,-,81,0,-1,7.1,4.2,50000,357,8.9,4.8
2022,9,1,05:30,UTC,0,1018.2,-,79,0,-1,7.7,4.2,50000,355,8.5,4.6
2022,9,1,05:40,UTC,0,1018.2,-,77,0,-1,8.1,4.3,48650,-,-,-
2022,9,1,05:50,UTC,0,1018.1,-,75,0,-1,8.5,4.3,47400,357,9.6,5.3
2022,9,1,06:00,UTC,0,1018.1,0,72,0,-1,9.2,4.5,41810,358,9.3,5.4
2022,9,1,06:10,UTC,0,1018.1,-,70,0,-1,9.6,4.3,40230,2,8.5,4.8
2022,9,1,06:20,UTC,0,1018,-,68,0,-1,9.9,4.3,38540,3,10.3,5
2022,9,1,06:30,UTC,0,1018,-,67,0,-1,10.4,4.5,44810,360,12.3,5.3
2022,9,1,06:40,UTC,0,1017.9,-,64,0,-1,10.4,3.9,35990,358,11.5,6.8
2022,9,1,06:50,UTC,0,1017.9,-,62,0,-1,11.1,4.1,50000,360,10.8,5.5
2022,9,1,07:00,UTC,0,1017.9,0,62,0,-1,10.9,4,45550,9,11.1,5.3
2022,9,1,07:10,UTC,0,1017.8,-,61,0,-1,11.3,3.9,36760,3,11,5.3
2022,9,1,07:20,UTC,0,1017.8,-,59,0,-1,11.5,3.7,45940,358,12.5,6.7
2022,9,1,07:30,UTC,0,1017.9,-,58,0,-1,11.6,3.7,44240,6,10.2,6.1
2022,9,1,07:40,UTC,1,1018,-,57,0,-1,11.9,3.7,37270,12,11.5,6
2022,9,1,07:50,UTC,1,1018,-,55,0,-1,12,3.2,37040,11,10.9,6.1
2022,9,1,08:00,UTC,1,1018,0,54,0,-1,12,3,35360,12,12.2,7.3
2022,9,1,08:10,UTC,1,1018.1,-,53,0,-1,12.4,3,38280,9,11.9,7.5
2022,9,1,08:20,UTC,1,1018.1,-,51,0,-1,13.1,3.2,35660,17,9.5,5.2
2022,9,1,08:30,UTC,1,1018.2,-,48,0,-1,13.1,2.3,43620,7,10.1,6
2022,9,1,08:40,UTC,1,1018.2,-,47,0,-1,13.2,2.2,36420,15,10.1,5.4
2022,9,1,08:50,UTC,0,1018.2,-,48,0,-1,13.3,2.4,37150,16,11.3,6.9
2022,9,1,09:00,UTC,1,1018.2,0,46,0,-1,13.1,1.9,35290,23,11.2,6.6
2022,9,1,09:10,UTC,1,1018.1,-,47,0,-1,13.9,2.9,38390,27,10,6.3
2022,9,1,09:20,UTC,3,1018.2,-,47,0,-1,14,2.8,36460,18,10.5,5.8
2022,9,1,09:30,UTC,1,1018.1,-,47,0,-1,14.3,3.1,43700,20,12.3,6.7
2022,9,1,09:40,UTC,5,1018.2,-,49,0,-1,13.1,2.7,46090,10,12.8,6.5
2022,9,1,09:50,UTC,3,1018.2,-,47,0,-1,13.9,2.8,48580,20,12.5,6.1
2022,9,1,10:00,UTC,3,1018.3,0,46,0,-1,13.7,2.3,46690,19,12.8,7.4
2022,9,1,10:10,UTC,3,1018.1,-,45,0,-1,14.4,2.6,43820,35,10.3,6.3
2022,9,1,10:20,UTC,5,1018.3,-,46,0,-1,13.8,2.2,50000,13,12.4,7
2022,9,1,10:30,UTC,5,1018.3,-,45,0,-1,14,2.3,45420,20,12.7,7.7
2022,9,1,10:40,UTC,3,1018.2,-,43,0,-1,14.4,1.9,42030,28,11.2,6.8
2022,9,1,10:50,UTC,3,1018.4,-,42,0,-1,14.4,1.8,42710,25,12.6,5.9
2022,9,1,11:00,UTC,3,1018.3,0,44,0,-1,14.6,2.4,50000,31,10,5.9
2022,9,1,11:10,UTC,5,1018.4,-,41,0,-1,14.6,1.6,50000,13,11.5,6.7
2022,9,1,11:20,UTC,5,1018.4,-,42,0,-1,14.2,1.3,50000,24,10.4,6.3
2022,9,1,11:30,UTC,3,1018.5,-,41,0,-1,15,1.9,43560,28,10.3,5.6
2022,9,1,11:40,UTC,5,1018.5,-,44,0,-1,14.2,2,50000,28,12,7.2
2022,9,1,11:50,UTC,5,1018.6,-,45,0,-1,14,2.2,50000,15,9.6,5
2022,9,1,12:00,UTC,7,1018.6,0,44,0,-1,14,1.8,50000,17,9.7,5.4
2022,9,1,12:10,UTC,7,1018.5,-,43,0,-1,14.6,2.1,50000,34,7.6,4.3
2022,9,1,12:20,UTC,7,1018.6,-,43,0,-1,14.2,1.8,50000,25,12,5.5
2022,9,1,12:30,UTC,7,1018.6,-,45,0,-1,13.9,2,50000,9,9,4.8
2022,9,1,12:40,UTC,7,1018.6,-,44,0,-1,14,1.8,50000,12,7.7,4.1
2022,9,1,12:50,UTC,7,1018.5,-,43,0,-1,14.5,1.9,49140,5,7.4,4.1
2022,9,1,13:00,UTC,7,1018.4,0,42,0,-1,14.6,1.8,46420,16,8.7,4.5
2022,9,1,13:10,UTC,7,1018.5,-,43,0,-1,14.2,1.8,50000,2,12.1,6
2022,9,1,13:20,UTC,7,1018.4,-,43,0,-1,14.1,1.7,50000,357,10.1,5.8
2022,9,1,13:30,UTC,5,1018.4,-,41,0,-1,14.4,1.2,50000,6,10.2,6.4
2022,9,1,13:40,UTC,5,1018.5,-,40,0,-1,14.8,1.5,50000,32,9.2,6.1
2022,9,1,13:50,UTC,5,1018.5,-,42,0,-1,14.5,1.6,45890,16,11,5.3
2022,9,1,14:00,UTC,7,1018.6,0,42,0,-1,14.4,1.7,50000,1,9.8,4.9
2022,9,1,14:10,UTC,5,1018.7,-,42,0,-1,14.2,1.4,50000,20,10.9,5.9
2022,9,1,14:20,UTC,5,1018.8,-,43,0,-1,14.3,1.8,50000,1,10.5,6.1
2022,9,1,14:30,UTC,3,1018.7,-,41,0,-1,14.5,1.5,50000,14,11.1,6.6
2022,9,1,14:40,UTC,5,1018.7,-,41,0,-1,14.8,1.6,50000,5,11,5.2
2022,9,1,14:50,UTC,5,1018.8,-,41,0,-1,14.5,1.5,50000,4,11.5,6.4
2022,9,1,15:00,UTC,1,1018.8,0,41,0,-1,14.4,1.2,50000,6,10.5,5.5
2022,9,1,15:10,UTC,1,1018.7,-,40,0,-1,14.4,0.9,50000,17,9.5,5.7
2022,9,1,15:20,UTC,1,1018.8,-,41,0,-1,14.4,1.3,50000,18,9.9,6.4
2022,9,1,15:30,UTC,5,1018.7,-,42,0,-1,14.7,1.9,50000,3,7.9,3.7
2022,9,1,15:40,UTC,5,1018.7,-,43,0,-1,14.4,1.8,50000,359,9.2,4.9
2022,9,1,15:50,UTC,3,1018.7,-,43,0,-1,14.1,1.7,50000,29,9.2,5.7
2022,9,1,16:00,UTC,3,1018.7,0,43,0,-1,13.9,1.6,50000,39,8.8,6.1
2022,9,1,16:10,UTC,3,1018.8,-,45,0,-1,13.6,1.9,50000,4,10.7,3.8
2022,9,1,16:20,UTC,3,1018.9,-,45,0,-1,13.5,1.7,50000,3,8.2,4.9
2022,9,1,16:30,UTC,5,1018.9,-,47,0,-1,13.2,2.2,33010,27,10.5,5
2022,9,1,16:40,UTC,3,1019,-,46,0,-1,13.2,1.9,50000,26,9.4,4.7
2022,9,1,16:50,UTC,1,1019,-,47,0,-1,13,1.8,50000,16,9.5,5
2022,9,1,17:00,UTC,1,1019.1,0,48,0,-1,12.6,1.9,50000,11,8.8,4.4
2022,9,1,17:10,UTC,1,1019.1,-,49,0,-1,12.4,2,50000,4,6.8,3.9
2022,9,1,17:20,UTC,3,1019.1,-,52,0,-1,12,2.3,50000,1,6.3,3.4
2022,9,1,17:30,UTC,3,1019.2,-,53,0,-1,11.7,2.3,50000,359,5.3,2.9
2022,9,1,17:40,UTC,1,1019.3,-,54,0,-1,11.5,2.4,50000,5,6.4,2.7
2022,9,1,17:50,UTC,1,1019.5,-,55,0,-1,11.7,2.9,50000,40,6.6,3.9
2022,9,1,18:00,UTC,3,1019.6,0,58,0,-1,11.3,3.4,50000,49,7.8,4.6
2022,9,1,18:10,UTC,3,1019.7,-,59,0,-1,11.2,3.5,50000,36,8.2,5.5
2022,9,1,18:20,UTC,1,1019.7,-,61,0,-1,10.8,3.6,50000,30,7.8,4.3
2022,9,1,18:30,UTC,1,1019.7,-,62,0,-1,10.7,3.6,50000,26,6.3,3.6
2022,9,1,18:40,UTC,3,1019.7,-,63,0,-1,10.4,3.7,50000,18,5.3,3
2022,9,1,18:50,UTC,3,1019.6,-,65,0,-1,10,3.8,50000,14,5.3,3.1
2022,9,1,19:00,UTC,3,1019.6,0,67,0,-1,9.7,3.8,50000,11,5.1,3.1
2022,9,1,19:10,UTC,1,1019.7,-,68,0,-1,9.3,3.8,50000,8,4.9,2.9
2022,9,1,19:20,UTC,1,1019.7,-,71,0,-1,8.8,3.8,50000,2,4,3
2022,9,1,19:30,UTC,1,1019.7,-,73,0,-1,8.3,3.9,50000,354,4.2,2.6
2022,9,1,19:40,UTC,0,1019.7,-,74,0,-1,8.3,3.9,50000,349,4.9,2.9
2022,9,1,19:50,UTC,0,1019.8,-,73,0,-1,8.4,3.9,50000,353,6.1,3.2
2022,9,1,20:00,UTC,0,1019.8,0,71,0,-1,8.7,3.7,50000,359,5.8,3.2
2022,9,1,20:10,UTC,0,1019.9,-,70,0,-1,9,3.7,50000,2,6.3,3.1
2022,9,1,20:20,UTC,0,1019.8,-,69,0,-1,9.1,3.7,50000,8,5.6,3.4
2022,9,1,20:30,UTC,0,1019.8,-,69,0,-1,9,3.7,50000,13,6.7,3.7
2022,9,1,20:40,UTC,0,1019.8,-,70,0,-1,8.8,3.6,50000,10,5.8,3.6
2022,9,1,20:50,UTC,0,1019.8,-,72,0,-1,8.5,3.7,50000,6,5.8,3.2
2022,9,1,21:00,UTC,0,1019.8,0,73,0,-1,8.1,3.6,50000,3,5.6,3.2
2022,9,1,21:10,UTC,1,1019.8,-,73,0,-1,8.2,3.7,50000,7,5.6,3.7
2022,9,1,21:20,UTC,1,1019.8,-,74,0,-1,8.1,3.7,50000,3,5.5,3.5
2022,9,1,21:30,UTC,1,1019.9,-,74,0,-1,8,3.7,50000,5,5.1,3.5
2022,9,1,21:40,UTC,1,1019.9,-,75,0,-1,7.9,3.7,50000,6,5,3.2
2022,9,1,21:50,UTC,1,1019.9,-,77,0,-1,7.5,3.7,50000,360,4.8,3
2022,9,1,22:00,UTC,1,1019.9,0,77,0,-1,7.4,3.7,50000,357,5,3.1
2022,9,1,22:10,UTC,1,1020,-,77,0,-1,7.3,3.6,50000,3,5,3.1
2022,9,1,22:20,UTC,0,1020,-,79,0,-1,7.2,3.7,50000,3,5.5,3.5
2022,9,1,22:30,UTC,1,1020,-,78,0,-1,7.4,3.8,50000,8,5.7,3.3
2022,9,1,22:40,UTC,3,1020,-,77,0,-1,7.5,3.7,50000,8,5.5,3.5
2022,9,1,22:50,UTC,5,1020,-,77,0,-1,7.4,3.7,50000,4,5.9,3.3
2022,9,1,23:00,UTC,5,1020,0,78,0,-1,7.3,3.7,50000,6,5.2,3.2
2022,9,1,23:10,UTC,3,1020,-,79,0,-1,7.1,3.8,50000,2,6.2,3.2
2022,9,1,23:20,UTC,3,1020,-,80,0,-1,7.1,3.8,50000,2,5.4,3.2
2022,9,1,23:30,UTC,5,1020,-,80,0,-1,7,3.8,50000,1,5.9,3.5
2022,9,1,23:40,UTC,5,1020,-,79,0,-1,7.2,3.7,50000,8,6.7,4.1
2022,9,1,23:50,UTC,5,1020,-,80,0,-1,6.9,3.7,50000,11,5.9,4
2022,9,2,00:00,UTC,3,1020,0,81,0,-1,6.8,3.8,50000,7,6.6,3.7
2022,9,2,00:10,UTC,3,1020.1,-,82,0,-1,6.7,3.8,50000,5,6.7,3.5
2022,9,2,00:20,UTC,3,1020.1,-,82,0,-1,6.6,3.8,50000,7,5.5,3.3
2022,9,2,00:30,UTC,3,1020.1,-,83,0,-1,6.5,3.8,50000,7,7.3,3.5
2022,9,2,00:40,UTC,1,1020.1,-,84,0,-1,6.2,3.7,50000,2,6.1,3.7
2022,9,2,00:50,UTC,0,1020.1,-,84,0,-1,6.2,3.8,50000,4,5.4,3.4
2022,9,2,01:00,UTC,0,1020.1,0,85,0,-1,6,3.7,50000,5,5.1,3.2
2022,9,2,01:10,UTC,0,1020.1,-,85,0,-1,5.9,3.6,50000,5,6.1,3.5
2022,9,2,01:20,UTC,0,1020.1,-,86,0,-1,5.8,3.6,50000,2,5.8,3.3
2022,9,2,01:30,UTC,0,1020.2,-,89,0,-1,5.2,3.5,50000,353,5.2,2.9
2022,9,2,01:40,UTC,0,1020.3,-,90,0,-1,5.2,3.6,50000,355,5.9,3
2022,9,2,01:50,UTC,0,1020.3,-,90,0,-1,5.2,3.7,50000,354,6.4,3.4
2022,9,2,02:00,UTC,0,1020.3,0,89,0,-1,5.2,3.6,50000,357,5.6,3.5
2022,9,2,02:10,UTC,0,1020.3,-,89,0,-1,5.3,3.6,50000,359,6,3.7
2022,9,2,02:20,UTC,0,1020.4,-,88,0,-1,5.3,3.5,50000,1,6.1,3.8
2022,9,2,02:30,UTC,0,1020.5,-,89,0,-1,5.2,3.6,50000,1,6.5,3.8
2022,9,2,02:40,UTC,0,1020.5,-,89,0,-1,5.2,3.5,50000,1,6.6,3.5
2022,9,2,02:50,UTC,0,1020.5,-,89,0,-1,5.1,3.5,50000,1,5.6,3.7
2022,9,2,03:00,UTC,0,1020.6,0,89,0,-1,5.2,3.5,50000,1,6.1,3.7
2022,9,2,03:10,UTC,0,1020.6,-,89,0,-1,5.1,3.4,50000,360,5.9,3.4
2022,9,2,03:20,UTC,0,1020.7,-,89,0,-1,5.2,3.5,50000,359,5.9,3.4
2022,9,2,03:30,UTC,0,1020.8,-,89,0,-1,5,3.4,50000,358,5.2,3.4
2022,9,2,03:40,UTC,0,1020.8,-,90,0,-1,4.8,3.3,50000,356,5.7,3.3
2022,9,2,03:50,UTC,0,1020.9,-,91,0,-1,4.8,3.4,50000,355,5.8,3.4
2022,9,2,04:00,UTC,0,1020.9,0,90,0,-1,4.8,3.4,50000,356,5.3,3
2022,9,2,04:10,UTC,0,1021,-,91,0,-1,4.9,3.5,50000,354,6.3,3.5
2022,9,2,04:20,UTC,0,1021,-,90,0,-1,5,3.5,50000,350,5.8,2.9
2022,9,2,04:30,UTC,0,1021.1,-,89,0,-1,5.4,3.7,50000,354,6.1,3.7
2022,9,2,04:40,UTC,0,1021.1,-,88,0,-1,5.6,3.7,50000,352,6.1,3.5
2022,9,2,04:50,UTC,0,1021.1,-,86,0,-1,5.9,3.7,50000,349,7.5,4.2
2022,9,2,05:00,UTC,0,1021.1,0,85,0,-1,6.2,3.8,46640,355,8.1,4.3
2022,9,2,05:10,UTC,0,1021.1,-,83,0,-1,6.7,3.9,48180,1,6.3,3.5
2022,9,2,05:20,UTC,0,1021,-,79,0,-1,7.3,3.9,46590,3,7.5,3.9
2022,9,2,05:30,UTC,0,1021,-,77,0,-1,7.6,3.9,47490,6,7.2,4.5
2022,9,2,05:40,UTC,0,1021,-,76,0,-1,7.8,3.8,50000,4,7.6,4
2022,9,2,05:50,UTC,0,1021,-,76,0,-1,8.1,4.1,39790,11,7.4,4.3
2022,9,2,06:00,UTC,0,1021,0,75,0,-1,8.5,4.2,50000,9,6.3,3.6
2022,9,2,06:10,UTC,0,1021.1,-,73,0,-1,9,4.3,40000,8,6.4,3.7
2022,9,2,06:20,UTC,0,1021.1,-,72,0,-1,8.9,4.2,46940,357,6,3
2022,9,2,06:30,UTC,0,1021,-,71,0,-1,9.4,4.5,42160,7,6.5,3.8
2022,9,2,06:40,UTC,0,1021.1,-,71,0,-1,9.3,4.3,40520,11,8.2,4.6
2022,9,2,06:50,UTC,0,1021.1,-,70,0,-1,9.8,4.6,48540,3,7.3,4.4
2022,9,2,07:00,UTC,0,1021.1,0,69,0,-1,9.9,4.4,41720,1,6.9,4.5
2022,9,2,07:10,UTC,0,1021.1,-,65,0,-1,10.4,4.1,42720,360,8.1,3.7
2022,9,2,07:20,UTC,0,1021.1,-,65,0,-1,10.7,4.4,43430,8,7.7,4.7
2022,9,2,07:30,UTC,0,1021.2,-,62,0,-1,10.9,4,40950,8,8.7,4.9
2022,9,2,07:40,UTC,0,1021.1,-,61,0,-1,11.2,3.9,41560,7,8,5
2022,9,2,07:50,UTC,0,1021.2,-,58,0,-1,11.4,3.6,40030,18,6.7,4
2022,9,2,08:00,UTC,0,1021.2,0,59,0,-1,11.4,3.6,46740,6,7.9,4.8
2022,9,2,08:10,UTC,0,1021.2,-,55,0,-1,12.1,3.3,45150,6,6.9,4
2022,9,2,08:20,UTC,1,1021.2,-,56,0,-1,12.1,3.5,40550,357,8.3,5.1
2022,9,2,08:30,UTC,1,1021.2,-,55,0,-1,11.6,3,48820,5,8.2,4.9
2022,9,2,08:40,UTC,1,1021.2,-,54,0,-1,12,3.1,45560,10,8.2,4.8
2022,9,2,08:50,UTC,1,1021.2,-,53,0,-1,12.1,2.7,38340,13,8.5,5.5
2022,9,2,09:00,UTC,1,1021.2,0,52,0,-1,12.7,2.9,50000,8,7.6,4.5
2022,9,2,09:10,UTC,1,1021.3,-,51,0,-1,12.3,2.5,43010,9,8.6,5.2
2022,9,2,09:20,UTC,3,1021.3,-,49,0,-1,12.8,2.2,44700,25,9,5.2
2022,9,2,09:30,UTC,1,1021.3,-,49,0,-1,12.9,2.5,44110,28,8.1,4.6
2022,9,2,09:40,UTC,1,1021.4,-,50,0,-1,12.8,2.6,39030,16,8.3,4.9
2022,9,2,09:50,UTC,1,1021.3,-,48,0,-1,13.3,2.5,46600,27,7.3,3.6
2022,9,2,10:00,UTC,1,1021.4,0,49,0,-1,13.2,2.6,48440,17,7.3,4.4
2022,9,2,10:10,UTC,1,1021.3,-,47,0,-1,13.2,2.1,42760,31,7.3,4.2
2022,9,2,10:20,UTC,3,1021.4,-,46,0,-1,13.6,2.3,41770,35,8.2,4.1
2022,9,2,10:30,UTC,1,1021.5,-,48,0,-1,13.3,2.5,42510,358,7.1,4.6
2022,9,2,10:40,UTC,1,1021.5,-,44,0,-1,13.7,1.8,46060,24,8.3,5.2
2022,9,2,10:50,UTC,1,1021.6,-,44,0,-1,14.2,2.1,49210,16,8.3,4.6
2022,9,2,11:00,UTC,1,1021.6,0,43,0,-1,13.8,1.6,50000,359,6.9,4
2022,9,2,11:10,UTC,1,1021.5,-,41,0,-1,14.4,1.2,47480,22,8.9,4.8
2022,9,2,11:20,UTC,1,1021.6,-,44,0,-1,13.6,1.5,49290,3,7.8,4.5
2022,9,2,11:30,UTC,1,1021.5,-,42,0,-1,14.4,1.7,40950,344,8.4,4.2
2022,9,2,11:40,UTC,1,1021.5,-,41,0,-1,14.2,1.2,50000,16,7.9,3.5
2022,9,2,11:50,UTC,1,1021.4,-,42,0,-1,14,1.3,50000,7,8.5,3.9
2022,9,2,12:00,UTC,1,1021.3,0,40,0,-1,14.8,1.2,42050,349,7,3.4
2022,9,2,12:10,UTC,1,1021.3,-,37,0,-1,15.2,0.5,45230,341,8.3,4.5
2022,9,2,12:20,UTC,1,1021.2,-,39,0,-1,14.3,0.5,50000,352,6.7,4.1
2022,9,2,12:30,UTC,3,1021.2,-,38,0,-1,15,0.8,44310,9,6.1,3.2
2022,9,2,12:40,UTC,3,1021.3,-,41,0,-1,13.9,0.8,50000,10,7.8,4.6
2022,9,2,12:50,UTC,3,1021.3,-,43,0,-1,14.1,1.6,50000,339,5.5,3.3
2022,9,2,13:00,UTC,3,1021.2,0,39,0,-1,14.3,0.4,45540,346,5.7,3
2022,9,2,13:10,UTC,5,1021.2,-,41,0,-1,14,0.8,41750,5,7.8,4.6
2022,9,2,13:20,UTC,3,1021.3,-,41,0,-1,13.7,0.7,50000,12,5.9,3.7
2022,9,2,13:30,UTC,5,1021.2,-,40,0,-1,14.7,1.3,43640,349,5,3
2022,9,2,13:40,UTC,5,1021.3,-,42,0,-1,14.1,1.5,50000,358,7.2,3.7
2022,9,2,13:50,UTC,7,1021.2,-,40,0,-1,13.8,0.6,50000,6,7.9,4.2
2022,9,2,14:00,UTC,7,1021.3,0,43,0,-1,13.6,1.2,50000,1,7.8,4.9
2022,9,2,14:10,UTC,7,1021.3,-,40,0,-1,13.5,0.2,50000,360,7.3,4.8
2022,9,2,14:20,UTC,7,1021.3,-,40,0,-1,13.8,0.5,50000,360,4.6,2.6
2022,9,2,14:30,UTC,7,1021.3,-,43,0,-1,13.6,1.2,50000,351,7.2,3.8
2022,9,2,14:40,UTC,7,1021.4,-,45,0,-1,13.5,1.6,50000,351,6.7,3.2
2022,9,2,14:50,UTC,7,1021.4,-,42,0,-1,13,0.5,50000,19,8.3,4.3
2022,9,2,15:00,UTC,5,1021.3,0,44,0,-1,12.9,0.9,50000,32,7.2,4
2022,9,2,15:10,UTC,5,1021.3,-,44,0,-1,13,1,50000,15,6,3.3
2022,9,2,15:20,UTC,3,1021.3,-,45,0,-1,12.8,1.1,50000,19,6.2,3.8
2022,9,2,15:30,UTC,1,1021.4,-,46,0,-1,12.5,1.3,50000,9,6.4,3.9
2022,9,2,15:40,UTC,1,1021.4,-,46,0,-1,12.3,1.1,50000,358,8.3,3.7
2022,9,2,15:50,UTC,1,1021.4,-,48,0,-1,12,1.4,50000,350,5.8,3.2
2022,9,2,16:00,UTC,1,1021.5,0,49,0,-1,12,1.6,50000,355,7.2,4.5
2022,9,2,16:10,UTC,3,1021.5,-,50,0,-1,11.9,1.7,50000,4,8.1,4.4
2022,9,2,16:20,UTC,3,1021.5,-,51,0,-1,11.7,1.9,50000,10,6.2,3.5
2022,9,2,16:30,UTC,5,1021.4,-,50,0,-1,11.6,1.6,50000,14,7.8,4.3
2022,9,2,16:40,UTC,5,1021.4,-,51,0,-1,11.4,1.7,50000,6,6.6,4.3
2022,9,2,16:50,UTC,7,1021.4,-,51,0,-1,11.5,1.7,50000,8,6.3,3.5
2022,9,2,17:00,UTC,7,1021.4,0,51,0,-1,11.4,1.7,50000,11,6.6,3.4
2022,9,2,17:10,UTC,7,1021.5,-,53,0,-1,11,1.8,50000,1,4.5,2.9
2022,9,2,17:20,UTC,5,1021.5,-,54,0,-1,10.8,1.9,50000,3,6.2,3.3
2022,9,2,17:30,UTC,3,1021.5,-,56,0,-1,10.4,2,50000,6,5.9,3.6
2022,9,2,17:40,UTC,1,1021.6,-,58,0,-1,10,2.1,50000,360,4.7,2.9
2022,9,2,17:50,UTC,1,1021.7,-,61,0,-1,9.5,2.3,50000,357,4.7,2.6
2022,9,2,18:00,UTC,0,1021.7,0,63,0,-1,9,2.4,50000,351,4.6,3
2022,9,2,18:10,UTC,0,1021.8,-,65,0,-1,8.8,2.5,50000,354,4.8,3
2022,9,2,18:20,UTC,0,1021.8,-,67,0,-1,8.4,2.7,50000,353,4.6,3.1
2022,9,2,18:30,UTC,0,1021.8,-,69,0,-1,8.1,2.7,50000,350,4.2,2.9
2022,9,2,18:40,UTC,1,1021.9,-,70,0,-1,8.1,2.9,50000,348,4.3,3
2022,9,2,18:50,UTC,1,1021.9,-,71,0,-1,7.9,2.9,50000,349,4.3,2.9
2022,9,2,19:00,UTC,3,1022,0,70,0,-1,8.2,3,50000,350,5.2,3.4
2022,9,2,19:10,UTC,1,1022,-,72,0,-1,7.8,3,50000,347,4.3,2.9
2022,9,2,19:20,UTC,3,1022,-,72,0,-1,7.8,3.1,50000,350,4.3,2.9
2022,9,2,19:30,UTC,3,1022,-,74,0,-1,7.6,3.1,50000,350,4.1,2.8
2022,9,2,19:40,UTC,1,1021.9,-,75,0,-1,7.3,3.2,50000,350,4.4,2.6
2022,9,2,19:50,UTC,3,1021.9,-,76,0,-1,7.1,3.2,50000,353,5.4,3.3
2022,9,2,20:00,UTC,3,1021.9,0,75,0,-1,7.4,3.2,50000,356,5,3
2022,9,2,20:10,UTC,5,1022,-,77,0,-1,7,3.2,50000,352,4.5,2.9
2022,9,2,20:20,UTC,5,1022.1,-,78,0,-1,6.7,3.2,50000,347,3.8,2.5
2022,9,2,20:30,UTC,3,1022.1,-,79,0,-1,6.5,3.2,50000,344,3.8,2.5
2022,9,2,20:40,UTC,1,1022.1,-,81,0,-1,6.3,3.3,50000,345,3.7,2.5
2022,9,2,20:50,UTC,1,1022.1,-,81,0,-1,6.3,3.3,50000,347,3.5,2.4
2022,9,2,21:00,UTC,0,1022.1,0,83,0,-1,6,3.3,50000,344,3.6,2.7
2022,9,2,21:10,UTC,0,1022.2,-,83,0,-1,5.9,3.3,50000,346,3.8,2.6
2022,9,2,21:20,UTC,0,1022.2,-,84,0,-1,5.8,3.3,50000,341,4,2.8
2022,9,2,21:30,UTC,0,1022.3,-,85,0,-1,5.7,3.3,50000,347,4,2.5
2022,9,2,21:40,UTC,0,1022.3,-,85,0,-1,5.6,3.3,50000,345,4,3
2022,9,2,21:50,UTC,0,1022.4,-,85,0,-1,5.6,3.3,50000,345,4.6,2.9
2022,9,2,22:00,UTC,0,1022.4,0,85,0,-1,5.6,3.3,50000,345,4.3,2.9
2022,9,2,22:10,UTC,0,1022.3,-,85,0,-1,5.6,3.2,50000,346,4.8,2.9
2022,9,2,22:20,UTC,0,1022.4,-,85,0,-1,5.4,3.2,50000,347,4.2,2.7
2022,9,2,22:30,UTC,0,1022.4,-,86,0,-1,5.3,3.2,50000,351,4.5,2.7
2022,9,2,22:40,UTC,0,1022.4,-,87,0,-1,5.1,3.1,50000,351,3.9,2.5
2022,9,2,22:50,UTC,0,1022.3,-,87,0,-1,5,3.1,50000,346,4,2.5
2022,9,2,23:00,UTC,0,1022.4,0,88,0,-1,4.9,3.1,50000,342,4.7,3.2
2022,9,2,23:10,UTC,0,1022.3,-,88,0,-1,4.8,3,50000,341,4.2,3.1
2022,9,2,23:20,UTC,0,1022.3,-,88,0,-1,4.9,3,50000,343,4.6,3.2
2022,9,2,23:30,UTC,0,1022.4,-,89,0,-1,4.6,2.9,50000,332,4.8,3.5
2022,9,2,23:40,UTC,0,1022.5,-,90,0,-1,4.6,3.1,50000,331,4.6,3.3
2022,9,2,23:50,UTC,0,1022.5,-,90,0,-1,4.5,3.1,50000,331,4.2,3.3
2022,9,3,00:00,UTC,0,1022.5,0,91,0,-1,4.4,3,50000,336,4.8,3.5
2022,9,3,00:10,UTC,0,1022.5,-,90,0,-1,4.6,3.1,50000,340,4.8,3.6
2022,9,3,00:20,UTC,0,1022.5,-,90,0,-1,4.5,3,50000,336,5,3.7
2022,9,3,00:30,UTC,0,1022.5,-,90,0,-1,4.5,3,50000,337,4.7,3.4
2022,9,3,00:40,UTC,0,1022.5,-,91,0,-1,4.3,3,50000,331,4.4,3.2
2022,9,3,00:50,UTC,1,1022.5,-,92,0,-1,4.2,3,50000,332,4.1,3.4
2022,9,3,01:00,UTC,3,1022.5,0,92,0,-1,4.2,3.1,50000,333,4.2,3.2
2022,9,3,01:10,UTC,5,1022.5,-,92,0,-1,4.5,3.2,50000,336,4.5,3.2
2022,9,3,01:20,UTC,7,1022.5,-,90,0,-1,4.8,3.3,50000,337,4.1,2.9
2022,9,3,01:30,UTC,7,1022.4,-,89,0,-1,5,3.3,50000,346,3.6,2.3
2022,9,3,01:40,UTC,7,1022.5,-,89,0,-1,5,3.3,50000,350,3.2,2.3
2022,9,3,01:50,UTC,5,1022.5,-,89,0,-1,4.8,3.2,50000,338,3.7,2.7
2022,9,3,02:00,UTC,3,1022.5,0,92,0,-1,4.2,3,50000,325,4,3
2022,9,3,02:10,UTC,1,1022.5,-,93,0,-1,4.1,3.1,50000,328,3.7,3.1
2022,9,3,02:20,UTC,0,1022.4,-,94,0,-1,4.1,3.2,50000,335,3.7,2.9
2022,9,3,02:30,UTC,0,1022.4,-,94,0,-1,4,3.1,50000,336,4.3,3.1
2022,9,3,02:40,UTC,0,1022.4,-,95,0,-1,3.8,3,50000,336,4.5,3.2
2022,9,3,02:50,UTC,0,1022.4,-,95,0,-1,3.8,3,50000,335,4.7,3.3
2022,9,3,03:00,UTC,0,1022.4,0,95,0,-1,3.7,3.1,50000,332,4.4,3.2
2022,9,3,03:10,UTC,0,1022.5,-,96,0,-1,3.8,3.1,50000,336,4.8,3.4
2022,9,3,03:20,UTC,0,1022.5,-,96,0,-1,3.8,3.2,50000,338,4.6,3.2
2022,9,3,03:30,UTC,0,1022.5,-,96,0,-1,3.7,3.2,50000,332,5,3.7
2022,9,3,03:40,UTC,3,1022.6,-,96,0,-1,3.8,3.3,50000,334,4.8,3.2
2022,9,3,03:50,UTC,5,1022.5,-,96,0,-1,4,3.4,50000,342,4.8,3
2022,9,3,04:00,UTC,7,1022.5,0,96,0,-1,4.1,3.6,50000,330,4.4,2.9
2022,9,3,04:10,UTC,7,1022.6,-,96,0,-1,4.4,3.8,50000,334,4.1,3
2022,9,3,04:20,UTC,7,1022.6,-,95,0,-1,4.6,3.9,50000,326,4.5,3
2022,9,3,04:30,UTC,7,1022.6,-,94,0,-1,4.8,3.9,50000,327,4.6,3
2022,9,3,04:40,UTC,7,1022.7,-,93,0,-1,5.1,4,50000,327,4.8,3.1
2022,9,3,04:50,UTC,7,1022.7,-,91,0,-1,5.5,4.1,45220,328,5.1,3.2
2022,9,3,05:00,UTC,7,1022.7,0,91,0,-1,5.5,4.1,50000,334,5.2,3.2
2022,9,3,05:10,UTC,7,1022.8,-,89,0,-1,5.8,4.1,50000,340,4.6,2.8
2022,9,3,05:20,UTC,7,1022.8,-,89,0,-1,5.9,4.2,50000,336,5,3.4
2022,9,3,05:30,UTC,7,1022.7,-,88,0,-1,6.1,4.2,49280,342,5,2.7
2022,9,3,05:40,UTC,7,1022.7,-,88,0,-1,6.2,4.4,50000,337,4.8,3.1
2022,9,3,05:50,UTC,7,1022.7,-,87,0,-1,6.4,4.4,47470,338,4.2,2.5
2022,9,3,06:00,UTC,7,1022.7,0,86,0,-1,6.8,4.6,50000,330,5.6,2.5
2022,9,3,06:10,UTC,7,1022.8,-,84,0,-1,7,4.4,43470,333,4.6,2.8
2022,9,3,06:20,UTC,7,1022.7,-,84,0,-1,7.3,4.7,46940,330,4.7,2.5
2022,9,3,06:30,UTC,7,1022.7,-,81,0,-1,8,5,44660,323,4.3,2.4
2022,9,3,06:40,UTC,7,1022.7,-,79,0,-1,8.2,4.8,47460,330,4.5,2.3
2022,9,3,06:50,UTC,7,1022.8,-,77,0,-1,8.5,4.7,42650,333,4.8,2.4
2022,9,3,07:00,UTC,7,1022.7,0,76,0,-1,8.7,4.7,48550,321,5.1,2.9
2022,9,3,07:10,UTC,7,1022.8,-,75,0,-1,9.2,4.9,44790,322,6.1,3
2022,9,3,07:20,UTC,3,1022.8,-,73,0,-1,9.3,4.8,34900,331,5.5,3.7
2022,9,3,07:30,UTC,1,1022.8,-,72,0,-1,10.1,5.3,41280,320,5.2,3.4
2022,9,3,07:40,UTC,1,1022.8,-,69,0,-1,10.4,4.9,48680,317,5.9,3.4
2022,9,3,07:50,UTC,0,1022.8,-,66,0,-1,10.6,4.5,36040,310,4.7,2.8
2022,9,3,08:00,UTC,0,1022.8,0,63,0,-1,11,4.3,50000,304,5.9,3.5
2022,9,3,08:10,UTC,1,1022.9,-,61,0,-1,11.5,4.1,40680,328,5.2,2.9
2022,9,3,08:20,UTC,1,1022.8,-,59,0,-1,11.5,3.6,42980,317,8.1,3.7
2022,9,3,08:30,UTC,3,1022.7,-,58,0,-1,11.8,3.8,45980,340,7.9,5.2
2022,9,3,08:40,UTC,3,1022.8,-,59,0,-1,11.8,3.9,47030,333,7.7,4.2
2022,9,3,08:50,UTC,5,1022.9,-,61,0,-1,11.6,4.2,50000,343,8.4,4.2
2022,9,3,09:00,UTC,5,1023,0,60,0,-1,11.3,3.8,50000,329,7.2,4.2
2022,9,3,09:10,UTC,7,1023,-,62,0,-1,11.1,4,50000,349,7.6,4.2
2022,9,3,09:20,UTC,7,1023,-,59,0,-1,12,4.2,44420,333,6.3,3
2022,9,3,09:30,UTC,8,1023,-,60,0,-1,11.7,4.1,50000,324,5.5,2.8
2022,9,3,09:40,UTC,7,1023,-,57,0,-1,11.8,3.6,50000,332,6.6,4.3
2022,9,3,09:50,UTC,7,1023,-,55,0,-1,12.2,3.4,50000,333,7.7,5
2022,9,3,10:00,UTC,7,1023,0,55,0,-1,12.2,3.5,44320,334,6.1,3.7
2022,9,3,10:10,UTC,7,1023,-,56,0,-1,12.1,3.5,43010,350,6,3.4
2022,9,3,10:20,UTC,7,1023,-,54,0,-1,12.6,3.5,50000,331,7.8,3.7
2022,9,3,10:30,UTC,7,1023.1,-,55,0,-1,12.1,3.4,50000,346,7.7,4.1
2022,9,3,10:40,UTC,7,1023.2,-,53,0,-1,12.2,2.9,50000,340,8,4.6
2022,9,3,10:50,UTC,8,1023.2,-,54,0,-1,12.4,3.2,50000,332,7.2,4.2
2022,9,3,11:00,UTC,7,1023.2,0,55,0,-1,12.3,3.5,50000,324,8,4.8
2022,9,3,11:10,UTC,7,1023.2,-,53,0,-1,12.5,3.1,49900,342,6.3,3.9
2022,9,3,11:20,UTC,7,1023.3,-,55,0,-1,12.2,3.5,50000,330,6.2,3.9
2022,9,3,11:30,UTC,7,1023.3,-,54,0,-1,12.4,3.4,50000,340,7.1,4.2
2022,9,3,11:40,UTC,7,1023.3,-,55,0,-1,12.5,3.6,50000,335,7.7,4.1
2022,9,3,11:50,UTC,7,1023.4,-,56,0,-1,12.5,4.1,50000,333,6.7,3.6
2022,9,3,12:00,UTC,7,1023.3,0,55,0,-1,12.3,3.6,50000,347,5.5,3
2022,9,3,12:10,UTC,7,1023.3,-,56,0,-1,12.3,3.8,50000,351,6.5,3.9
2022,9,3,12:20,UTC,7,1023.2,-,53,0,-1,12.4,3.2,50000,345,6.6,3.3
2022,9,3,12:30,UTC,7,1023.1,-,52,0,-1,12.3,2.7,50000,324,8.6,4.9
2022,9,3,12:40,UTC,7,1023.1,-,49,0,-1,12.8,2.5,50000,311,7.8,4.7
2022,9,3,12:50,UTC,7,1023.2,-,51,0,-1,12.7,2.8,42710,320,8.8,5.9
2022,9,3,13:00,UTC,7,1023.2,0,52,0,-1,12.7,3,50000,339,7.7,5.5
2022,9,3,13:10,UTC,7,1023.2,-,52,0,-1,12.7,3.2,50000,320,6.8,4.4
2022,9,3,13:20,UTC,7,1023.1,-,51,0,-1,12.6,2.8,50000,340,7.8,4.8
2022,9,3,13:30,UTC,7,1023.1,-,52,0,-1,13,3.3,49920,346,6.7,3.5
2022,9,3,13:40,UTC,7,1023,-,52,0,-1,13.2,3.4,50000,339,7.4,3.5
2022,9,3,13:50,UTC,7,1023.1,-,52,0,-1,12.7,3.1,50000,347,6.3,2.9
2022,9,3,14:00,UTC,5,1023.1,0,50,0,-1,13.3,3.2,50000,333,7.3,4.3
2022,9,3,14:10,UTC,3,1023.1,-,51,0,-1,12.9,3,50000,347,7.1,3.8
2022,9,3,14:20,UTC,3,1023,-,54,0,-1,12.2,3.1,50000,342,8,4.6
2022,9,3,14:30,UTC,3,1023,-,55,0,-1,12.1,3.4,50000,345,6.8,4.1
2022,9,3,14:40,UTC,1,1023,-,52,0,-1,12.9,3.2,48730,332,8.4,4.9
2022,9,3,14:50,UTC,3,1022.9,-,52,0,-1,13,3.2,50000,342,7.2,4.1
2022,9,3,15:00,UTC,5,1022.9,0,51,0,-1,12.9,3,50000,2,8.4,4.8
2022,9,3,15:10,UTC,7,1022.9,-,53,0,-1,12.5,3,50000,356,8.4,4.9
2022,9,3,15:20,UTC,5,1022.8,-,53,0,-1,12.2,2.9,50000,358,8.3,4
2022,9,3,15:30,UTC,3,1022.9,-,53,0,-1,12.4,3,50000,356,6.4,3.6
2022,9,3,15:40,UTC,5,1022.9,-,50,0,-1,12.6,2.5,50000,354,8.7,4.6
2022,9,3,15:50,UTC,1,1022.9,-,52,0,-1,12,2.4,50000,356,7.1,4.3
2022,9,3,16:00,UTC,1,1023,0,53,0,-1,11.9,2.6,50000,3,6.7,3.4
2022,9,3,16:10,UTC,1,1023,-,55,0,-1,11.7,2.8,50000,6,5.5,3.2
2022,9,3,16:20,UTC,1,1023.1,-,55,0,-1,11.7,3,50000,7,4.6,2.8
2022,9,3,16:30,UTC,3,1023.1,-,55,0,-1,11.6,2.9,50000,6,5.7,3
2022,9,3,16:40,UTC,3,1023.2,-,57,0,-1,11.2,3.1,50000,4,4.7,2.5
2022,9,3,16:50,UTC,3,1023.2,-,57,0,-1,10.9,2.8,50000,4,4.9,2.5
2022,9,3,17:00,UTC,1,1023.3,0,60,0,-1,10.5,3,50000,359,4.1,2.5
2022,9,3,17:10,UTC,1,1023.2,-,61,0,-1,10.1,2.9,50000,354,4.5,2.4
2022,9,3,17:20,UTC,0,1023.3,-,64,0,-1,9.5,3.1,50000,348,3.4,2.2
2022,9,3,17:30,UTC,0,1023.4,-,66,0,-1,9.1,3.1,50000,337,4,2.4
2022,9,3,17:40,UTC,0,1023.4,-,68,0,-1,8.8,3.2,50000,329,3.4,2.5
2022,9,3,17:50,UTC,0,1023.5,-,70,0,-1,8.3,3.2,50000,317,3,2.4
2022,9,3,18:00,UTC,0,1023.5,0,71,0,-1,8.2,3.1,50000,301,3.1,2.3
2022,9,3,18:10,UTC,0,1023.6,-,74,0,-1,7.7,3.3,50000,303,3.5,2.8
2022,9,3,18:20,UTC,0,1023.6,-,75,0,-1,7.6,3.4,50000,303,3.5,2.7
2022,9,3,18:30,UTC,0,1023.7,-,76,0,-1,7.4,3.5,50000,312,3.5,3
2022,9,3,18:40,UTC,0,1023.7,-,78,0,-1,7.1,3.5,50000,313,3.4,2.7
2022,9,3,18:50,UTC,0,1023.8,-,80,0,-1,6.7,3.6,50000,310,3.4,2.9
2022,9,3,19:00,UTC,0,1023.8,0,80,0,-1,6.9,3.6,50000,293,3.7,3
2022,9,3,19:10,UTC,0,1023.8,-,80,0,-1,6.8,3.6,50000,301,3.9,3.1
2022,9,3,19:20,UTC,0,1023.8,-,81,0,-1,6.8,3.7,50000,311,4,3.5
2022,9,3,19:30,UTC,0,1023.9,-,79,0,-1,7.1,3.8,50000,309,4.1,3.5
2022,9,3,19:40,UTC,0,1023.9,-,78,0,-1,7.3,3.7,50000,303,4.4,3.7
2022,9,3,19:50,UTC,0,1023.9,-,79,0,-1,7,3.7,50000,298,5.1,3.4
2022,9,3,20:00,UTC,0,1023.9,0,81,0,-1,6.7,3.7,50000,302,4.7,3.3
2022,9,3,20:10,UTC,0,1023.9,-,82,0,-1,6.8,3.9,50000,304,4.7,3.9
2022,9,3,20:20,UTC,0,1024,-,81,0,-1,6.9,3.8,50000,313,4.9,3.9
2022,9,3,20:30,UTC,0,1024.1,-,82,0,-1,6.8,3.9,50000,320,5.2,3.8
2022,9,3,20:40,UTC,1,1024.2,-,81,0,-1,6.8,3.9,50000,328,5.3,3.9
2022,9,3,20:50,UTC,3,1024.2,-,81,0,-1,7,4,50000,328,5.7,4
2022,9,3,21:00,UTC,5,1024.3,0,80,0,-1,7.1,3.9,50000,334,5.2,3.6
2022,9,3,21:10,UTC,3,1024.3,-,81,0,-1,6.8,3.8,50000,333,5.3,3.7
2022,9,3,21:20,UTC,1,1024.3,-,81,0,-1,6.8,3.7,50000,338,5.7,3.6
2022,9,3,21:30,UTC,0,1024.3,-,81,0,-1,6.7,3.7,50000,341,4.8,3.4
2022,9,3,21:40,UTC,0,1024.4,-,82,0,-1,6.5,3.6,50000,342,4.9,3.5
2022,9,3,21:50,UTC,0,1024.4,-,84,0,-1,6.2,3.7,50000,334,4.9,3.7
2022,9,3,22:00,UTC,0,1024.5,0,85,0,-1,6,3.6,50000,337,5.4,3.7
2022,9,3,22:10,UTC,0,1024.5,-,85,0,-1,6,3.7,50000,335,4.7,3.7
2022,9,3,22:20,UTC,0,1024.6,-,85,0,-1,6.1,3.8,50000,338,4.9,3.4
2022,9,3,22:30,UTC,0,1024.7,-,86,0,-1,5.9,3.8,50000,337,5.2,3.4
2022,9,3,22:40,UTC,0,1024.8,-,88,0,-1,5.7,3.9,50000,338,5,3.1
2022,9,3,22:50,UTC,0,1024.8,-,88,0,-1,5.6,3.8,50000,349,4.4,2.7
2022,9,3,23:00,UTC,0,1024.8,0,88,0,-1,5.6,3.9,50000,351,4.1,2.7
2022,9,3,23:10,UTC,0,1024.8,-,90,0,-1,5.4,3.9,50000,343,4.5,3.2
2022,9,3,23:20,UTC,0,1024.8,-,90,0,-1,5.4,3.9,50000,340,4.9,3.5
2022,9,3,23:30,UTC,0,1024.9,-,91,0,-1,5.3,4,50000,343,4.4,3
2022,9,3,23:40,UTC,0,1024.9,-,92,0,-1,5.3,4,50000,348,4.5,2.9
2022,9,3,23:50,UTC,0,1024.9,-,92,0,-1,5.3,4.1,50000,348,4.6,3.1
2022,9,4,00:00,UTC,0,1024.9,0,91,0,-1,5.4,4,50000,347,4.8,3.1
2022,9,4,00:10,UTC,0,1024.9,-,92,0,-1,5.3,4,50000,350,5,3.1
2022,9,4,00:20,UTC,0,1024.9,-,92,0,-1,5,3.9,50000,352,4.7,2.9
2022,9,4,00:30,UTC,0,1024.9,-,93,0,-1,5,4,50000,353,4.8,3.1
2022,9,4,00:40,UTC,0,1025,-,93,0,-1,5,4,50000,351,5.1,3.1
2022,9,4,00:50,UTC,0,1025,-,93,0,-1,4.9,3.9,50000,351,4.5,2.9
2022,9,4,01:00,UTC,0,1025,0,94,0,-1,4.8,3.9,50000,348,4.9,2.8
2022,9,4,01:10,UTC,0,1025,-,94,0,-1,4.9,4.1,50000,343,5,3.3
2022,9,4,01:20,UTC,0,1025.1,-,94,0,-1,4.8,3.9,50000,346,5.1,3.2
2022,9,4,01:30,UTC,1,1025.1,-,94,0,-1,4.8,4,50000,347,5,3
2022,9,4,01:40,UTC,0,1025.2,-,95,0,-1,4.7,3.9,50000,347,4.3,2.8
2022,9,4,01:50,UTC,0,1025.1,-,95,0,-1,4.7,4,50000,343,5.2,3.4
2022,9,4,02:00,UTC,0,1025.2,0,95,0,-1,4.5,3.8,50000,340,5.1,3.4
2022,9,4,02:10,UTC,0,1025.1,-,95,0,-1,4.5,3.8,50000,340,4.9,3.3
2022,9,4,02:20,UTC,0,1025.1,-,96,0,-1,4.4,3.8,50000,337,5.2,3.3
2022,9,4,02:30,UTC,3,1025.2,-,96,0,-1,4.5,3.9,50000,336,5,3.2
2022,9,4,02:40,UTC,5,1025.3,-,96,0,-1,4.7,4.1,50000,339,5.1,3.3
2022,9,4,02:50,UTC,7,1025.3,-,96,0,-1,4.8,4.1,50000,339,5,3.6
2022,9,4,03:00,UTC,7,1025.3,0,95,0,-1,4.9,4.2,50000,342,5.4,3.4
2022,9,4,03:10,UTC,7,1025.3,-,95,0,-1,5,4.3,50000,345,5.1,3.4
2022,9,4,03:20,UTC,7,1025.2,-,94,0,-1,5.1,4.3,50000,351,5.1,2.9
2022,9,4,03:30,UTC,7,1025.3,-,94,0,-1,5.2,4.3,50000,350,5,3.2
2022,9,4,03:40,UTC,7,1025.5,-,93,0,-1,5.4,4.5,50000,352,5.4,3.3
2022,9,4,03:50,UTC,7,1025.5,-,93,0,-1,5.5,4.5,50000,349,5.1,2.9
2022,9,4,04:00,UTC,7,1025.5,0,93,0,-1,5.5,4.4,50000,347,4.7,3
2022,9,4,04:10,UTC,7,1025.6,-,93,0,-1,5.5,4.5,50000,341,5.6,3.5
2022,9,4,04:20,UTC,7,1025.7,-,93,0,-1,5.7,4.7,50000,343,5.6,3.3
2022,9,4,04:30,UTC,5,1025.8,-,92,0,-1,5.8,4.7,50000,342,5,3.2
2022,9,4,04:40,UTC,7,1025.8,-,92,0,-1,6.1,4.8,50000,344,5.1,3.2
2022,9,4,04:50,UTC,5,1025.8,-,91,0,-1,6.2,4.8,50000,344,4.6,3
2022,9,4,05:00,UTC,5,1025.9,0,90,0,-1,6.5,5,50000,347,5.1,3
2022,9,4,05:10,UTC,3,1025.9,-,89,0,-1,6.9,5.2,50000,348,5.2,3.1
2022,9,4,05:20,UTC,3,1025.9,-,87,0,-1,7.3,5.2,50000,355,5.9,3
2022,9,4,05:30,UTC,3,1025.9,-,85,0,-1,7.8,5.4,50000,355,6.4,2.9
2022,9,4,05:40,UTC,3,1025.9,-,83,0,-1,8.1,5.4,50000,358,6.1,3
2022,9,4,05:50,UTC,5,1026,-,82,0,-1,8.3,5.4,50000,357,5.5,2.9
2022,9,4,06:00,UTC,5,1026.1,0,82,0,-1,8.5,5.6,48880,358,6.7,3.1
2022,9,4,06:10,UTC,5,1026.1,-,79,0,-1,9.1,5.7,50000,2,7.6,3.5
2022,9,4,06:20,UTC,3,1026.1,-,79,0,-1,9.1,5.6,48230,7,7.2,4
2022,9,4,06:30,UTC,1,1026.2,-,77,0,-1,9.5,5.6,45770,13,6.7,4.7
2022,9,4,06:40,UTC,1,1026.2,-,76,0,-1,9.5,5.5,47280,16,8.4,5.2
2022,9,4,06:50,UTC,1,1026.3,-,75,0,-1,10.4,6.1,50000,7,5.8,3.4
2022,9,4,07:00,UTC,1,1026.4,0,72,0,-1,10.6,5.7,38500,4,5.9,3.5
2022,9,4,07:10,UTC,1,1026.4,-,72,0,-1,10.7,5.9,44920,355,5.7,3.6
2022,9,4,07:20,UTC,0,1026.4,-,71,0,-1,10.9,5.8,48940,358,5.8,3.4
2022,9,4,07:30,UTC,0,1026.5,-,71,0,-1,11.1,6.1,50000,353,5.5,2.8
2022,9,4,07:40,UTC,0,1026.5,-,68,0,-1,11,5.3,50000,1,6.3,3.6
2022,9,4,07:50,UTC,1,1026.5,-,68,0,-1,11.5,5.8,50000,348,6.2,3
2022,9,4,08:00,UTC,1,1026.5,0,65,0,-1,11.8,5.5,45600,351,5.7,3.5
2022,9,4,08:10,UTC,1,1026.5,-,61,0,-1,11.9,4.6,40600,19,7.3,4.7
2022,9,4,08:20,UTC,0,1026.6,-,60,0,-1,12.1,4.7,44830,17,7.9,4.2
2022,9,4,08:30,UTC,0,1026.6,-,60,0,-1,12.5,4.9,49580,14,6.3,3.4
2022,9,4,08:40,UTC,1,1026.6,-,59,0,-1,12.6,4.9,46240,8,7.3,4.3
2022,9,4,08:50,UTC,1,1026.6,-,59,0,-1,12,4.2,50000,16,7.9,4.7
2022,9,4,09:00,UTC,3,1026.6,0,56,0,-1,12.4,3.9,46950,15,8.7,4.3
2022,9,4,09:10,UTC,3,1026.6,-,57,0,-1,12.5,4.3,50000,5,7.2,4
2022,9,4,09:20,UTC,3,1026.6,-,55,0,-1,12.8,3.8,46700,16,7.9,4.9
2022,9,4,09:30,UTC,5,1026.6,-,53,0,-1,12.5,3.3,50000,12,9.8,5.6
2022,9,4,09:40,UTC,5,1026.6,-,49,0,-1,13.9,3.4,50000,8,7.6,3.6
2022,9,4,09:50,UTC,5,1026.6,-,49,0,-1,13.8,3.1,50000,355,8.5,5.3
2022,9,4,10:00,UTC,7,1026.7,0,47,0,-1,13.3,2.2,47460,351,8.8,5.1
2022,9,4,10:10,UTC,7,1026.8,-,48,0,-1,13.1,2.5,50000,351,10,6.2
2022,9,4,10:20,UTC,7,1026.7,-,50,0,-1,13,2.9,50000,1,9.1,4.9
2022,9,4,10:30,UTC,5,1026.7,-,52,0,-1,13.6,3.9,48850,2,6.8,3.3
2022,9,4,10:40,UTC,7,1026.7,-,51,0,-1,12.9,3,50000,347,6.8,4.2
2022,9,4,10:50,UTC,5,1026.7,-,47,0,-1,13.5,2.4,44900,358,7.7,3.7
2022,9,4,11:00,UTC,7,1026.8,0,47,0,-1,13.7,2.4,48790,6,7.8,4.5
2022,9,4,11:10,UTC,7,1026.9,-,46,0,-1,13.2,1.9,49530,359,8.7,5.4
2022,9,4,11:20,UTC,7,1026.9,-,46,0,-1,13.5,2.2,50000,357,7.1,4.3
2022,9,4,11:30,UTC,7,1026.9,-,45,0,-1,13.9,2.2,50000,1,9,4.8
2022,9,4,11:40,UTC,7,1026.9,-,47,0,-1,13.7,2.7,46880,360,8.5,4.8
2022,9,4,11:50,UTC,7,1027,-,48,0,-1,12.9,2.2,50000,351,8.5,5.3
2022,9,4,12:00,UTC,7,1027,0,47,0,-1,13.1,2.1,50000,349,9.1,4.9
2022,9,4,12:10,UTC,5,1027,-,46,0,-1,13.3,1.8,50000,1,6.9,4
2022,9,4,12:20,UTC,5,1027,-,45,0,-1,13.3,1.5,50000,3,9.1,5
2022,9,4,12:30,UTC,5,1027.1,-,45,0,-1,13.3,1.5,50000,8,7.7,4.7
2022,9,4,12:40,UTC,7,1027,-,44,0,-1,13.7,1.8,50000,19,8.8,4.2
2022,9,4,12:50,UTC,7,1027.1,-,45,0,-1,13.2,1.5,50000,5,8.9,4.9
2022,9,4,13:00,UTC,7,1027.1,0,46,0,-1,13.3,1.8,50000,6,6.8,4
2022,9,4,13:10,UTC,7,1027.2,-,48,0,-1,13.2,2.4,50000,9,7.7,4
2022,9,4,13:20,UTC,7,1027.2,-,47,0,-1,13.1,1.9,50000,351,8.1,5
2022,9,4,13:30,UTC,7,1027.2,-,47,0,-1,13.2,2,50000,344,7.3,4.6
2022,9,4,13:40,UTC,7,1027.3,-,48,0,-1,12.7,2,50000,358,8.9,5.3
2022,9,4,13:50,UTC,8,1027.3,-,49,0,-1,12.8,2.3,50000,10,7.3,4
2022,9,4,14:00,UTC,8,1027.3,0,47,0,-1,12.6,1.4,50000,22,8.1,5.1
2022,9,4,14:10,UTC,7,1027.3,-,47,0,-1,13,2,50000,14,8.3,4.3
2022,9,4,14:20,UTC,7,1027.5,-,46,0,-1,12.4,1.1,50000,19,10.4,6.2
2022,9,4,14:30,UTC,5,1027.5,-,46,0,-1,12.4,1.2,50000,7,10.1,6
2022,9,4,14:40,UTC,3,1027.6,-,47,0,-1,12.1,1.2,50000,1,9.5,5.7
2022,9,4,14:50,UTC,3,1027.5,-,47,0,-1,12.5,1.4,50000,14,9.5,5.5
2022,9,4,15:00,UTC,5,1027.5,0,46,0,-1,12.4,1,48790,27,9.5,5.5
2022,9,4,15:10,UTC,7,1027.5,-,47,0,-1,12.3,1.3,50000,34,9.6,5.9
2022,9,4,15:20,UTC,5,1027.5,-,46,0,-1,12.5,1,50000,29,9,4.5
2022,9,4,15:30,UTC,3,1027.5,-,47,0,-1,12.2,1.2,50000,26,9.1,5.2
2022,9,4,15:40,UTC,1,1027.4,-,48,0,-1,11.8,1.1,50000,40,6.9,4.9
2022,9,4,15:50,UTC,3,1027.5,-,48,0,-1,11.7,1.1,50000,29,7.1,4.3
2022,9,4,16:00,UTC,3,1027.5,0,49,0,-1,11.7,1.2,50000,26,7.6,5.1
2022,9,4,16:10,UTC,1,1027.5,-,49,0,-1,11.6,1.3,50000,34,9.1,5.3
2022,9,4,16:20,UTC,3,1027.6,-,50,0,-1,11.4,1.4,50000,23,6.4,3.5
2022,9,4,16:30,UTC,3,1027.7,-,51,0,-1,11.3,1.5,50000,32,5.5,3.3
2022,9,4,16:40,UTC,5,1027.8,-,52,0,-1,11.1,1.7,50000,36,5,3.3
2022,9,4,16:50,UTC,5,1027.8,-,52,0,-1,11.1,1.7,50000,49,4.6,3
2022,9,4,17:00,UTC,5,1027.8,0,54,0,-1,10.7,1.9,50000,54,3.9,2.3
2022,9,4,17:10,UTC,5,1028,-,57,0,-1,10.3,2.1,50000,53,3.9,2.2
2022,9,4,17:20,UTC,5,1028.1,-,57,0,-1,10.1,2,50000,49,4.3,2.2
2022,9,4,17:30,UTC,7,1028.2,-,57,0,-1,10.2,2.2,50000,42,3.7,2.7
2022,9,4,17:40,UTC,7,1028.2,-,60,0,-1,9.6,2.2,50000,44,3.2,2.4
2022,9,4,17:50,UTC,3,1028.3,-,64,0,-1,8.9,2.6,50000,59,3.8,2
2022,9,4,18:00,UTC,1,1028.4,0,61,0,-1,9.3,2.2,50000,62,3.7,2.9
2022,9,4,18:10,UTC,0,1028.5,-,62,0,-1,9.1,2.3,50000,53,4.6,2.8
2022,9,4,18:20,UTC,0,1028.6,-,65,0,-1,8.5,2.4,50000,49,4.9,2.7
2022,9,4,18:30,UTC,0,1028.6,-,68,0,-1,8,2.5,50000,40,4.1,3
2022,9,4,18:40,UTC,0,1028.7,-,69,0,-1,7.9,2.5,50000,39,3.4,2.9
2022,9,4,18:50,UTC,0,1028.8,-,70,0,-1,7.6,2.5,50000,38,3.2,2.5
2022,9,4,19:00,UTC,3,1028.9,0,70,0,-1,7.6,2.5,50000,35,3.1,2.6
2022,9,4,19:10,UTC,5,1028.9,-,70,0,-1,7.6,2.6,50000,37,3.2,2.6
2022,9,4,19:20,UTC,7,1029.1,-,71,0,-1,7.7,2.9,50000,40,3.3,2.7
2022,9,4,19:30,UTC,7,1029.1,-,68,0,-1,8.4,2.7,50000,40,3.6,3
2022,9,4,19:40,UTC,7,1029.2,-,68,0,-1,8.3,2.8,50000,39,4,2.9
2022,9,4,19:50,UTC,7,1029.2,-,70,0,-1,8.1,2.9,50000,38,3.9,2.9
2022,9,4,20:00,UTC,7,1029.3,0,69,0,-1,8.2,2.9,50000,35,4.4,3.1
2022,9,4,20:10,UTC,7,1029.4,-,69,0,-1,8.3,2.9,50000,44,4,2.8
2022,9,4,20:20,UTC,7,1029.5,-,70,0,-1,8.1,2.9,50000,45,4.1,2.7
2022,9,4,20:30,UTC,7,1029.5,-,67,0,-1,8.6,2.7,50000,45,4.2,2.5
2022,9,4,20:40,UTC,7,1029.5,-,71,0,-1,8.2,3.2,50000,17,4,2.5
2022,9,4,20:50,UTC,8,1029.6,-,71,0,-1,8.1,3.2,50000,19,3.4,2.2
2022,9,4,21:00,UTC,8,1029.5,0,72,0,-1,8,3.2,50000,12,3.2,2.4
2022,9,4,21:10,UTC,8,1029.6,-,67,0,-1,8.4,2.7,50000,25,3.1,2.4
2022,9,4,21:20,UTC,8,1029.7,-,69,0,-1,8.5,3.1,50000,22,4.1,2.5
2022,9,4,21:30,UTC,7,1029.7,-,67,0,-1,8.6,2.7,50000,16,3.6,2.3
2022,9,4,21:40,UTC,7,1029.7,-,69,0,-1,8.1,2.8,50000,14,3.2,2.3
2022,9,4,21:50,UTC,8,1029.7,-,69,0,-1,8,2.8,50000,19,4.3,2.7
2022,9,4,22:00,UTC,7,1029.8,0,67,0,-1,8.3,2.6,50000,27,3.4,2.4
2022,9,4,22:10,UTC,7,1029.9,-,70,0,-1,8.1,2.9,50000,26,3.2,2.4
2022,9,4,22:20,UTC,7,1029.9,-,69,0,-1,8,2.7,50000,17,3.4,2.5
2022,9,4,22:30,UTC,7,1029.7,-,71,0,-1,7.8,3,50000,16,3.5,2.4
2022,9,4,22:40,UTC,7,1029.8,-,71,0,-1,7.8,2.8,50000,16,3.3,2.2
2022,9,4,22:50,UTC,8,1029.9,-,70,0,-1,7.9,2.7,50000,15,3.5,2.4
2022,9,4,23:00,UTC,8,1029.9,0,71,0,-1,7.8,2.9,50000,4,3.9,2.5
2022,9,4,23:10,UTC,8,1029.9,-,72,0,-1,7.7,2.9,50000,344,4,2.6
2022,9,4,23:20,UTC,8,1029.9,-,73,0,-1,7.6,3,50000,355,3.3,2.2
2022,9,4,23:30,UTC,7,1030,-,72,0,-1,7.6,2.8,50000,354,3.3,2.2
2022,9,4,23:40,UTC,7,1030.1,-,73,0,-1,7.5,2.9,50000,360,3.8,2.2
2022,9,4,23:50,UTC,8,1030,-,72,0,-1,7.5,2.7,50000,9,3.6,2.1
2022,9,5,00:00,UTC,7,1030,0,71,0,-1,7.4,2.5,50000,4,3.3,2.4
2022,9,5,00:10,UTC,7,1030,-,71,0,-1,7.3,2.4,50000,12,3.7,2.5
2022,9,5,00:20,UTC,7,1030.1,-,72,0,-1,7.1,2.4,50000,4,3.7,2.4
2022,9,5,00:30,UTC,7,1030,-,70,0,-1,7.3,2.2,50000,15,3.6,2.5
2022,9,5,00:40,UTC,7,1030,-,73,0,-1,6.8,2.3,50000,14,3.8,2.9
2022,9,5,00:50,UTC,5,1030,-,74,0,-1,6.7,2.3,50000,19,3.7,2.9
2022,9,5,01:00,UTC,5,1029.9,0,72,0,-1,6.9,2.2,50000,25,4.4,3.1
2022,9,5,01:10,UTC,5,1029.8,-,72,0,-1,7.1,2.3,50000,25,4.5,3.3
2022,9,5,01:20,UTC,7,1029.9,-,76,0,-1,6.6,2.7,50000,7,3.7,2.8
2022,9,5,01:30,UTC,7,1029.8,-,74,0,-1,6.8,2.5,50000,8,3.4,2.5
2022,9,5,01:40,UTC,7,1029.8,-,74,0,-1,7,2.6,50000,5,3.8,2.6
2022,9,5,01:50,UTC,7,1029.9,-,72,0,-1,7.3,2.6,50000,20,4.3,3.2
2022,9,5,02:00,UTC,8,1030,0,73,0,-1,7.2,2.7,50000,4,4.1,3
2022,9,5,02:10,UTC,8,1030,-,74,0,-1,7.1,2.8,50000,355,4,2.5
2022,9,5,02:20,UTC,8,1030,-,74,0,-1,7.1,2.7,50000,346,4,2.8
2022,9,5,02:30,UTC,7,1030,-,74,0,-1,7,2.8,50000,349,3.8,2.7
2022,9,5,02:40,UTC,7,1030.1,-,74,0,-1,7.1,2.8,50000,1,3.8,2.4
2022,9,5,02:50,UTC,7,1030.1,-,73,0,-1,7.3,2.9,50000,11,4.8,2.9
2022,9,5,03:00,UTC,8,1030.1,0,73,0,-1,7.5,2.9,50000,12,4.7,3.3
2022,9,5,03:10,UTC,7,1030,-,72,0,-1,7.5,2.8,50000,17,4.8,3.2
2022,9,5,03:20,UTC,7,1030.1,-,73,0,-1,7.3,2.9,50000,8,4.3,2.8
2022,9,5,03:30,UTC,7,1030.1,-,74,0,-1,7.3,2.9,50000,12,4.1,2.6
2022,9,5,03:40,UTC,7,1030.2,-,74,0,-1,7.3,2.9,50000,17,3.9,2.5
2022,9,5,03:50,UTC,7,1030.2,-,73,0,-1,7.3,2.9,50000,19,3.9,3
2022,9,5,04:00,UTC,7,1030.2,0,74,0,-1,7.4,3,50000,19,3.8,2.6
2022,9,5,04:10,UTC,8,1030.2,-,73,0,-1,7.4,3,50000,19,4.6,2.8
2022,9,5,04:20,UTC,8,1030.2,-,72,0,-1,7.5,2.9,50000,5,4.6,3.1
2022,9,5,04:30,UTC,8,1030.2,-,72,0,-1,7.7,3,50000,9,5.1,3
2022,9,5,04:40,UTC,7,1030.2,-,72,0,-1,7.7,3.1,50000,12,5,2.8
2022,9,5,04:50,UTC,8,1030.3,-,73,0,-1,7.8,3.3,50000,12,5.9,3
2022,9,5,05:00,UTC,8,1030.3,0,71,0,-1,7.9,3,50000,17,4.8,3.2
2022,9,5,05:10,UTC,7,1030.3,-,71,0,-1,8,3.1,50000,18,5.6,3.5
2022,9,5,05:20,UTC,7,1030.3,-,71,0,-1,8.1,3.1,49170,20,4.8,3
2022,9,5,05:30,UTC,7,1030.3,-,70,0,-1,8.3,3.3,50000,12,4.6,3.2
2022,9,5,05:40,UTC,7,1030.3,-,68,0,-1,8.7,3.2,50000,11,4.5,2.5
2022,9,5,05:50,UTC,7,1030.3,-,68,0,-1,8.9,3.3,50000,15,4,2.4
2022,9,5,06:00,UTC,7,1030.3,0,66,0,-1,9.1,3,45940,20,4.6,2.7
2022,9,5,06:10,UTC,7,1030.3,-,66,0,-1,9.3,3.2,45050,19,5.9,3.4
2022,9,5,06:20,UTC,7,1030.4,-,63,0,-1,9.6,3,50000,26,5,3.2
2022,9,5,06:30,UTC,7,1030.5,-,61,0,-1,10,2.9,50000,28,5.3,2.8
2022,9,5,06:40,UTC,7,1030.5,-,60,0,-1,10.2,2.8,45160,18,6.1,3.8
2022,9,5,06:50,UTC,7,1030.6,-,57,0,-1,10.3,2.2,45870,24,6.4,3.8
2022,9,5,07:00,UTC,7,1030.6,0,57,0,-1,10.5,2.2,48030,31,5.6,3.3
2022,9,5,07:10,UTC,7,1030.6,-,56,0,-1,10.4,2.1,50000,41,5.8,3.7
2022,9,5,07:20,UTC,7,1030.6,-,52,0,-1,10.1,0.7,48720,38,6.1,3.5
2022,9,5,07:30,UTC,8,1030.7,-,54,0,-1,10.2,1.2,50000,49,6.3,3.8
2022,9,5,07:40,UTC,7,1030.7,-,55,0,-1,10.6,1.9,50000,50,5.5,3.2
2022,9,5,07:50,UTC,8,1030.7,-,53,0,-1,10.5,1.4,47530,49,6.7,3.9
2022,9,5,08:00,UTC,8,1030.7,0,56,0,-1,10.2,1.8,49960,44,5.9,3.9
2022,9,5,08:10,UTC,8,1030.6,-,55,0,-1,10.6,1.9,50000,37,5.3,3.5
2022,9,5,08:20,UTC,8,1030.6,-,54,0,-1,10.5,1.6,50000,27,5.8,3.6
2022,9,5,08:30,UTC,8,1030.6,-,55,0,-1,10.4,1.7,50000,47,6.8,3.9
2022,9,5,08:40,UTC,7,1030.6,-,54,0,-1,10.8,1.8,50000,38,4.8,2.2
2022,9,5,08:50,UTC,7,1030.6,-,53,0,-1,10.9,1.8,50000,34,5.5,2.7
2022,9,5,09:00,UTC,8,1030.6,0,51,0,-1,10.8,1.2,50000,15,3.7,2.2
2022,9,5,09:10,UTC,8,1030.5,-,52,0,-1,10.9,1.4,50000,24,5.3,2.8
2022,9,5,09:20,UTC,8,1030.4,-,52,0,-1,11,1.5,50000,39,4.5,3
2022,9,5,09:30,UTC,7,1030.3,-,49,0,-1,11.1,0.6,50000,31,5.4,3.1
2022,9,5,09:40,UTC,7,1030.2,-,49,0,-1,11.1,0.9,50000,21,5.1,3
2022,9,5,09:50,UTC,7,1030.2,-,50,0,-1,11.5,1.6,50000,37,4.9,2.4
2022,9,5,10:00,UTC,7,1030.2,0,48,0,-1,11.2,0.7,50000,56,5.1,3.3
2022,9,5,10:10,UTC,8,1030.2,-,48,0,-1,11.3,0.8,50000,61,6,3.6
2022,9,5,10:20,UTC,8,1030.2,-,49,0,-1,11.5,1.2,50000,62,5.3,3.2
2022,9,5,10:30,UTC,8,1030.2,-,47,0,-1,11.6,0.7,50000,49,3.7,2.1
2022,9,5,10:40,UTC,7,1030.1,-,47,0,-1,11.5,0.6,49840,34,4.7,2.8
2022,9,5,10:50,UTC,7,1030.1,-,50,0,-1,11.5,1.4,50000,64,4.3,2.7
2022,9,5,11:00,UTC,8,1030.1,0,46,0,-1,11.6,0.5,50000,64,5.7,3.6
2022,9,5,11:10,UTC,8,1030,-,49,0,-1,12,1.6,49780,36,5.4,3.1
2022,9,5,11:20,UTC,8,1030,-,49,0,-1,12.2,1.8,50000,353,5.8,2.5
2022,9,5,11:30,UTC,8,1029.9,-,51,0,-1,12,2.1,50000,5,4.7,2.7
2022,9,5,11:40,UTC,7,1029.9,-,48,0,-1,11.6,0.9,50000,5,3.9,2.2
2022,9,5,11:50,UTC,8,1029.8,-,48,0,-1,12,1.1,50000,40,4.5,2.4
2022,9,5,12:00,UTC,8,1029.7,0,50,0,-1,12.1,2,49870,359,5,2.6
2022,9,5,12:10,UTC,8,1029.7,-,51,0,-1,11.9,2,50000,348,5.6,3.5
2022,9,5,12:20,UTC,8,1029.6,-,50,0,-1,11.9,1.7,50000,355,5.4,3.2
2022,9,5,12:30,UTC,8,1029.6,-,52,0,-1,12,2.3,50000,358,5.9,2.7
2022,9,5,12:40,UTC,7,1029.6,-,50,0,-1,12.2,2,50000,347,4.8,2.9
2022,9,5,12:50,UTC,8,1029.5,-,51,0,-1,12.1,2.1,50000,31,4.3,2.2
2022,9,5,13:00,UTC,8,1029.5,0,50,0,-1,12,1.9,50000,14,5.7,3.3
2022,9,5,13:10,UTC,8,1029.5,-,51,0,-1,11.7,1.7,50000,32,4.9,3.6
2022,9,5,13:20,UTC,8,1029.5,-,52,0,-1,11.7,2.1,50000,21,6.8,3.9
2022,9,5,13:30,UTC,8,1029.5,-,50,0,-1,11.9,1.8,49000,2,4.9,3.1
2022,9,5,13:40,UTC,7,1029.5,-,51,0,-1,11.7,1.8,50000,3,5.4,3.4
2022,9,5,13:50,UTC,8,1029.4,-,50,0,-1,11.7,1.6,50000,13,5.1,3.2
2022,9,5,14:00,UTC,8,1029.4,0,49,0,-1,11.6,1.2,50000,25,4.8,3.3
2022,9,5,14:10,UTC,8,1029.3,-,50,0,-1,11.9,1.9,50000,350,4.4,2.4
2022,9,5,14:20,UTC,8,1029.3,-,49,0,-1,11.8,1.4,50000,4,4.7,3
2022,9,5,14:30,UTC,8,1029.3,-,50,0,-1,11.6,1.5,50000,12,4.5,2.7
2022,9,5,14:40,UTC,7,1029.2,-,51,0,-1,11.8,2,50000,3,5.4,2.8
2022,9,5,14:50,UTC,7,1029.2,-,53,0,-1,11.6,2.4,50000,351,4.4,3
2022,9,5,15:00,UTC,8,1029.2,0,51,0,-1,11.5,1.7,50000,342,4.3,2.7
2022,9,5,15:10,UTC,8,1029.2,-,51,0,-1,11.5,1.8,50000,24,5.5,3.4
2022,9,5,15:20,UTC,8,1029.2,-,52,0,-1,11.4,2,50000,20,4.8,2.5
2022,9,5,15:30,UTC,8,1029.2,-,51,0,-1,11.4,1.7,50000,12,4.5,2.4
2022,9,5,15:40,UTC,7,1029.1,-,53,0,-1,11.3,2,50000,27,4.9,2.7
2022,9,5,15:50,UTC,7,1029.1,-,53,0,-1,11.1,1.8,50000,348,5.1,2.9
2022,9,5,16:00,UTC,8,1029,0,53,0,-1,11,1.8,50000,341,4.2,2.2
2022,9,5,16:10,UTC,7,1029,-,54,0,-1,10.8,1.9,50000,348,3.6,1.9
2022,9,5,16:20,UTC,7,1028.9,-,53,0,-1,10.7,1.6,50000,32,3.5,1.9
2022,9,5,16:30,UTC,7,1028.8,-,56,0,-1,10.2,1.8,50000,40,3,1.9
2022,9,5,16:40,UTC,7,1028.8,-,57,0,-1,10.1,1.9,50000,4,3.6,2.1
2022,9,5,16:50,UTC,7,1028.7,-,57,0,-1,10,2,50000,12,3.7,2.3
2022,9,5,17:00,UTC,7,1028.7,0,61,0,-1,9.9,2.6,50000,21,3.2,1.8
2022,9,5,17:10,UTC,7,1028.7,-,61,0,-1,9.5,2.4,50000,16,2.7,1.8
2022,9,5,17:20,UTC,7,1028.7,-,59,0,-1,9.6,2,50000,24,2.5,1.6
2022,9,5,17:30,UTC,8,1028.7,-,63,0,-1,9.4,2.7,50000,25,2.4,1.7
2022,9,5,17:40,UTC,7,1028.7,-,62,0,-1,9.2,2.4,50000,357,2.6,1.6
2022,9,5,17:50,UTC,7,1028.7,-,61,0,-1,9.6,2.5,50000,19,2.7,1.9
2022,9,5,18:00,UTC,8,1028.8,0,62,0,-1,9.5,2.6,50000,8,4.5,2.6
2022,9,5,18:10,UTC,8,1028.8,-,61,0,-1,9.6,2.6,50000,19,3.6,2.4
2022,9,5,18:20,UTC,7,1028.8,-,61,0,-1,9.7,2.7,50000,56,4.3,2.4
2022,9,5,18:30,UTC,7,1028.8,-,66,0,-1,9,3.1,50000,55,3.5,1.9
2022,9,5,18:40,UTC,3,1028.8,-,71,0,-1,8.2,3.1,50000,44,3.4,2.2
2022,9,5,18:50,UTC,1,1028.8,-,70,0,-1,8,2.8,50000,36,2.5,2.1
2022,9,5,19:00,UTC,0,1028.8,0,71,0,-1,7.8,2.9,50000,28,3.6,2.5
2022,9,5,19:10,UTC,1,1028.8,-,71,0,-1,7.7,2.7,50000,30,3.8,3.1
2022,9,5,19:20,UTC,3,1028.8,-,74,0,-1,7,2.7,50000,40,2.9,2.3
2022,9,5,19:30,UTC,5,1028.8,-,76,0,-1,6.8,2.9,50000,41,3.1,2.5
2022,9,5,19:40,UTC,7,1028.8,-,76,0,-1,6.8,3,50000,39,3.1,2.5
2022,9,5,19:50,UTC,5,1028.7,-,77,0,-1,6.5,2.9,50000,39,4,3.1
2022,9,5,20:00,UTC,5,1028.6,0,78,0,-1,6.4,2.9,50000,39,3.6,3
2022,9,5,20:10,UTC,5,1028.7,-,77,0,-1,6.4,2.7,50000,38,3.5,3
2022,9,5,20:20,UTC,5,1028.6,-,76,0,-1,6.5,2.7,50000,36,3.5,3
2022,9,5,20:30,UTC,5,1028.5,-,75,0,-1,6.6,2.6,50000,33,3.5,3
2022,9,5,20:40,UTC,5,1028.5,-,77,0,-1,6.3,2.6,50000,36,3.1,2.8
2022,9,5,20:50,UTC,3,1028.5,-,77,0,-1,6.2,2.4,50000,35,2.9,2.8
2022,9,5,21:00,UTC,5,1028.5,0,80,0,-1,5.8,2.6,50000,20,2.9,2.5
2022,9,5,21:10,UTC,5,1028.4,-,79,0,-1,5.9,2.5,50000,357,2.5,2.1
2022,9,5,21:20,UTC,7,1028.4,-,78,0,-1,6.2,2.6,50000,6,2.9,2.5
2022,9,5,21:30,UTC,7,1028.4,-,79,0,-1,6.1,2.7,50000,13,3.5,2.7
2022,9,5,21:40,UTC,7,1028.3,-,77,0,-1,6.3,2.6,50000,16,3.3,2.5
2022,9,5,21:50,UTC,7,1028.3,-,77,0,-1,6.3,2.6,50000,11,2.7,2.3
2022,9,5,22:00,UTC,7,1028.2,0,79,0,-1,6,2.6,50000,28,3.3,2.6
2022,9,5,22:10,UTC,7,1028.2,-,79,0,-1,5.9,2.5,50000,21,3,2.3
2022,9,5,22:20,UTC,7,1028.2,-,79,0,-1,5.9,2.5,50000,29,2.9,2.5
2022,9,5,22:30,UTC,7,1028.2,-,80,0,-1,5.9,2.7,50000,25,2.8,2
2022,9,5,22:40,UTC,7,1028.1,-,79,0,-1,6.1,2.8,50000,356,3.7,2.2
2022,9,5,22:50,UTC,7,1028,-,78,0,-1,6.1,2.6,50000,1,3.1,2.3
2022,9,5,23:00,UTC,7,1027.9,0,80,0,-1,6.1,2.9,50000,340,2.7,2.1
2022,9,5,23:10,UTC,7,1027.8,-,81,0,-1,6,2.9,50000,331,2.6,2.2
2022,9,5,23:20,UTC,7,1027.8,-,81,0,-1,5.8,2.8,50000,317,3.1,2.3
2022,9,5,23:30,UTC,7,1027.8,-,78,0,-1,6.1,2.7,50000,313,3.8,2.8
2022,9,5,23:40,UTC,7,1027.7,-,76,0,-1,6.6,2.7,50000,307,4.2,3.2
2022,9,5,23:50,UTC,7,1027.7,-,78,0,-1,6.6,3,50000,298,3.5,2.8
2022,9,6,00:00,UTC,7,1027.6,0,78,0,-1,6.7,3.1,50000,305,3.3,2.5
2022,9,6,00:10,UTC,7,1027.6,-,76,0,-1,6.9,3,50000,306,4.1,2.6
2022,9,6,00:20,UTC,7,1027.6,-,76,0,-1,7,3.1,50000,301,3.9,2.5
2022,9,6,00:30,UTC,7,1027.5,-,77,0,-1,6.9,3.1,50000,302,3.9,2.9
2022,9,6,00:40,UTC,8,1027.4,-,77,0,-1,7,3.1,50000,298,4.1,2.7
2022,9,6,00:50,UTC,7,1027.3,-,74,0,-1,7.2,2.9,50000,304,4.2,2.6
2022,9,6,01:00,UTC,7,1027.2,0,78,0,-1,6.8,3.2,50000,280,5.1,3.7
2022,9,6,01:10,UTC,8,1027.1,-,74,0,-1,7.2,3,50000,285,4.7,3
2022,9,6,01:20,UTC,8,1027.1,-,77,0,-1,7.1,3.2,50000,289,5.1,3.6
2022,9,6,01:30,UTC,7,1027,-,74,0,-1,7.3,2.9,50000,301,5.3,3.3
2022,9,6,01:40,UTC,7,1026.9,-,72,0,-1,7.3,2.6,50000,292,5.8,4.3
2022,9,6,01:50,UTC,7,1026.9,-,75,0,-1,6.7,2.5,50000,296,5.7,4.1
2022,9,6,02:00,UTC,3,1026.9,0,78,0,-1,6.1,2.6,50000,296,5.6,4
2022,9,6,02:10,UTC,1,1026.8,-,78,0,-1,6,2.5,50000,293,5.9,4.3
2022,9,6,02:20,UTC,0,1026.8,-,79,0,-1,5.7,2.4,50000,292,5.7,4.3
2022,9,6,02:30,UTC,0,1026.7,-,80,0,-1,5.6,2.4,50000,294,5.3,4.1
2022,9,6,02:40,UTC,0,1026.6,-,82,0,-1,5.3,2.4,50000,294,5.1,3.9
2022,9,6,02:50,UTC,0,1026.6,-,82,0,-1,5.2,2.4,50000,297,5.1,3.8
2022,9,6,03:00,UTC,0,1026.5,0,84,0,-1,4.9,2.5,50000,293,4.9,3.9
2022,9,6,03:10,UTC,0,1026.4,-,84,0,-1,5,2.5,50000,294,5.3,4.1
2022,9,6,03:20,UTC,0,1026.4,-,84,0,-1,5,2.5,50000,294,5.7,4.2
2022,9,6,03:30,UTC,0,1026.3,-,84,0,-1,5,2.5,50000,295,5.1,3.8
2022,9,6,03:40,UTC,0,1026.2,-,85,0,-1,4.8,2.5,50000,291,4.8,4
2022,9,6,03:50,UTC,0,1026.1,-,82,0,-1,5.3,2.5,50000,290,6.1,4.5
2022,9,6,04:00,UTC,0,1026.1,0,82,0,-1,5.4,2.5,50000,296,5.6,4.2
2022,9,6,04:10,UTC,0,1026,-,83,0,-1,5.2,2.5,50000,293,5.5,4.1
2022,9,6,04:20,UTC,0,1025.9,-,82,0,-1,5.4,2.5,50000,292,5.5,4.3
2022,9,6,04:30,UTC,0,1025.8,-,81,0,-1,5.6,2.5,50000,295,5.3,3.8
2022,9,6,04:40,UTC,0,1025.7,-,79,0,-1,6,2.5,50000,298,5.4,3.6
2022,9,6,04:50,UTC,0,1025.6,-,78,0,-1,6.2,2.6,44990,292,5.6,4.1
2022,9,6,05:00,UTC,0,1025.5,0,77,0,-1,6.6,2.9,49160,296,5.7,3.8
2022,9,6,05:10,UTC,1,1025.5,-,77,0,-1,7,3.2,50000,302,5.8,3.3
2022,9,6,05:20,UTC,1,1025.4,-,75,0,-1,7.6,3.4,49550,295,6,4.4
2022,9,6,05:30,UTC,1,1025.4,-,74,0,-1,7.9,3.6,50000,301,5.7,3.7
2022,9,6,05:40,UTC,1,1025.2,-,73,0,-1,8.3,3.7,45510,297,7.1,3.9
2022,9,6,05:50,UTC,1,1025.2,-,72,0,-1,8.4,3.7,39480,302,5.7,3.8
2022,9,6,06:00,UTC,1,1025,0,71,0,-1,9.1,4.1,40700,290,5.8,3.9
2022,9,6,06:10,UTC,0,1024.9,-,69,0,-1,9.4,3.9,39360,289,7.2,5
2022,9,6,06:20,UTC,1,1024.8,-,68,0,-1,9.6,3.9,39550,296,7.1,4.4
2022,9,6,06:30,UTC,1,1024.8,-,68,0,-1,9.6,4,46740,293,6.2,4.3
2022,9,6,06:40,UTC,1,1024.8,-,68,0,-1,9.6,3.9,48440,287,7.2,4.2
2022,9,6,06:50,UTC,0,1024.7,-,67,0,-1,9.8,3.9,49890,290,8,5.4
2022,9,6,07:00,UTC,0,1024.7,0,66,0,-1,9.9,3.9,42870,285,8.5,5
2022,9,6,07:10,UTC,0,1024.6,-,65,0,-1,10.2,3.8,48960,282,9.9,6.7
2022,9,6,07:20,UTC,1,1024.5,-,66,0,-1,10.4,4.2,49970,287,8.2,5.1
2022,9,6,07:30,UTC,1,1024.4,-,65,0,-1,11.1,4.7,38140,278,8.4,5.8
2022,9,6,07:40,UTC,1,1024.3,-,65,0,-1,11.4,4.9,43350,278,8.1,5.3
2022,9,6,07:50,UTC,1,1024.2,-,63,0,-1,11.7,4.9,38920,280,8.3,5.5
2022,9,6,08:00,UTC,1,1024.1,0,64,0,-1,11.8,5.3,50000,279,8.9,6.6
2022,9,6,08:10,UTC,1,1024,-,63,0,-1,12.2,5.4,49890,277,7.9,4.9
2022,9,6,08:20,UTC,1,1023.8,-,62,0,-1,12.9,5.7,33430,275,8.8,5.5
2022,9,6,08:30,UTC,3,1023.7,-,61,0,-1,13,5.5,41910,280,8.3,5.3
2022,9,6,08:40,UTC,5,1023.5,-,63,0,-1,13.1,6.2,49600,279,9.7,5
2022,9,6,08:50,UTC,3,1023.3,-,61,0,-1,13.3,6,50000,279,7.8,4.8
2022,9,6,09:00,UTC,1,1023.2,0,58,0,-1,13.9,5.8,35700,271,7.9,4.6
2022,9,6,09:10,UTC,1,1023,-,55,0,-1,14.4,5.6,44150,270,7.9,4.4
2022,9,6,09:20,UTC,1,1022.8,-,54,0,-1,14.4,5.3,44740,274,7.9,5.9
2022,9,6,09:30,UTC,3,1022.6,-,51,0,-1,14.7,4.6,44440,282,7.9,5.2
2022,9,6,09:40,UTC,5,1022.5,-,54,0,-1,14.2,5,50000,288,9.1,4.7
2022,9,6,09:50,UTC,5,1022.4,-,54,0,-1,14.1,5,45450,277,9.1,6.8
2022,9,6,10:00,UTC,3,1022.2,0,50,0,-1,15.3,5,37030,275,7.9,5.2
2022,9,6,10:10,UTC,3,1022.1,-,49,0,-1,15.2,4.4,38400,281,8.9,5.1
2022,9,6,10:20,UTC,1,1022,-,51,0,-1,15.6,5.5,43700,267,8.6,4.8
2022,9,6,10:30,UTC,1,1021.8,-,50,0,-1,15.7,5.4,40980,275,9.5,6.2
2022,9,6,10:40,UTC,3,1021.7,-,49,0,-1,16,5.4,41440,271,8.7,5.2
2022,9,6,10:50,UTC,3,1021.5,-,51,0,-1,15.6,5.4,46030,277,8.9,5.7
2022,9,6,11:00,UTC,5,1021.3,0,49,0,-1,16.7,6,50000,232,8,4.8
2022,9,6,11:10,UTC,5,1021.2,-,49,0,-1,16.8,6,28620,250,8.8,5.1
2022,9,6,11:20,UTC,5,1021,-,50,0,-1,16.6,6.1,50000,262,10.3,6
2022,9,6,11:30,UTC,5,1020.9,-,51,0,-1,16.1,6,48270,281,10.7,6.7
2022,9,6,11:40,UTC,5,1020.7,-,53,0,-1,15.9,6.2,48260,276,9.4,6.4
2022,9,6,11:50,UTC,5,1020.6,-,52,0,-1,15.9,6.1,50000,274,9.9,6.8
2022,9,6,12:00,UTC,5,1020.5,0,51,0,-1,16.4,6.4,48480,278,9.8,6.2
2022,9,6,12:10,UTC,3,1020.3,-,52,0,-1,16.1,6.3,46650,275,11.4,6.6
2022,9,6,12:20,UTC,3,1020.2,-,51,0,-1,16.5,6.4,47070,276,8.5,4.8
2022,9,6,12:30,UTC,5,1019.9,-,52,0,-1,16.4,6.5,50000,274,9.4,5.7
2022,9,6,12:40,UTC,3,1019.7,-,53,0,-1,17,7.4,50000,269,8.3,4.9
2022,9,6,12:50,UTC,5,1019.6,-,53,0,-1,16.4,6.9,50000,283,7.1,4
2022,9,6,13:00,UTC,3,1019.4,0,65,0,-1,16.4,9.8,50000,255,8.7,5.6
2022,9,6,13:10,UTC,5,1019.3,-,71,0,-1,15.6,10.3,50000,234,7.8,5.3
2022,9,6,13:20,UTC,5,1019.1,-,73,0,-1,15.5,10.7,50000,236,9.9,6.8
2022,9,6,13:30,UTC,7,1019,-,72,0,-1,16.1,11.1,47860,246,9.6,6.5
2022,9,6,13:40,UTC,5,1018.9,-,74,0,-1,15.4,10.8,47620,242,10.9,6.7
2022,9,6,13:50,UTC,5,1018.8,-,75,0,-1,15.4,10.9,50000,235,8.1,4.9
2022,9,6,14:00,UTC,5,1018.7,0,75,0,-1,15.2,10.8,50000,243,9.1,5.2
2022,9,6,14:10,UTC,5,1018.5,-,70,0,-1,16.7,11.2,44220,242,7.8,4.5
2022,9,6,14:20,UTC,7,1018.3,-,72,0,-1,16,10.9,50000,239,6.9,3.9
2022,9,6,14:30,UTC,7,1018.2,-,71,0,-1,16.5,11.3,50000,243,7.3,5
2022,9,6,14:40,UTC,7,1018.1,-,71,0,-1,16,10.7,50000,242,6.9,4.5
2022,9,6,14:50,UTC,5,1018,-,70,0,-1,15.9,10.4,50000,240,5.5,3.6
2022,9,6,15:00,UTC,5,1017.9,0,68,0,-1,15.9,10,50000,251,5.4,3.7
2022,9,6,15:10,UTC,5,1017.8,-,67,0,-1,15.8,9.6,50000,267,5.3,3.4
2022,9,6,15:20,UTC,1,1017.7,-,68,0,-1,15.8,9.9,50000,268,5.3,3
2022,9,6,15:30,UTC,3,1017.5,-,68,0,-1,15.6,9.8,48920,278,4.2,2.6
2022,9,6,15:40,UTC,5,1017.4,-,69,0,-1,15.5,9.8,50000,274,4,2.4
2022,9,6,15:50,UTC,7,1017.3,-,68,0,-1,15.5,9.6,50000,304,5.3,2.8
2022,9,6,16:00,UTC,7,1017.3,0,56,0,-1,15.9,7.1,50000,313,6,3.8
2022,9,6,16:10,UTC,7,1017.2,-,56,0,-1,15.6,6.8,50000,316,4.7,3.1
2022,9,6,16:20,UTC,7,1017.1,-,55,0,-1,15.4,6.3,50000,313,4.7,2.9
2022,9,6,16:30,UTC,7,1017.1,-,56,0,-1,15.1,6.5,50000,308,4.2,2.7
2022,9,6,16:40,UTC,7,1017.1,-,57,0,-1,14.9,6.5,50000,304,4.1,2.8
2022,9,6,16:50,UTC,7,1017.1,-,57,0,-1,14.9,6.3,50000,307,4.3,2.8
2022,9,6,17:00,UTC,7,1017,0,57,0,-1,14.9,6.3,50000,305,4.3,2.9
2022,9,6,17:10,UTC,7,1017.1,-,57,0,-1,14.7,6.4,50000,312,4.3,2.9
2022,9,6,17:20,UTC,7,1017.1,-,59,0,-1,14.5,6.6,50000,313,4.2,3
2022,9,6,17:30,UTC,7,1017.1,-,59,0,-1,14.5,6.5,50000,319,5.4,3
2022,9,6,17:40,UTC,7,1016.9,-,59,0,-1,14.4,6.4,50000,321,5.1,3.3
2022,9,6,17:50,UTC,7,1016.9,-,57,0,-1,14.7,6.2,50000,324,6,3.6
2022,9,6,18:00,UTC,7,1016.9,0,57,0,-1,14.6,6.2,50000,325,4.7,3.3
2022,9,6,18:10,UTC,7,1016.9,-,58,0,-1,14.5,6.3,50000,323,4.9,3.2
2022,9,6,18:20,UTC,7,1016.9,-,57,0,-1,14.6,6.2,50000,321,6.2,3.7
2022,9,6,18:30,UTC,7,1016.9,-,57,0,-1,14.5,6.1,50000,329,7.2,4
2022,9,6,18:40,UTC,7,1016.9,-,57,0,-1,14.5,6.1,50000,332,6.1,3.4
2022,9,6,18:50,UTC,7,1016.8,-,57,0,-1,14.4,6.1,50000,326,6.4,3.6
2022,9,6,19:00,UTC,7,1016.8,0,57,0,-1,14.4,6.1,50000,341,6.4,4.2
2022,9,6,19:10,UTC,8,1016.9,-,58,0,-1,14.4,6.2,50000,349,7,4
2022,9,6,19:20,UTC,8,1016.9,-,59,0,-1,14.2,6.3,50000,352,7.3,3.6
2022,9,6,19:30,UTC,8,1017,-,59,0,-1,14.1,6.3,50000,358,5.6,3
2022,9,6,19:40,UTC,7,1017.1,-,60,0,-1,14,6.2,50000,14,6.6,3.6
2022,9,6,19:50,UTC,7,1017.1,-,59,0,-1,13.8,6,50000,23,7.6,4.7
2022,9,6,20:00,UTC,7,1017.2,0,59,0,-1,13.6,5.8,50000,24,8.9,5.3
2022,9,6,20:10,UTC,5,1017.2,-,59,0,-1,13.3,5.5,50000,24,8.6,4.9
2022,9,6,20:20,UTC,5,1017.2,-,60,0,-1,13.1,5.5,50000,33,8.4,4.2
2022,9,6,20:30,UTC,1,1017.2,-,62,0,-1,12.8,5.6,50000,32,7,4.1
2022,9,6,20:40,UTC,1,1017.3,-,65,0,-1,12.3,5.8,50000,21,7.6,4.2
2022,9,6,20:50,UTC,1,1017.3,-,67,0,-1,11.9,5.9,50000,16,5.6,3.2
2022,9,6,21:00,UTC,3,1017.4,0,66,0,-1,12,5.8,50000,25,7.8,4.6
2022,9,6,21:10,UTC,1,1017.4,-,67,0,-1,11.7,5.8,50000,21,6,3.4
2022,9,6,21:20,UTC,1,1017.5,-,69,0,-1,11.4,5.9,50000,12,4.9,2.8
2022,9,6,21:30,UTC,0,1017.5,-,70,0,-1,11,5.8,50000,13,5.3,3.3
2022,9,6,21:40,UTC,0,1017.5,-,71,0,-1,10.8,5.8,50000,13,5.3,3.5
2022,9,6,21:50,UTC,0,1017.5,-,72,0,-1,10.6,5.8,50000,7,5,3.2
2022,9,6,22:00,UTC,0,1017.4,0,73,0,-1,10.4,5.8,50000,9,5.9,3.4
2022,9,6,22:10,UTC,0,1017.4,-,75,0,-1,10.1,5.8,50000,8,4.9,3.3
2022,9,6,22:20,UTC,0,1017.5,-,76,0,-1,9.9,5.8,50000,5,5.5,3.5
2022,9,6,22:30,UTC,0,1017.5,-,77,0,-1,9.7,5.8,50000,4,5.9,3.5
2022,9,6,22:40,UTC,0,1017.6,-,77,0,-1,9.6,5.8,50000,3,6,3.9
2022,9,6,22:50,UTC,0,1017.6,-,78,0,-1,9.5,5.8,50000,3,6.8,3.9
2022,9,6,23:00,UTC,0,1017.7,0,78,0,-1,9.4,5.8,50000,3,6.6,3.9
2022,9,6,23:10,UTC,1,1017.7,-,80,0,-1,9,5.7,50000,3,6.6,4.1
2022,9,6,23:20,UTC,1,1017.7,-,80,0,-1,9,5.8,50000,360,6,3.9
2022,9,6,23:30,UTC,1,1017.7,-,81,0,-1,8.9,5.8,50000,360,5.5,3.8
2022,9,6,23:40,UTC,1,1017.7,-,81,0,-1,8.9,5.8,50000,360,5.2,3.7
2022,9,6,23:50,UTC,1,1017.7,-,83,0,-1,8.6,5.8,50000,358,5.4,3.1
2022,9,7,00:00,UTC,3,1017.8,0,83,0,-1,8.8,6,50000,355,5.1,3.3
2022,9,7,00:10,UTC,7,1017.8,-,82,0,-1,9,6.1,50000,359,5.2,3.5
2022,9,7,00:20,UTC,7,1017.8,-,82,0,-1,9.1,6.1,50000,4,5.8,3.9
2022,9,7,00:30,UTC,7,1017.7,-,81,0,-1,9.1,6.1,50000,4,6.5,4
2022,9,7,00:40,UTC,7,1017.7,-,82,0,-1,9.1,6.2,50000,3,7.2,4.2
2022,9,7,00:50,UTC,7,1017.6,-,82,0,-1,9.1,6.2,50000,4,6.4,3.9
2022,9,7,01:00,UTC,7,1017.6,0,82,0,-1,9.2,6.3,50000,1,5.9,3.5
2022,9,7,01:10,UTC,7,1017.6,-,82,0,-1,9.2,6.3,50000,2,5.7,3.5
2022,9,7,01:20,UTC,7,1017.6,-,82,0,-1,9.2,6.3,50000,5,6.6,4.1
2022,9,7,01:30,UTC,7,1017.7,-,82,0,-1,9.1,6.3,50000,3,7.4,4.1
2022,9,7,01:40,UTC,7,1017.7,-,82,0,-1,9.1,6.3,50000,4,6.5,3.9
2022,9,7,01:50,UTC,7,1017.7,-,83,0,-1,9,6.2,50000,359,6.5,3.8
2022,9,7,02:00,UTC,7,1017.8,0,83,0,-1,9,6.2,50000,5,6.4,4.1
2022,9,7,02:10,UTC,7,1017.8,-,83,0,-1,9,6.2,50000,3,6,3.8
2022,9,7,02:20,UTC,7,1017.8,-,83,0,-1,9,6.2,50000,4,6.8,4
2022,9,7,02:30,UTC,8,1017.9,-,83,0,-1,8.9,6.2,50000,3,6.8,3.8
2022,9,7,02:40,UTC,8,1017.9,-,83,0,-1,8.9,6.2,50000,360,6.6,3.6
2022,9,7,02:50,UTC,8,1017.9,-,84,0,-1,8.8,6.3,50000,359,5.6,3.5
2022,9,7,03:00,UTC,7,1018,0,84,0,-1,8.9,6.3,50000,358,6,3.6
2022,9,7,03:10,UTC,8,1017.9,-,84,0,-1,8.9,6.4,50000,360,5.9,3.3
2022,9,7,03:20,UTC,8,1018,-,85,0,-1,8.8,6.4,50000,4,4.9,3.3
2022,9,7,03:30,UTC,7,1018,-,86,0,-1,8.6,6.3,50000,-,-,-
2022,9,7,03:40,UTC,7,1018,-,86,0,-1,8.6,6.4,50000,358,7.1,3.6
2022,9,7,03:50,UTC,5,1018.1,-,87,0,-1,8.5,6.4,50000,357,6.4,3.3
2022,9,7,04:00,UTC,5,1018.1,0,87,0,-1,8.4,6.4,50000,354,7.2,3.5
2022,9,7,04:10,UTC,3,1018.2,-,88,0,-1,8.2,6.4,50000,353,6.2,3.6
2022,9,7,04:20,UTC,1,1018.3,-,89,0,-1,8.1,6.4,50000,351,5.5,3.3
2022,9,7,04:30,UTC,1,1018.3,-,88,0,-1,8.3,6.4,50000,357,6.5,3.8
2022,9,7,04:40,UTC,1,1018.3,-,87,0,-1,8.5,6.5,50000,7,6.3,3.6
2022,9,7,04:50,UTC,3,1018.4,-,85,0,-1,8.7,6.4,50000,7,7.5,3.6
2022,9,7,05:00,UTC,3,1018.4,0,84,0,-1,8.9,6.4,47030,10,7.1,3.9
2022,9,7,05:10,UTC,5,1018.4,-,83,0,-1,9.1,6.4,50000,4,7.2,4
2022,9,7,05:20,UTC,1,1018.5,-,82,0,-1,9.1,6.1,50000,17,5.9,3.4
2022,9,7,05:30,UTC,1,1018.6,-,82,0,-1,9,6.2,50000,20,5.6,3.5
2022,9,7,05:40,UTC,1,1018.7,-,82,0,-1,9,6.2,50000,17,6.2,3.7
2022,9,7,05:50,UTC,3,1018.9,-,81,0,-1,9.3,6.2,47680,19,5.9,3.1
2022,9,7,06:00,UTC,1,1018.9,0,80,0,-1,9.5,6.2,50000,17,6.9,3.4
2022,9,7,06:10,UTC,5,1018.9,-,78,0,-1,9.6,6,50000,28,8.1,4.7
2022,9,7,06:20,UTC,1,1019,-,76,0,-1,10.1,6,50000,32,7.5,4.5
2022,9,7,06:30,UTC,3,1019,-,71,0,-1,10.8,5.8,50000,25,7.9,4.4
2022,9,7,06:40,UTC,3,1019.1,-,71,0,-1,10.6,5.7,46390,23,8.8,5.5
2022,9,7,06:50,UTC,5,1019.3,-,68,0,-1,11.1,5.5,49370,28,8.6,4.5
2022,9,7,07:00,UTC,5,1019.3,0,69,0,-1,11.1,5.5,49100,36,8.6,5.2
2022,9,7,07:10,UTC,5,1019.2,-,68,0,-1,11.1,5.4,46970,44,8.1,4.9
2022,9,7,07:20,UTC,5,1019.3,-,66,0,-1,11.4,5.3,48320,36,7.7,4.4
2022,9,7,07:30,UTC,3,1019.3,-,65,0,-1,11.3,5.1,46330,17,9.2,5.4
2022,9,7,07:40,UTC,5,1019.3,-,63,0,-1,11.6,4.8,44930,25,8.5,5.4
2022,9,7,07:50,UTC,5,1019.4,-,61,0,-1,12.2,4.9,49360,17,7.6,4.8
2022,9,7,08:00,UTC,7,1019.5,0,59,0,-1,12,4.3,38490,38,8,4.5
2022,9,7,08:10,UTC,7,1019.5,-,59,0,-1,12.1,4.2,37620,48,8.1,4.7
2022,9,7,08:20,UTC,7,1019.5,-,58,0,-1,12.6,4.6,40170,31,7.5,4.4
2022,9,7,08:30,UTC,7,1019.6,-,56,0,-1,12.5,4,40490,18,8.7,5.1
2022,9,7,08:40,UTC,7,1019.7,-,55,0,-1,13,4.1,43090,18,8.2,4.9
2022,9,7,08:50,UTC,3,1019.7,-,56,0,-1,12.5,4,50000,31,6.5,3.4
2022,9,7,09:00,UTC,3,1019.7,0,54,0,-1,12.9,3.7,42380,32,6.9,3.6
2022,9,7,09:10,UTC,3,1019.6,-,51,0,-1,13.4,3.4,48920,52,6.8,4.2
2022,9,7,09:20,UTC,5,1019.6,-,49,0,-1,13.6,3.1,44940,34,8,4.8
2022,9,7,09:30,UTC,3,1019.6,-,46,0,-1,14.2,2.6,42360,24,6.3,3.1
2022,9,7,09:40,UTC,1,1019.7,-,44,0,-1,13.8,1.7,37280,44,8.4,5.4
2022,9,7,09:50,UTC,1,1019.7,-,45,0,-1,13.3,1.5,47410,58,7.3,5
2022,9,7,10:00,UTC,1,1019.8,0,46,0,-1,13.4,2.1,37960,46,7.8,5.3
2022,9,7,10:10,UTC,3,1019.8,-,46,0,-1,13.7,2.3,50000,41,6.6,3.8
2022,9,7,10:20,UTC,5,1019.8,-,46,0,-1,13.3,2,49770,44,6.8,3
2022,9,7,10:30,UTC,5,1019.9,-,44,0,-1,13.6,1.4,44320,37,6.8,4.4
2022,9,7,10:40,UTC,3,1019.9,-,43,0,-1,13.5,1.2,40120,45,7.4,4.8
2022,9,7,10:50,UTC,5,1019.9,-,43,0,-1,13.6,1.4,43870,50,7.9,4.7
2022,9,7,11:00,UTC,1,1020,0,45,0,-1,14,2.3,50000,24,7.6,4.3
2022,9,7,11:10,UTC,1,1020.1,-,43,0,-1,14.2,1.8,43390,60,7.9,5
2022,9,7,11:20,UTC,1,1020,-,43,0,-1,13.9,1.3,39910,68,7.3,5
2022,9,7,11:30,UTC,3,1020.1,-,41,0,-1,14.2,1,44870,86,8.4,4.3
2022,9,7,11:40,UTC,5,1020.2,-,44,0,-1,13.6,1.6,48910,48,7,4.3
2022,9,7,11:50,UTC,5,1020.3,-,44,0,-1,13.7,1.7,47840,49,6.4,3.9
2022,9,7,12:00,UTC,7,1020.4,0,44,0,-1,13.5,1.4,46670,61,7.4,4.5
2022,9,7,12:10,UTC,5,1020.5,-,43,0,-1,13.6,1.2,42780,41,6.9,4.5
2022,9,7,12:20,UTC,7,1020.5,-,42,0,-1,14,1.4,47040,54,8.2,3.6
2022,9,7,12:30,UTC,3,1020.5,-,43,0,-1,13.3,0.8,50000,55,5.6,3.3
2022,9,7,12:40,UTC,5,1020.5,-,41,0,-1,14.3,1.2,49340,20,6.4,2.7
2022,9,7,12:50,UTC,5,1020.5,-,44,0,-1,13.8,1.7,50000,39,6.6,3.6
2022,9,7,13:00,UTC,7,1020.6,0,43,0,-1,13.8,1.5,50000,29,5.2,2.8
2022,9,7,13:10,UTC,7,1020.6,-,44,0,-1,13.8,1.6,50000,11,5.8,3.2
2022,9,7,13:20,UTC,7,1020.5,-,45,0,-1,13.8,2.1,49800,25,3.8,1.6
2022,9,7,13:30,UTC,7,1020.5,-,43,0,-1,13.8,1.4,50000,28,5.9,3.4
2022,9,7,13:40,UTC,7,1020.5,-,43,0,-1,13.8,1.4,50000,32,5.7,3
2022,9,7,13:50,UTC,7,1020.6,-,45,0,-1,13.4,1.7,50000,30,6.5,4.3
2022,9,7,14:00,UTC,7,1020.7,0,45,0,-1,13.3,1.7,50000,49,6.3,3.8
2022,9,7,14:10,UTC,7,1020.7,-,46,0,-1,13.3,2,50000,46,6.3,3.5
2022,9,7,14:20,UTC,7,1020.8,-,45,0,-1,13.3,1.7,50000,18,5.3,2.9
2022,9,7,14:30,UTC,8,1020.9,-,44,0,-1,13.3,1.4,50000,39,6.7,4.9
2022,9,7,14:40,UTC,7,1020.9,-,45,0,-1,13.2,1.6,50000,28,6.4,4.1
2022,9,7,14:50,UTC,5,1021,-,47,0,-1,13.1,2.1,50000,34,6.9,4.8
2022,9,7,15:00,UTC,5,1021,0,50,0,-1,13,2.7,50000,63,6.9,4
2022,9,7,15:10,UTC,5,1021,-,47,0,-1,13,2.1,50000,50,5.6,3.5
2022,9,7,15:20,UTC,7,1021.1,-,47,0,-1,12.8,1.9,50000,57,7.3,3.3
2022,9,7,15:30,UTC,7,1021.1,-,46,0,-1,12.7,1.4,50000,48,8,4.6
2022,9,7,15:40,UTC,5,1021.2,-,47,0,-1,12.5,1.5,50000,46,7.9,4.4
2022,9,7,15:50,UTC,5,1021.2,-,47,0,-1,12.5,1.6,50000,49,6.8,3.4
2022,9,7,16:00,UTC,5,1021.3,0,48,0,-1,12.5,1.6,50000,34,7.2,4.1
2022,9,7,16:10,UTC,7,1021.3,-,49,0,-1,12.3,1.8,50000,38,6.2,4.3
2022,9,7,16:20,UTC,7,1021.4,-,50,0,-1,12.2,2.1,50000,29,5.9,3.7
2022,9,7,16:30,UTC,3,1021.4,-,51,0,-1,12,2,50000,29,5.7,3.5
2022,9,7,16:40,UTC,1,1021.5,-,51,0,-1,11.7,1.9,50000,22,6.7,4.2
2022,9,7,16:50,UTC,3,1021.6,-,52,0,-1,11.4,2,50000,22,5.5,3.3
2022,9,7,17:00,UTC,5,1021.7,0,53,0,-1,11.1,2,50000,18,5.8,3.5
2022,9,7,17:10,UTC,7,1021.8,-,54,0,-1,11,2,50000,20,6.8,3.5
2022,9,7,17:20,UTC,3,1021.9,-,55,0,-1,11,2.2,50000,33,6.2,3.9
2022,9,7,17:30,UTC,3,1022,-,55,0,-1,11,2.4,50000,36,6,3.8
2022,9,7,17:40,UTC,5,1022,-,57,0,-1,10.8,2.6,50000,34,5.6,3.4
2022,9,7,17:50,UTC,5,1022.1,-,58,0,-1,10.6,2.7,50000,41,5.7,3.5
2022,9,7,18:00,UTC,5,1022.2,0,60,0,-1,10.3,2.9,50000,43,5.7,3.7
2022,9,7,18:10,UTC,3,1022.4,-,62,0,-1,9.8,2.9,50000,42,4.6,3
2022,9,7,18:20,UTC,5,1022.5,-,64,0,-1,9.5,3.1,50000,42,4.4,3.1
2022,9,7,18:30,UTC,5,1022.6,-,65,0,-1,9.3,3.2,50000,36,3.9,2.8
2022,9,7,18:40,UTC,7,1022.7,-,66,0,-1,9.1,3.2,50000,32,3.8,2.7
2022,9,7,18:50,UTC,7,1022.7,-,67,0,-1,9,3.3,50000,36,4.2,3.2
2022,9,7,19:00,UTC,5,1022.8,0,69,0,-1,8.7,3.3,50000,41,4.5,3.3
2022,9,7,19:10,UTC,5,1022.9,-,71,0,-1,8.3,3.4,50000,43,4.4,2.9
2022,9,7,19:20,UTC,3,1023,-,72,0,-1,8.2,3.4,50000,45,4.5,3
2022,9,7,19:30,UTC,3,1023.1,-,72,0,-1,8,3.3,50000,43,4.3,3
2022,9,7,19:40,UTC,1,1023.2,-,75,0,-1,7.5,3.5,50000,48,4,2.5
2022,9,7,19:50,UTC,1,1023.2,-,76,0,-1,7.4,3.5,50000,50,4.2,2.7
2022,9,7,20:00,UTC,1,1023.2,0,76,0,-1,7.2,3.3,50000,46,5,3.4
2022,9,7,20:10,UTC,0,1023.3,-,75,0,-1,7.4,3.4,50000,45,5.1,3.7
2022,9,7,20:20,UTC,0,1023.4,-,76,0,-1,7.3,3.4,50000,45,5.3,3.7
2022,9,7,20:30,UTC,0,1023.4,-,76,0,-1,7.2,3.3,50000,47,5.2,3.5
2022,9,7,20:40,UTC,0,1023.5,-,77,0,-1,7.1,3.3,50000,43,5.6,4
2022,9,7,20:50,UTC,0,1023.5,-,78,0,-1,6.9,3.3,50000,46,5.1,3.4
2022,9,7,21:00,UTC,0,1023.6,0,78,0,-1,6.9,3.3,50000,44,5,3.7
2022,9,7,21:10,UTC,0,1023.7,-,78,0,-1,6.7,3.2,50000,43,5.1,3.7
2022,9,7,21:20,UTC,0,1023.7,-,81,0,-1,6.2,3.1,50000,45,5,3.7
2022,9,7,21:30,UTC,0,1023.7,-,80,0,-1,6.3,3.1,50000,45,4.9,3.3
2022,9,7,21:40,UTC,0,1023.8,-,81,0,-1,6.1,3.1,50000,45,4.9,3.4
2022,9,7,21:50,UTC,0,1023.9,-,81,0,-1,6,3,50000,48,4.8,3
2022,9,7,22:00,UTC,0,1024,0,82,0,-1,5.9,3.1,50000,47,4.5,3.2
2022,9,7,22:10,UTC,0,1024.1,-,84,0,-1,5.6,3,50000,48,4.6,2.7
2022,9,7,22:20,UTC,0,1024.1,-,86,0,-1,5.2,3,50000,47,4.3,2.8
2022,9,7,22:30,UTC,0,1024.2,-,90,0,-1,4.5,3,50000,48,4.2,2.5
2022,9,7,22:40,UTC,0,1024.4,-,89,0,-1,4.7,3.1,50000,44,3.6,2.6
2022,9,7,22:50,UTC,0,1024.5,-,91,0,-1,4.3,3,50000,48,3.6,2.5
2022,9,7,23:00,UTC,0,1024.6,0,92,0,-1,4.2,3,50000,54,3.5,2.1
2022,9,7,23:10,UTC,0,1024.6,-,92,0,-1,4,2.9,50000,48,4.4,2.5
2022,9,7,23:20,UTC,0,1024.6,-,94,0,-1,3.9,2.9,50000,47,3.9,2.5
2022,9,7,23:30,UTC,0,1024.7,-,93,0,-1,3.8,2.8,50000,48,3.7,2.4
2022,9,7,23:40,UTC,0,1024.8,-,95,0,-1,3.7,3,50000,59,3.2,1.8
2022,9,7,23:50,UTC,0,1024.8,-,94,0,-1,3.8,3,50000,51,3.9,2.5
2022,9,8,00:00,UTC,0,1024.8,0,93,0,-1,4.1,3.1,50000,45,3.9,2.8
2022,9,8,00:10,UTC,0,1024.9,-,93,0,-1,3.7,2.7,50000,41,3.9,3
2022,9,8,00:20,UTC,0,1024.9,-,95,0,-1,3.6,2.8,50000,41,3.8,2.6
2022,9,8,00:30,UTC,0,1024.9,-,94,0,-1,3.4,2.5,50000,41,3.8,3
2022,9,8,00:40,UTC,0,1024.9,-,94,0,-1,3.7,2.8,50000,45,4.4,3.2
2022,9,8,00:50,UTC,0,1025,-,92,0,-1,3.8,2.6,50000,40,4.7,3.5
2022,9,8,01:00,UTC,0,1025,0,92,0,-1,4,2.9,50000,41,4.9,3.5
2022,9,8,01:10,UTC,0,1025,-,93,0,-1,3.7,2.7,50000,42,3.9,2.7
2022,9,8,01:20,UTC,0,1025,-,93,0,-1,3.4,2.4,50000,55,3.7,2.1
2022,9,8,01:30,UTC,0,1025,-,95,0,-1,3.4,2.6,50000,53,4.1,1.9
2022,9,8,01:40,UTC,0,1025.1,-,95,0,-1,3.2,2.4,48980,47,3.9,2.5
2022,9,8,01:50,UTC,0,1025,-,95,0,-1,3.3,2.5,47890,48,4.6,3.1
2022,9,8,02:00,UTC,0,1025.1,0,94,0,-1,3.3,2.4,50000,47,4.4,2.9
2022,9,8,02:10,UTC,0,1025.1,-,95,0,-1,3,2.2,43260,51,3.9,2.4
2022,9,8,02:20,UTC,0,1025.2,-,95,0,-1,3.5,2.7,50000,47,4.1,2.8
2022,9,8,02:30,UTC,0,1025.3,-,93,0,-1,3.2,2.2,50000,57,4.4,2.3
2022,9,8,02:40,UTC,0,1025.3,-,95,0,-1,3.2,2.5,44410,58,4.1,2.3
2022,9,8,02:50,UTC,0,1025.3,-,95,0,-1,2.9,2.2,45860,53,4.2,2.8
2022,9,8,03:00,UTC,0,1025.3,0,94,0,-1,3.3,2.5,48040,44,4.9,3.4
2022,9,8,03:10,UTC,0,1025.3,-,93,0,-1,3.5,2.5,47880,45,5,3.5
2022,9,8,03:20,UTC,0,1025.3,-,93,0,-1,3,1.9,45160,50,4.9,2.9
2022,9,8,03:30,UTC,0,1025.4,-,95,0,-1,2.5,1.8,35270,64,3.6,1.5
2022,9,8,03:40,UTC,0,1025.4,-,96,0,-1,2.3,1.8,37360,61,3.6,2.4
2022,9,8,03:50,UTC,0,1025.4,-,96,0,-1,3,2.4,45900,53,4.2,2.8
2022,9,8,04:00,UTC,0,1025.4,0,95,0,-1,2.9,2.1,40750,54,3.5,2.3
2022,9,8,04:10,UTC,0,1025.5,-,96,0,-1,2.6,2,32190,59,3.6,2
2022,9,8,04:20,UTC,0,1025.6,-,96,0,-1,2.8,2.2,32990,53,4.1,2.8
2022,9,8,04:30,UTC,0,1025.6,-,96,0,-1,3.1,2.5,36740,53,4.6,2.5
2022,9,8,04:40,UTC,0,1025.7,-,95,0,-1,3.3,2.5,43870,51,3.2,2
2022,9,8,04:50,UTC,0,1025.7,-,94,0,-1,3.7,2.8,43510,59,3.8,2
2022,9,8,05:00,UTC,0,1025.7,0,88,0,-1,4.7,2.9,43710,57,4,2.7
2022,9,8,05:10,UTC,0,1025.7,-,86,0,-1,4.9,2.8,42550,55,4.3,2.7
2022,9,8,05:20,UTC,0,1025.8,-,83,0,-1,5.6,2.9,41720,52,3.7,2.5
2022,9,8,05:30,UTC,0,1026,-,81,0,-1,6,2.9,41420,50,3.9,2.2
2022,9,8,05:40,UTC,0,1025.9,-,78,0,-1,6.6,3,37580,55,4.7,2.4
2022,9,8,05:50,UTC,0,1025.9,-,76,0,-1,7.1,3.2,37960,57,3.7,2.3
2022,9,8,06:00,UTC,0,1026,0,75,0,-1,7.5,3.3,39550,58,4.1,2.5
2022,9,8,06:10,UTC,0,1026.1,-,73,0,-1,8,3.4,40170,53,4.1,2.5
2022,9,8,06:20,UTC,0,1026.1,-,70,0,-1,8.7,3.5,34690,57,3.6,1.8
2022,9,8,06:30,UTC,0,1026.2,-,69,0,-1,9.1,3.7,35520,58,4.5,2.4
2022,9,8,06:40,UTC,0,1026.2,-,70,0,-1,9.1,3.9,42540,67,5.4,3.4
2022,9,8,06:50,UTC,0,1026.3,-,68,0,-1,9.4,3.7,43900,79,5.4,3.6
2022,9,8,07:00,UTC,0,1026.3,0,65,0,-1,9.9,3.5,42970,77,5.2,3.5
2022,9,8,07:10,UTC,0,1026.3,-,62,0,-1,10.9,3.8,41650,82,5.5,2.8
2022,9,8,07:20,UTC,0,1026.3,-,61,0,-1,10.5,3.3,43860,87,5.7,4.1
2022,9,8,07:30,UTC,0,1026.3,-,59,0,-1,10.9,3.2,44040,89,4.8,3.1
2022,9,8,07:40,UTC,0,1026.4,-,56,0,-1,11.2,2.9,43510,88,4.8,3
2022,9,8,07:50,UTC,0,1026.5,-,56,0,-1,11.5,2.9,41310,85,5.2,3.2
2022,9,8,08:00,UTC,0,1026.5,0,56,0,-1,11.5,2.9,40430,78,4.7,2.6
2022,9,8,08:10,UTC,0,1026.5,-,53,0,-1,11.3,2,40850,78,5.7,3.1
2022,9,8,08:20,UTC,0,1026.4,-,52,0,-1,12,2.4,38920,105,5.2,2.5
2022,9,8,08:30,UTC,0,1026.4,-,52,0,-1,12.1,2.5,38290,116,4.6,2.9
2022,9,8,08:40,UTC,1,1026.5,-,52,0,-1,12,2.3,39350,119,4,2.5
2022,9,8,08:50,UTC,1,1026.6,-,48,0,-1,12.3,1.6,32550,99,5.3,2.6
2022,9,8,09:00,UTC,1,1026.6,0,48,0,-1,12.1,1.4,40030,113,4.3,2.5
2022,9,8,09:10,UTC,1,1026.6,-,49,0,-1,12.3,2,40780,119,3.4,2
2022,9,8,09:20,UTC,1,1026.5,-,46,0,-1,13.2,1.9,40390,140,4.9,3.2
2022,9,8,09:30,UTC,1,1026.5,-,46,0,-1,13.1,1.7,35450,147,4.8,2.9
2022,9,8,09:40,UTC,0,1026.5,-,47,0,-1,13,1.9,40730,113,4.3,2.5
2022,9,8,09:50,UTC,0,1026.5,-,48,0,-1,12.9,2,34650,109,4.4,2.4
2022,9,8,10:00,UTC,0,1026.5,0,48,0,-1,13.1,2.4,41150,147,4.7,2.9
2022,9,8,10:10,UTC,1,1026.5,-,46,0,-1,12.9,1.5,44020,121,4.4,2.4
2022,9,8,10:20,UTC,3,1026.5,-,46,0,-1,13.1,1.8,34610,143,5,2.7
2022,9,8,10:30,UTC,5,1026.6,-,45,0,-1,13.2,1.5,39840,128,5.4,3.4
2022,9,8,10:40,UTC,7,1026.6,-,47,0,-1,13.9,2.7,37350,149,6.1,3.6
2022,9,8,10:50,UTC,7,1026.6,-,46,0,-1,13.9,2.4,35530,156,6.5,3.9
2022,9,8,11:00,UTC,7,1026.6,0,47,0,-1,13.7,2.5,45630,154,5.7,3.7
2022,9,8,11:10,UTC,7,1026.6,-,46,0,-1,14,2.4,43990,171,6.2,3.3
2022,9,8,11:20,UTC,3,1026.7,-,48,0,-1,14.1,3.1,42430,168,6.3,4.1
2022,9,8,11:30,UTC,3,1026.7,-,48,0,-1,13.6,2.7,50000,196,5.8,3.5
2022,9,8,11:40,UTC,1,1026.7,-,46,0,-1,14,2.7,39230,183,5.2,2.9
2022,9,8,11:50,UTC,1,1026.7,-,47,0,-1,13.6,2.4,43950,154,6.1,3.8
2022,9,8,12:00,UTC,1,1026.7,0,47,0,-1,13.5,2.4,47320,176,5.4,3.5
2022,9,8,12:10,UTC,1,1026.6,-,47,0,-1,14,2.9,48230,200,5.7,3.6
2022,9,8,12:20,UTC,1,1026.5,-,48,0,-1,13.7,2.8,48240,172,5.9,3.4
2022,9,8,12:30,UTC,1,1026.6,-,46,0,-1,14.2,2.6,46450,154,5.6,3.7
2022,9,8,12:40,UTC,0,1026.4,-,48,0,-1,13.8,2.9,40490,153,5.9,3.6
2022,9,8,12:50,UTC,0,1026.4,-,48,0,-1,14,3.1,50000,186,4.9,2.8
2022,9,8,13:00,UTC,0,1026.4,0,49,0,-1,13.8,3.3,48070,170,5.7,3.4
2022,9,8,13:10,UTC,0,1026.4,-,48,0,-1,13.8,2.9,50000,195,6.2,3.4
2022,9,8,13:20,UTC,0,1026.3,-,50,0,-1,13.4,3.2,45820,198,5.8,3.6
2022,9,8,13:30,UTC,0,1026.3,-,50,0,-1,13.8,3.6,46340,192,6.4,3.7
2022,9,8,13:40,UTC,0,1026.2,-,49,0,-1,13.5,3.1,50000,182,5.6,3.3
2022,9,8,13:50,UTC,0,1026.1,-,49,0,-1,13.8,3.2,50000,180,4.6,2.9
2022,9,8,14:00,UTC,0,1026.2,0,50,0,-1,13.2,3.1,47410,173,5.5,3.8
2022,9,8,14:10,UTC,0,1026.1,-,49,0,-1,13.5,3.1,44990,168,6.3,3.5
2022,9,8,14:20,UTC,0,1026.1,-,51,0,-1,13,3,46280,157,6.4,4.2
2022,9,8,14:30,UTC,0,1026,-,51,0,-1,13.1,3.3,45150,173,4.5,3.3
2022,9,8,14:40,UTC,0,1025.9,-,51,0,-1,12.9,3.1,49970,180,4.7,3
2022,9,8,14:50,UTC,0,1026,-,53,0,-1,12.6,3.1,50000,171,5.1,3.1
2022,9,8,15:00,UTC,0,1025.9,0,53,0,-1,12.5,3.2,50000,163,5,3.5
2022,9,8,15:10,UTC,0,1025.8,-,54,0,-1,12.3,3.3,50000,172,5.7,4.2
2022,9,8,15:20,UTC,0,1025.8,-,53,0,-1,12.5,3.1,50000,169,5.9,3.6
2022,9,8,15:30,UTC,0,1025.7,-,53,0,-1,12.4,3,50000,170,3.6,2.4
2022,9,8,15:40,UTC,0,1025.7,-,56,0,-1,11.8,3.2,50000,171,4.2,3.2
2022,9,8,15:50,UTC,0,1025.7,-,57,0,-1,11.7,3.4,50000,179,3.9,2.7
2022,9,8,16:00,UTC,0,1025.7,0,57,0,-1,11.6,3.4,50000,184,4.5,3
2022,9,8,16:10,UTC,0,1025.7,-,57,0,-1,11.6,3.4,50000,174,4.2,2.8
2022,9,8,16:20,UTC,0,1025.7,-,58,0,-1,11.3,3.3,50000,175,4,2.7
2022,9,8,16:30,UTC,0,1025.7,-,59,0,-1,11.2,3.4,50000,179,3.5,2.3
2022,9,8,16:40,UTC,0,1025.7,-,60,0,-1,10.9,3.4,50000,165,4.1,2.4
2022,9,8,16:50,UTC,0,1025.7,-,60,0,-1,11,3.5,50000,178,4,2.8
2022,9,8,17:00,UTC,0,1025.7,0,60,0,-1,11,3.5,50000,170,3.3,2.3
2022,9,8,17:10,UTC,0,1025.7,-,61,0,-1,10.7,3.5,50000,165,3.4,2.4
2022,9,8,17:20,UTC,0,1025.8,-,61,0,-1,10.6,3.5,50000,159,3.3,2.4
2022,9,8,17:30,UTC,0,1025.9,-,63,0,-1,10.3,3.6,50000,166,2.7,2
2022,9,8,17:40,UTC,0,1025.9,-,63,0,-1,10.3,3.6,50000,170,2.6,2
2022,9,8,17:50,UTC,0,1025.9,-,64,0,-1,10.1,3.5,50000,175,2.7,2.2
2022,9,8,18:00,UTC,0,1026,0,64,0,-1,10.1,3.7,50000,173,3.3,2.4
2022,9,8,18:10,UTC,0,1026,-,64,0,-1,10.1,3.7,50000,178,3.3,2.5
2022,9,8,18:20,UTC,0,1026,-,65,0,-1,10,3.7,50000,176,3,2.3
2022,9,8,18:30,UTC,0,1026.1,-,67,0,-1,10,4.1,50000,165,2.8,2
2022,9,8,18:40,UTC,0,1026.1,-,70,0,-1,9.9,4.8,50000,135,2.1,1.5
2022,9,8,18:50,UTC,0,1026.2,-,73,0,-1,9.2,4.6,50000,147,1.9,1.5
2022,9,8,19:00,UTC,0,1026.2,0,77,0,-1,8.7,4.9,50000,156,2.2,1.6
2022,9,8,19:10,UTC,0,1026.2,-,77,0,-1,8.8,5.1,50000,146,2.2,1.8
2022,9,8,19:20,UTC,0,1026.2,-,80,0,-1,8.2,4.9,50000,150,2.3,1.8
2022,9,8,19:30,UTC,0,1026.2,-,81,0,-1,8.2,5.1,50000,149,2.3,2
2022,9,8,19:40,UTC,0,1026.2,-,83,0,-1,7.6,5,50000,154,2.7,2.2
2022,9,8,19:50,UTC,0,1026.2,-,86,0,-1,7.4,5.1,50000,156,2.7,2.3
2022,9,8,20:00,UTC,0,1026.3,0,87,0,-1,7.2,5.1,50000,157,2.3,1.9
2022,9,8,20:10,UTC,0,1026.4,-,88,0,-1,7,5.1,50000,155,2.5,2.1
2022,9,8,20:20,UTC,0,1026.4,-,90,0,-1,6.9,5.3,50000,162,2.4,2
2022,9,8,20:30,UTC,0,1026.5,-,92,0,-1,6.6,5.3,50000,182,2.2,1.9
2022,9,8,20:40,UTC,0,1026.5,-,92,0,-1,6.7,5.4,50000,171,1.7,1.5
2022,9,8,20:50,UTC,0,1026.6,-,93,0,-1,6.3,5.3,50000,181,1.8,1.4
2022,9,8,21:00,UTC,0,1026.6,0,93,0,-1,6.5,5.5,50000,183,1.4,1.2
2022,9,8,21:10,UTC,0,1026.7,-,94,0,-1,6.4,5.4,50000,184,1.4,1.2
2022,9,8,21:20,UTC,0,1026.7,-,94,0,-1,6.2,5.3,50000,195,1.4,1.1
2022,9,8,21:30,UTC,0,1026.8,-,95,0,-1,6,5.2,50000,197,1.7,1.3
2022,9,8,21:40,UTC,0,1026.9,-,95,0,-1,6,5.2,50000,185,1.5,1.3
2022,9,8,21:50,UTC,0,1026.9,-,95,0,-1,6.2,5.5,50000,198,1.4,1
2022,9,8,22:00,UTC,0,1026.9,0,94,0,-1,5.9,5,50000,206,1.1,0.9
2022,9,8,22:10,UTC,0,1026.9,-,94,0,-1,6.1,5.2,50000,196,1.2,0.9
2022,9,8,22:20,UTC,0,1027,-,94,0,-1,5.5,4.7,50000,204,1.3,1
2022,9,8,22:30,UTC,0,1027,-,95,0,-1,5.6,4.9,47810,198,1.2,0.9
2022,9,8,22:40,UTC,1,1027.1,-,96,0,-1,5.4,4.8,50000,163,1.4,0.9
2022,9,8,22:50,UTC,1,1027.1,-,96,0,-1,5.3,4.8,47300,144,1.5,1.1
2022,9,8,23:00,UTC,1,1027.1,0,96,0,-1,5.6,5.1,48890,174,1.3,1.1
2022,9,8,23:10,UTC,1,1027.1,-,95,0,-1,5.7,5,47770,172,1.6,1.1
2022,9,8,23:20,UTC,1,1027.1,-,95,0,-1,5.8,5,50000,156,2,1.5
2022,9,8,23:30,UTC,3,1027.1,-,94,0,-1,5.9,5,43950,154,2.2,1.9
2022,9,8,23:40,UTC,5,1027.1,-,94,0,-1,5.5,4.7,50000,161,1.9,1.5
2022,9,8,23:50,UTC,7,1027.2,-,96,0,-1,5.4,4.8,48850,173,2.4,1.6
2022,9,9,00:00,UTC,5,1027.2,0,96,0,-1,5.6,4.9,50000,178,2.9,2.3
2022,9,9,00:10,UTC,3,1027.2,-,95,0,-1,5.8,5.1,50000,171,2.7,2.2
2022,9,9,00:20,UTC,5,1027.3,-,95,0,-1,5.4,4.7,50000,173,3.1,2.5
2022,9,9,00:30,UTC,5,1027.3,-,96,0,-1,5.6,5,50000,173,2.8,2.3
2022,9,9,00:40,UTC,7,1027.2,-,96,0,-1,5.7,5.1,50000,170,2.4,2
2022,9,9,00:50,UTC,5,1027.1,-,94,0,-1,6.2,5.3,50000,163,2.7,2.3
2022,9,9,01:00,UTC,3,1027.1,0,94,0,-1,5.9,5,50000,159,3,2.5
2022,9,9,01:10,UTC,1,1027.2,-,95,0,-1,5.4,4.6,50000,155,3.3,2.8
2022,9,9,01:20,UTC,0,1027.1,-,96,0,-1,5.2,4.6,50000,153,3.6,2.8
2022,9,9,01:30,UTC,0,1027.1,-,96,0,-1,5.2,4.7,50000,157,3.1,2.5
2022,9,9,01:40,UTC,3,1027.1,-,96,0,-1,5.8,5.2,50000,152,2.6,2.1
2022,9,9,01:50,UTC,5,1027,-,93,0,-1,6.4,5.4,50000,153,2.8,2.3
2022,9,9,02:00,UTC,7,1027.1,0,93,0,-1,6.3,5.2,50000,149,2.2,1.7
2022,9,9,02:10,UTC,7,1027.1,-,92,0,-1,6.3,5.1,50000,143,2.4,1.9
2022,9,9,02:20,UTC,7,1027,-,93,0,-1,6.3,5.3,50000,144,2.9,2.2
2022,9,9,02:30,UTC,7,1027,-,92,0,-1,6.5,5.2,50000,134,3.2,2.4
2022,9,9,02:40,UTC,7,1027,-,92,0,-1,6.2,4.9,50000,149,3.3,2.8
2022,9,9,02:50,UTC,7,1027,-,92,0,-1,6.2,5,50000,147,3.6,2.8
2022,9,9,03:00,UTC,7,1027,0,92,0,-1,6.1,4.9,50000,152,3.8,3
2022,9,9,03:10,UTC,7,1026.9,-,90,0,-1,6.6,5.2,50000,148,3.5,3
2022,9,9,03:20,UTC,5,1026.9,-,86,0,-1,7,4.9,50000,149,3.6,3.3
2022,9,9,03:30,UTC,5,1026.9,-,88,0,-1,6.7,4.8,50000,150,3.5,3.1
2022,9,9,03:40,UTC,5,1026.8,-,89,0,-1,6.7,5.1,50000,151,3.8,3.1
2022,9,9,03:50,UTC,1,1026.8,-,87,0,-1,7.1,5.2,50000,149,3.9,3.4
2022,9,9,04:00,UTC,1,1026.8,0,88,0,-1,7,5.2,50000,151,4.1,3.3
2022,9,9,04:10,UTC,1,1026.8,-,86,0,-1,7.2,5.1,50000,152,3.7,3.3
2022,9,9,04:20,UTC,0,1026.8,-,89,0,-1,6.7,5,50000,150,3.6,3.2
2022,9,9,04:30,UTC,0,1026.8,-,91,0,-1,6.7,5.4,50000,156,3.4,3
2022,9,9,04:40,UTC,0,1026.7,-,88,0,-1,7.4,5.6,46560,155,3.2,2.7
2022,9,9,04:50,UTC,0,1026.7,-,86,0,-1,7.8,5.7,30710,152,4,3
2022,9,9,05:00,UTC,0,1026.8,0,84,0,-1,8.4,5.8,41240,145,3.4,2.9
2022,9,9,05:10,UTC,0,1026.7,-,82,0,-1,8.6,5.8,32120,141,3.8,2.9
2022,9,9,05:20,UTC,0,1026.7,-,75,0,-1,9.8,5.5,34020,137,3.2,2.8
2022,9,9,05:30,UTC,0,1026.7,-,71,0,-1,10.7,5.5,34560,136,3.4,2.5
2022,9,9,05:40,UTC,0,1026.7,-,67,0,-1,11.5,5.7,39030,142,3.4,2.6
2022,9,9,05:50,UTC,0,1026.7,-,65,0,-1,12.2,5.8,42130,145,4.3,2.9
2022,9,9,06:00,UTC,0,1026.7,0,63,0,-1,12.4,5.5,38400,140,4.7,3.3
2022,9,9,06:10,UTC,0,1026.7,-,63,0,-1,12.5,5.6,38060,148,5.2,3.2
2022,9,9,06:20,UTC,0,1026.7,-,58,0,-1,13,4.9,43720,150,5.6,3.4
2022,9,9,06:30,UTC,1,1026.7,-,57,0,-1,12.9,4.6,40860,154,5.7,3.5
2022,9,9,06:40,UTC,0,1026.8,-,59,0,-1,13,5.2,42910,158,5.9,3
2022,9,9,06:50,UTC,0,1026.8,-,59,0,-1,12.8,4.9,50000,159,5.1,3.1
2022,9,9,07:00,UTC,0,1026.8,0,61,0,-1,13.1,5.7,43020,174,4.8,3
2022,9,9,07:10,UTC,1,1026.9,-,57,0,-1,13.3,4.9,39840,172,4.5,2.3
2022,9,9,07:20,UTC,0,1027,-,59,0,-1,13.4,5.4,45350,186,6.2,4.2
2022,9,9,07:30,UTC,1,1027,-,57,0,-1,13.5,5.1,37820,188,6,3.4
2022,9,9,07:40,UTC,1,1027,-,57,0,-1,13.7,5.3,37300,184,5.6,3
2022,9,9,07:50,UTC,1,1027,-,57,0,-1,13.4,5,43650,183,6.7,3
2022,9,9,08:00,UTC,0,1027.1,0,57,0,-1,13.5,5.2,37570,195,5.7,3.6
2022,9,9,08:10,UTC,1,1027.1,-,55,0,-1,13.8,4.9,40720,187,5.8,3.5
2022,9,9,08:20,UTC,1,1027.1,-,54,0,-1,14.1,5,32830,187,6,3.7
2022,9,9,08:30,UTC,1,1027.2,-,53,0,-1,13.9,4.4,42830,184,6.9,4.1
2022,9,9,08:40,UTC,1,1027.2,-,54,0,-1,13.8,4.6,42930,207,5.6,3.3
2022,9,9,08:50,UTC,3,1027.2,-,53,0,-1,14.4,4.8,41110,201,6.6,3.5
2022,9,9,09:00,UTC,1,1027.2,0,53,0,-1,14.2,4.8,44920,210,6.7,3.5
2022,9,9,09:10,UTC,5,1027.2,-,52,0,-1,14.2,4.6,37650,213,7.5,3.7
2022,9,9,09:20,UTC,3,1027.2,-,51,0,-1,14.4,4.4,37760,194,5.7,3.3
2022,9,9,09:30,UTC,3,1027.2,-,50,0,-1,14.9,4.5,41510,179,6,3.3
2022,9,9,09:40,UTC,3,1027.2,-,52,0,-1,14.3,4.6,44170,197,7.8,4.9
2022,9,9,09:50,UTC,3,1027.2,-,51,0,-1,14.2,4.3,36230,218,6.7,3.9
2022,9,9,10:00,UTC,1,1027.1,0,50,0,-1,14.7,4.4,45880,210,6.3,3.6
2022,9,9,10:10,UTC,1,1027.1,-,52,0,-1,14.2,4.4,39110,214,6.8,3.3
2022,9,9,10:20,UTC,1,1027,-,47,0,-1,14.5,3.2,35970,205,7.2,4.2
2022,9,9,10:30,UTC,1,1027,-,50,0,-1,13.7,3.4,45490,226,6.3,4.2
2022,9,9,10:40,UTC,1,1027.1,-,49,0,-1,14,3.3,40070,213,6,3.6
2022,9,9,10:50,UTC,3,1027,-,48,0,-1,14.3,3.5,33750,213,7,4
2022,9,9,11:00,UTC,3,1027,0,48,0,-1,14.5,3.7,42680,190,6.4,3
2022,9,9,11:10,UTC,3,1026.9,-,49,0,-1,14.2,3.7,47150,213,6,2.9
2022,9,9,11:20,UTC,3,1026.9,-,49,0,-1,13.8,3.2,39810,188,5.3,2.9
2022,9,9,11:30,UTC,1,1026.8,-,49,0,-1,14,3.4,50000,178,5,2.6
2022,9,9,11:40,UTC,1,1026.8,-,51,0,-1,14.5,4.4,50000,183,5.3,3.7
2022,9,9,11:50,UTC,1,1026.8,-,49,0,-1,14.4,3.8,50000,181,6.5,4.2
2022,9,9,12:00,UTC,1,1026.7,0,48,0,-1,14.7,3.8,48840,176,4.9,3.3
2022,9,9,12:10,UTC,1,1026.6,-,48,0,-1,14.6,3.6,48140,163,5.1,3.4
2022,9,9,12:20,UTC,0,1026.5,-,46,0,-1,14.7,3.3,48370,164,5.5,3.2
2022,9,9,12:30,UTC,0,1026.4,-,47,0,-1,14.7,3.4,41910,170,5.4,3
2022,9,9,12:40,UTC,0,1026.3,-,48,0,-1,14.1,3.3,43570,161,6.5,3.7
2022,9,9,12:50,UTC,0,1026.2,-,50,0,-1,13.9,3.6,50000,160,5.2,3.4
2022,9,9,13:00,UTC,0,1026.1,0,50,0,-1,14.5,4,47570,147,5.4,3.3
2022,9,9,13:10,UTC,0,1026,-,50,0,-1,14.4,4,50000,147,5.2,3.1
2022,9,9,13:20,UTC,0,1026,-,51,0,-1,14.1,4,50000,133,5.3,3.6
2022,9,9,13:30,UTC,0,1025.9,-,50,0,-1,13.9,3.6,40290,120,4.8,2.7
2022,9,9,13:40,UTC,0,1025.8,-,46,0,-1,14.3,2.8,44350,162,4,2.2
2022,9,9,13:50,UTC,0,1025.7,-,48,0,-1,14.4,3.6,50000,163,4.2,2.2
2022,9,9,14:00,UTC,0,1025.6,0,46,0,-1,14.4,3.1,49200,184,3.2,1.6
2022,9,9,14:10,UTC,0,1025.5,-,46,0,-1,14,2.5,50000,134,4.5,3.1
2022,9,9,14:20,UTC,0,1025.4,-,45,0,-1,14.5,2.6,48180,143,4.2,2.5
2022,9,9,14:30,UTC,0,1025.4,-,46,0,-1,14.4,2.8,50000,154,3.4,2
2022,9,9,14:40,UTC,0,1025.3,-,45,0,-1,14.1,2.4,50000,153,3.8,2.1
2022,9,9,14:50,UTC,0,1025.2,-,45,0,-1,14.1,2.5,50000,158,5,2.9
2022,9,9,15:00,UTC,0,1025.2,0,46,0,-1,13.7,2.4,50000,172,4.4,2.7
2022,9,9,15:10,UTC,0,1025.1,-,48,0,-1,13.6,2.8,50000,156,3.2,2.2
2022,9,9,15:20,UTC,0,1025.1,-,48,0,-1,13.6,2.9,50000,149,4.4,3.1
2022,9,9,15:30,UTC,0,1025.1,-,49,0,-1,13.3,2.8,50000,146,4.5,3.3
2022,9,9,15:40,UTC,0,1025,-,52,0,-1,12.9,3.2,50000,146,5.2,3.5
2022,9,9,15:50,UTC,0,1025,-,52,0,-1,12.9,3.4,50000,126,5,3.3
2022,9,9,16:00,UTC,0,1025,0,55,0,-1,12.8,3.9,50000,130,5.5,3.8
2022,9,9,16:10,UTC,0,1025,-,57,0,-1,12.5,4.1,50000,125,4.9,3.8
2022,9,9,16:20,UTC,0,1024.9,-,57,0,-1,12.3,4,50000,134,5.2,3.7
2022,9,9,16:30,UTC,0,1025,-,59,0,-1,12.2,4.4,50000,133,5.3,3.8
2022,9,9,16:40,UTC,0,1025,-,59,0,-1,12.1,4.4,50000,133,4.8,3.8
2022,9,9,16:50,UTC,0,1025,-,60,0,-1,12,4.5,50000,130,4.5,3.3
2022,9,9,17:00,UTC,0,1025,0,62,0,-1,11.8,4.8,50000,130,4.3,3.5
2022,9,9,17:10,UTC,0,1025,-,64,0,-1,11.6,5.1,50000,128,4.7,3.3
2022,9,9,17:20,UTC,0,1025.1,-,66,0,-1,11.3,5.2,50000,129,4.6,3.4
2022,9,9,17:30,UTC,0,1025.1,-,68,0,-1,11.1,5.5,50000,127,4.7,3.3
2022,9,9,17:40,UTC,0,1025,-,69,0,-1,11.2,5.7,50000,122,4.2,3
2022,9,9,17:50,UTC,0,1025,-,69,0,-1,11.3,5.8,50000,119,4.1,3.2
2022,9,9,18:00,UTC,0,1025.1,0,69,0,-1,11.3,5.7,50000,119,3.9,2.8
2022,9,9,18:10,UTC,0,1025.1,-,70,0,-1,11,5.7,50000,122,4.4,2.7
2022,9,9,18:20,UTC,0,1025.1,-,71,0,-1,11,5.9,50000,119,4,2.7
2022,9,9,18:30,UTC,0,1025.1,-,70,0,-1,11.1,5.9,50000,114,4.4,2.9
2022,9,9,18:40,UTC,0,1025,-,71,0,-1,11,5.9,50000,105,3.9,3
2022,9,9,18:50,UTC,0,1024.9,-,72,0,-1,10.9,6,50000,102,4.6,3
2022,9,9,19:00,UTC,0,1024.9,0,73,0,-1,10.7,6.1,50000,101,3.8,3
2022,9,9,19:10,UTC,0,1024.8,-,73,0,-1,10.8,6.2,50000,105,4.2,3.1
2022,9,9,19:20,UTC,0,1024.8,-,75,0,-1,10.6,6.2,50000,105,3.5,2.9
2022,9,9,19:30,UTC,0,1024.7,-,77,0,-1,10,6.1,50000,106,3.8,3
2022,9,9,19:40,UTC,0,1024.7,-,79,0,-1,9.4,6,50000,106,3.4,2.7
2022,9,9,19:50,UTC,0,1024.6,-,80,0,-1,9.2,6,50000,114,3.8,2.8
2022,9,9,20:00,UTC,0,1024.7,0,84,0,-1,8.9,6.3,50000,126,4.1,3
2022,9,9,20:10,UTC,0,1024.7,-,79,0,-1,10.3,6.7,50000,139,4.2,3
2022,9,9,20:20,UTC,0,1024.7,-,78,0,-1,10.5,6.7,50000,163,7,3.7
2022,9,9,20:30,UTC,0,1024.7,-,73,0,-1,11.3,6.6,50000,171,7,4.4
2022,9,9,20:40,UTC,0,1024.7,-,72,0,-1,11.8,6.9,50000,181,6.6,4.4
2022,9,9,20:50,UTC,0,1024.7,-,72,0,-1,11.7,6.9,50000,181,5.8,3.9
2022,9,9,21:00,UTC,0,1024.7,0,72,0,-1,12,7.1,50000,178,7.4,4.7
2022,9,9,21:10,UTC,0,1024.7,-,72,0,-1,11.8,6.9,50000,185,5.6,3.4
2022,9,9,21:20,UTC,0,1024.7,-,72,0,-1,11.9,7.1,50000,187,7.8,4.3
2022,9,9,21:30,UTC,0,1024.7,-,72,0,-1,11.7,6.9,50000,191,7,4
2022,9,9,21:40,UTC,0,1024.7,-,71,0,-1,11.8,6.7,50000,192,7.5,5
2022,9,9,21:50,UTC,0,1024.7,-,69,0,-1,12,6.5,50000,195,8.4,4.7
2022,9,9,22:00,UTC,0,1024.7,0,69,0,-1,11.9,6.3,50000,193,8.3,4.6
2022,9,9,22:10,UTC,0,1024.7,-,71,0,-1,11.6,6.5,50000,196,6.4,3.7
2022,9,9,22:20,UTC,0,1024.7,-,71,0,-1,11.7,6.6,50000,187,6.8,4.4
2022,9,9,22:30,UTC,0,1024.6,-,70,0,-1,11.7,6.4,50000,189,6.7,4.4
2022,9,9,22:40,UTC,0,1024.6,-,71,0,-1,11.6,6.6,50000,195,6,3.7
2022,9,9,22:50,UTC,0,1024.6,-,73,0,-1,11.6,6.8,50000,194,6.2,3.9
2022,9,9,23:00,UTC,0,1024.6,0,73,0,-1,11.3,6.6,50000,194,6.8,3.9
2022,9,9,23:10,UTC,0,1024.6,-,72,0,-1,11.4,6.6,50000,191,5,3.4
2022,9,9,23:20,UTC,0,1024.5,-,73,0,-1,11.3,6.6,50000,194,4.7,3.2
2022,9,9,23:30,UTC,0,1024.5,-,71,0,-1,11.5,6.5,50000,194,4.4,3.1
2022,9,9,23:40,UTC,0,1024.4,-,71,0,-1,11.3,6.2,50000,200,5.7,3.6
2022,9,9,23:50,UTC,0,1024.3,-,70,0,-1,11.3,6.1,50000,196,6.2,4
2022,9,10,00:00,UTC,0,1024.2,0,70,0,-1,11.3,6,50000,195,5.3,3.5
2022,9,10,00:10,UTC,0,1024.2,-,71,0,-1,11.2,6.1,50000,194,5.3,3.3
2022,9,10,00:20,UTC,0,1024.1,-,73,0,-1,11.1,6.4,50000,193,4.8,3.2
2022,9,10,00:30,UTC,0,1024,-,74,0,-1,11.1,6.7,50000,191,5.2,3.1
2022,9,10,00:40,UTC,0,1024,-,77,0,-1,10.9,7,50000,193,4.4,3
2022,9,10,00:50,UTC,0,1024,-,76,0,-1,11,6.9,50000,193,4.7,3.1
2022,9,10,01:00,UTC,0,1023.9,0,76,0,-1,11,6.9,50000,194,4.1,2.6
2022,9,10,01:10,UTC,0,1023.9,-,76,0,-1,10.8,6.8,50000,191,3.3,2.3
2022,9,10,01:20,UTC,0,1023.8,-,77,0,-1,10.4,6.6,50000,185,2.9,2.3
2022,9,10,01:30,UTC,0,1023.8,-,81,0,-1,9.4,6.4,50000,183,2.9,1.9
2022,9,10,01:40,UTC,0,1023.8,-,84,0,-1,8.6,6,50000,136,2.2,1.4
2022,9,10,01:50,UTC,0,1023.8,-,89,0,-1,7.3,5.7,50000,118,2.3,1.6
2022,9,10,02:00,UTC,0,1023.7,0,93,0,-1,6.5,5.5,50000,120,2,1.6
2022,9,10,02:10,UTC,0,1023.7,-,94,0,-1,6.1,5.3,50000,108,2.8,1.8
2022,9,10,02:20,UTC,0,1023.6,-,96,0,-1,5.7,5,50000,107,2.9,2
2022,9,10,02:30,UTC,0,1023.6,-,96,0,-1,5.4,4.8,50000,119,2.3,1.8
2022,9,10,02:40,UTC,0,1023.5,-,97,0,-1,5.3,4.8,50000,125,2.3,1.8
2022,9,10,02:50,UTC,0,1023.4,-,97,0,-1,5.1,4.7,50000,126,2.6,1.9
2022,9,10,03:00,UTC,0,1023.3,0,97,0,-1,4.8,4.5,48530,126,2.3,1.8
2022,9,10,03:10,UTC,0,1023.3,-,98,0,-1,4.8,4.4,42710,126,2.2,1.9
2022,9,10,03:20,UTC,0,1023.3,-,98,0,-1,4.6,4.3,44390,130,2.4,2
2022,9,10,03:30,UTC,0,1023.3,-,98,0,-1,4.5,4.2,43900,111,2.4,1.7
2022,9,10,03:40,UTC,0,1023.3,-,98,0,-1,4.4,4,37830,99,3.2,2.1
2022,9,10,03:50,UTC,0,1023.3,-,98,0,-1,4.2,3.9,34730,69,2.5,2.1
2022,9,10,04:00,UTC,0,1023.3,0,98,0,-1,4,3.8,28320,79,3.2,2.3
2022,9,10,04:10,UTC,0,1023.3,-,99,0,-1,4.2,4,47560,76,3.2,2.6
2022,9,10,04:20,UTC,0,1023.2,-,99,0,-1,4.1,3.9,37490,86,3.7,2.7
2022,9,10,04:30,UTC,0,1023.1,-,99,0,-1,4.4,4.2,43180,92,3.2,2.3
2022,9,10,04:40,UTC,0,1023.1,-,99,0,-1,4.5,4.3,43230,108,2.3,2
2022,9,10,04:50,UTC,0,1023.1,-,99,0,-1,5,4.8,48310,113,2.5,2.2
2022,9,10,05:00,UTC,0,1023.1,0,97,0,-1,5.6,5.2,50000,99,2.8,2
2022,9,10,05:10,UTC,0,1023.1,-,96,0,-1,6.4,5.8,48630,89,2.7,2.1
2022,9,10,05:20,UTC,0,1023,-,96,0,-1,7.2,6.6,46320,83,2.8,2
2022,9,10,05:30,UTC,0,1023,-,83,0,-1,9.2,6.5,50000,83,2.6,1.9
2022,9,10,05:40,UTC,0,1022.9,-,74,0,-1,10,5.7,41090,89,2.7,1.6
2022,9,10,05:50,UTC,0,1023,-,78,0,-1,9.7,6,44430,92,2,1.4
2022,9,10,06:00,UTC,0,1022.9,0,76,0,-1,10.3,6.3,37600,94,2.4,1.3
2022,9,10,06:10,UTC,0,1022.8,-,69,0,-1,12,6.5,34770,108,2.2,1.6
2022,9,10,06:20,UTC,0,1022.8,-,69,0,-1,12.4,6.9,42360,118,3,1.6
2022,9,10,06:30,UTC,0,1022.8,-,68,0,-1,13,7.2,38080,142,2.9,1.8
2022,9,10,06:40,UTC,0,1022.8,-,68,0,-1,13.3,7.4,50000,146,3.1,2
2022,9,10,06:50,UTC,0,1022.8,-,63,0,-1,14,6.9,50000,140,4.8,3
2022,9,10,07:00,UTC,0,1022.8,0,61,0,-1,14.3,6.8,41860,152,5.7,3.6
2022,9,10,07:10,UTC,0,1022.9,-,58,0,-1,14.2,5.9,39420,154,5.9,4.1
2022,9,10,07:20,UTC,0,1022.8,-,54,0,-1,14.8,5.7,40160,144,5.9,4.5
2022,9,10,07:30,UTC,0,1022.8,-,55,0,-1,14.7,5.8,44170,161,6.1,3.9
2022,9,10,07:40,UTC,0,1022.8,-,57,0,-1,14.5,6,41650,166,6.6,4.3
2022,9,10,07:50,UTC,0,1022.9,-,56,0,-1,15,6.4,37220,162,5.9,3.7
2022,9,10,08:00,UTC,0,1022.8,0,55,0,-1,14.8,6,36530,153,5.5,3.9
2022,9,10,08:10,UTC,0,1022.8,-,51,0,-1,14.9,4.8,40520,166,6.3,4.4
2022,9,10,08:20,UTC,0,1022.7,-,50,0,-1,14.8,4.3,48330,165,7,4.5
2022,9,10,08:30,UTC,0,1022.8,-,52,0,-1,15.1,5.4,39670,156,6.7,4.5
2022,9,10,08:40,UTC,0,1022.6,-,54,0,-1,15.4,6,50000,167,6.1,3.6
2022,9,10,08:50,UTC,0,1022.7,-,54,0,-1,15.3,6.1,37740,170,7.1,4.5
2022,9,10,09:00,UTC,0,1022.6,0,54,0,-1,15.2,6,43370,174,6.9,4.7
2022,9,10,09:10,UTC,0,1022.6,-,54,0,-1,15.3,6,50000,177,6.5,4.2
2022,9,10,09:20,UTC,0,1022.6,-,52,0,-1,15.7,6,39100,176,6.9,4.4
2022,9,10,09:30,UTC,0,1022.6,-,52,0,-1,15.6,5.8,41460,170,6.5,4.1
2022,9,10,09:40,UTC,0,1022.6,-,52,0,-1,15.6,5.8,43490,172,6.3,3.3
2022,9,10,09:50,UTC,0,1022.5,-,52,0,-1,15.6,5.7,42500,161,6.4,4.3
2022,9,10,10:00,UTC,0,1022.5,0,49,0,-1,15.8,5.2,43280,173,6.5,4.4
2022,9,10,10:10,UTC,0,1022.4,-,50,0,-1,15.8,5.3,42900,146,6.7,4.4
2022,9,10,10:20,UTC,0,1022.3,-,52,0,-1,15.9,6,45580,165,7,4.3
2022,9,10,10:30,UTC,0,1022.3,-,52,0,-1,15.6,5.6,44570,158,7.3,4.8
2022,9,10,10:40,UTC,0,1022.2,-,50,0,-1,15.7,5.2,46160,166,6.8,4
2022,9,10,10:50,UTC,0,1022.1,-,49,0,-1,16,5.2,39540,151,6.1,4.1
2022,9,10,11:00,UTC,0,1021.9,0,48,0,-1,16.3,5.1,47150,146,6.6,4.1
2022,9,10,11:10,UTC,0,1021.9,-,45,0,-1,16.2,4.3,47790,160,6.7,4.2
2022,9,10,11:20,UTC,0,1021.8,-,49,0,-1,15.7,5.1,44080,164,6.5,4
2022,9,10,11:30,UTC,0,1021.8,-,48,0,-1,15.8,4.8,43060,159,6.2,4.3
2022,9,10,11:40,UTC,0,1021.7,-,48,0,-1,16,5,40580,166,5.8,3.7
2022,9,10,11:50,UTC,0,1021.6,-,47,0,-1,15.8,4.4,45410,149,6.3,4
2022,9,10,12:00,UTC,0,1021.5,0,50,0,-1,16.1,5.6,46420,143,6.7,4.8
2022,9,10,12:10,UTC,0,1021.4,-,47,0,-1,16.2,5,49810,165,6.4,4.6
2022,9,10,12:20,UTC,0,1021.3,-,48,0,-1,16,4.9,49300,163,6,3.7
2022,9,10,12:30,UTC,0,1021.2,-,47,0,-1,15.9,4.6,50000,159,6.6,4
2022,9,10,12:40,UTC,0,1021.1,-,47,0,-1,15.9,4.6,46670,154,6,4
2022,9,10,12:50,UTC,0,1020.9,-,48,0,-1,15.7,4.7,49340,151,5.9,3.6
2022,9,10,13:00,UTC,0,1020.8,0,48,0,-1,15.8,4.8,50000,162,6.3,3.9
2022,9,10,13:10,UTC,0,1020.8,-,48,0,-1,15.8,4.7,45510,156,5.8,3.6
2022,9,10,13:20,UTC,0,1020.7,-,48,0,-1,15.9,4.9,42780,154,4.9,3.2
2022,9,10,13:30,UTC,0,1020.6,-,47,0,-1,16.2,4.9,48470,150,6,3.7
2022,9,10,13:40,UTC,0,1020.6,-,49,0,-1,15.9,5.1,50000,151,5.2,3.3
2022,9,10,13:50,UTC,0,1020.5,-,44,0,-1,16.3,4.1,48360,149,4.7,3.4
2022,9,10,14:00,UTC,0,1020.3,0,45,0,-1,16.1,4.2,49770,161,4.5,2.9
2022,9,10,14:10,UTC,0,1020.3,-,43,0,-1,16.5,4,50000,165,4,2.5
2022,9,10,14:20,UTC,0,1020.3,-,45,0,-1,16.1,4,47240,168,4.5,2.6
2022,9,10,14:30,UTC,0,1020.2,-,45,0,-1,15.8,3.9,50000,150,4.1,3
2022,9,10,14:40,UTC,0,1020.2,-,44,0,-1,15.9,3.6,48720,156,4.8,3.2
2022,9,10,14:50,UTC,0,1020.2,-,44,0,-1,15.8,3.7,49220,153,4,2.7
2022,9,10,15:00,UTC,0,1020.2,0,43,0,-1,15.5,2.9,50000,163,4.4,3.2
2022,9,10,15:10,UTC,0,1020.2,-,45,0,-1,15.5,3.5,45790,158,3.7,3
2022,9,10,15:20,UTC,0,1020.1,-,44,0,-1,15.7,3.4,50000,166,4.1,2.6
2022,9,10,15:30,UTC,0,1020,-,45,0,-1,15.1,3.2,50000,140,3.9,2.8
2022,9,10,15:40,UTC,0,1020,-,48,0,-1,14.7,3.9,50000,147,4.1,3
2022,9,10,15:50,UTC,0,1020,-,51,0,-1,14.3,4.2,50000,150,4.8,3.4
2022,9,10,16:00,UTC,0,1020,0,52,0,-1,14.2,4.6,50000,149,4.5,3.5
2022,9,10,16:10,UTC,0,1020,-,53,0,-1,14.3,4.8,50000,131,4.6,3.4
2022,9,10,16:20,UTC,0,1020.1,-,56,0,-1,13.9,5.2,50000,137,4.5,3.4
2022,9,10,16:30,UTC,0,1020.1,-,57,0,-1,13.7,5.3,50000,133,4.1,3.2
2022,9,10,16:40,UTC,0,1020.1,-,58,0,-1,13.4,5.3,50000,135,3.9,3.4
2022,9,10,16:50,UTC,0,1020.1,-,59,0,-1,13.2,5.4,50000,134,3.8,3.1
2022,9,10,17:00,UTC,0,1020.1,0,62,0,-1,12.9,5.8,50000,133,3.7,3.1
2022,9,10,17:10,UTC,0,1020,-,65,0,-1,12.8,6.2,50000,128,3.6,2.9
2022,9,10,17:20,UTC,0,1020,-,67,0,-1,12.5,6.5,50000,119,3,2.3
2022,9,10,17:30,UTC,0,1020,-,68,0,-1,12.7,7,50000,113,3,2.3
2022,9,10,17:40,UTC,0,1019.9,-,69,0,-1,12.7,7.1,50000,113,2.9,2.3
2022,9,10,17:50,UTC,0,1019.9,-,71,0,-1,12.3,7.1,50000,106,3.2,2.3
2022,9,10,18:00,UTC,0,1019.9,0,70,0,-1,12,6.7,50000,97,3.5,2.5
2022,9,10,18:10,UTC,0,1019.9,-,74,0,-1,11.3,6.9,50000,99,3.4,2.5
2022,9,10,18:20,UTC,0,1019.9,-,77,0,-1,10.9,6.9,50000,97,3.3,2.5
2022,9,10,18:30,UTC,0,1019.9,-,77,0,-1,10.7,6.8,50000,90,3.4,2.9
2022,9,10,18:40,UTC,0,1019.9,-,79,0,-1,10.3,6.9,50000,89,3.7,3
2022,9,10,18:50,UTC,0,1019.9,-,80,0,-1,10.3,6.9,50000,79,3.9,2.8
2022,9,10,19:00,UTC,0,1019.8,0,81,0,-1,10,6.9,50000,79,3.2,2.9
2022,9,10,19:10,UTC,0,1019.8,-,83,0,-1,9.7,7,50000,75,3.5,3
2022,9,10,19:20,UTC,0,1019.8,-,83,0,-1,9.7,7.1,50000,72,4,3.4
2022,9,10,19:30,UTC,0,1019.8,-,83,0,-1,9.8,7.1,50000,67,4.3,3.4
2022,9,10,19:40,UTC,0,1019.8,-,82,0,-1,9.9,7,50000,65,4.3,3.2
2022,9,10,19:50,UTC,0,1019.7,-,84,0,-1,9.4,6.9,50000,66,4.3,3.4
2022,9,10,20:00,UTC,0,1019.7,0,87,0,-1,9,7,50000,67,4.1,3.4
2022,9,10,20:10,UTC,0,1019.7,-,87,0,-1,9.1,7,50000,66,4.1,3.4
2022,9,10,20:20,UTC,0,1019.6,-,87,0,-1,8.9,6.8,50000,68,4.2,3.3
2022,9,10,20:30,UTC,0,1019.6,-,88,0,-1,9,7,50000,67,3.9,3.5
2022,9,10,20:40,UTC,0,1019.6,-,88,0,-1,8.7,6.9,50000,75,3.7,3.3
2022,9,10,20:50,UTC,0,1019.5,-,89,0,-1,8.6,6.9,50000,70,3.8,3.3
2022,9,10,21:00,UTC,0,1019.6,0,91,0,-1,8.3,6.8,50000,83,4.2,3
2022,9,10,21:10,UTC,0,1019.7,-,90,0,-1,8.6,7,50000,86,3.8,3
2022,9,10,21:20,UTC,0,1019.7,-,88,0,-1,8.6,6.7,50000,96,4.3,3.1
2022,9,10,21:30,UTC,0,1019.7,-,92,0,-1,7.8,6.6,50000,96,3.8,3
2022,9,10,21:40,UTC,0,1019.7,-,94,0,-1,7.5,6.6,50000,95,3.7,2.7
2022,9,10,21:50,UTC,0,1019.7,-,95,0,-1,7.5,6.7,50000,87,3.1,2.4
2022,9,10,22:00,UTC,0,1019.6,0,95,0,-1,7.5,6.8,50000,84,3.1,2.3
2022,9,10,22:10,UTC,0,1019.6,-,95,0,-1,7.3,6.6,50000,86,3.1,2.3
2022,9,10,22:20,UTC,0,1019.6,-,96,0,-1,7.1,6.5,50000,99,2.8,1.9
2022,9,10,22:30,UTC,0,1019.6,-,97,0,-1,7.2,6.7,50000,91,2.4,1.8
2022,9,10,22:40,UTC,0,1019.6,-,97,0,-1,6.9,6.4,50000,70,2.3,1.9
2022,9,10,22:50,UTC,0,1019.6,-,97,0,-1,6.7,6.2,47550,66,2.8,2.3
2022,9,10,23:00,UTC,0,1019.5,0,97,0,-1,6.4,6,42790,68,2.8,2.4
2022,9,10,23:10,UTC,0,1019.4,-,98,0,-1,6.1,5.8,31720,61,2.8,2.4
2022,9,10,23:20,UTC,0,1019.3,-,98,0,-1,6,5.7,29150,61,2.6,1.9
2022,9,10,23:30,UTC,0,1019.3,-,99,0,-1,5.8,5.6,42770,63,2.5,1.9
2022,9,10,23:40,UTC,0,1019.3,-,99,0,-1,5.9,5.7,35560,65,2.7,2.2
2022,9,10,23:50,UTC,0,1019.3,-,99,0,-1,5.6,5.5,27560,63,2.7,2.2
2022,9,11,00:00,UTC,0,1019.2,0,99,0,-1,5.5,5.3,28550,61,2.8,2.2
2022,9,11,00:10,UTC,0,1019.2,-,99,0,-1,5.5,5.4,24500,62,3.1,2.7
2022,9,11,00:20,UTC,0,1019.1,-,99,0,-1,5.3,5.1,23810,63,3,2.4
2022,9,11,00:30,UTC,0,1019.1,-,99,0,-1,5.3,5.2,19960,69,3.1,2.7
2022,9,11,00:40,UTC,0,1019.1,-,99,0,-1,5.2,5.1,20000,67,3.3,2.7
2022,9,11,00:50,UTC,0,1019.1,-,99,0,-1,5.1,5,24440,68,3.4,2.9
2022,9,11,01:00,UTC,0,1019,0,99,0,-1,4.9,4.8,22070,66,3.2,2.7
2022,9,11,01:10,UTC,0,1019,-,99,0,-1,5,4.9,21930,69,3.1,2.7
2022,9,11,01:20,UTC,0,1018.8,-,100,0,-1,5.1,5,21060,77,3.2,2.8
2022,9,11,01:30,UTC,0,1018.7,-,100,0,-1,5.1,5,22400,89,4.6,3.5
2022,9,11,01:40,UTC,0,1018.6,-,100,0,-1,5.1,5.1,18980,105,4.1,3.4
2022,9,11,01:50,UTC,0,1018.6,-,100,0,-1,5.2,5.1,17730,87,3.9,3
2022,9,11,02:00,UTC,0,1018.6,0,100,0,-1,5.3,5.3,28430,77,4,2.8
2022,9,11,02:10,UTC,0,1018.6,-,100,0,-1,5.1,5.1,22380,72,4.1,2.5
2022,9,11,02:20,UTC,0,1018.5,-,100,0,-1,5,5,40260,71,3.2,2.6
2022,9,11,02:30,UTC,0,1018.4,-,100,0,-1,4.8,4.8,35500,73,3.7,2.6
2022,9,11,02:40,UTC,0,1018.3,-,100,0,-1,4.7,4.6,33890,67,3.1,2.5
2022,9,11,02:50,UTC,0,1018.3,-,100,0,-1,4.7,4.6,32960,68,3.2,2.4
2022,9,11,03:00,UTC,0,1018.2,0,100,0,-1,4.7,4.7,28110,71,3.4,2.6
2022,9,11,03:10,UTC,0,1018.1,-,100,0,-1,4.5,4.5,17330,75,3.7,2.8
2022,9,11,03:20,UTC,0,1018,-,100,0,-1,4.4,4.3,20190,68,3.1,2.5
2022,9,11,03:30,UTC,0,1018,-,100,0,-1,4.3,4.3,18720,68,3.2,2.6
2022,9,11,03:40,UTC,0,1018,-,100,0,-1,4.3,4.3,21180,67,3.8,2.5
2022,9,11,03:50,UTC,0,1018,-,100,0,-1,4.5,4.5,25770,73,3.8,2.8
2022,9,11,04:00,UTC,0,1017.9,0,100,0,-1,4.6,4.6,22790,77,3.7,2.5
2022,9,11,04:10,UTC,0,1017.8,-,100,0,-1,5,5,25870,75,3.8,2.4
2022,9,11,04:20,UTC,0,1017.9,-,100,0,-1,4.8,4.8,21180,73,3.8,2.3
2022,9,11,04:30,UTC,0,1017.9,-,100,0,-1,5,5,25930,74,2.9,2.4
2022,9,11,04:40,UTC,0,1018,-,100,0,-1,5.6,5.6,23250,73,3.3,2.4
2022,9,11,04:50,UTC,0,1018,-,100,0,-1,6,6,26660,69,3.2,2.4
2022,9,11,05:00,UTC,0,1018,0,100,0,-1,6.7,6.7,38790,70,3.1,2
2022,9,11,05:10,UTC,0,1018.1,-,100,0,-1,7.2,7.2,47890,76,2.6,1.8
2022,9,11,05:20,UTC,0,1018.1,-,100,0,-1,7.8,7.8,45530,84,2.9,1.9
2022,9,11,05:30,UTC,0,1018.1,-,100,0,-1,9,9,43110,89,3.5,1.9
2022,9,11,05:40,UTC,0,1018.1,-,95,0,-1,10.2,9.3,43340,93,3.1,1.8
2022,9,11,05:50,UTC,0,1018.1,-,88,0,-1,10.4,8.4,40060,94,3.1,1.5
2022,9,11,06:00,UTC,0,1018.1,0,86,0,-1,10.8,8.5,42040,97,3,1.3
2022,9,11,06:10,UTC,0,1018.1,-,85,0,-1,11.5,9.1,36990,101,2.8,1.4
2022,9,11,06:20,UTC,0,1018.1,-,78,0,-1,12.4,8.7,41660,102,2.9,1.6
2022,9,11,06:30,UTC,0,1018,-,77,0,-1,12.8,8.9,47000,103,4,1.8
2022,9,11,06:40,UTC,0,1018.1,-,77,0,-1,13.2,9.3,44630,100,3.4,2
2022,9,11,06:50,UTC,0,1018.1,-,74,0,-1,13.9,9.4,47250,107,3.8,1.6
2022,9,11,07:00,UTC,0,1018.1,0,70,0,-1,14.7,9.3,42900,117,2.8,1.6
2022,9,11,07:10,UTC,0,1018,-,67,0,-1,14.8,8.6,42570,128,3.6,2
2022,9,11,07:20,UTC,0,1018.1,-,64,0,-1,14.8,8.1,50000,113,4.5,2.3
2022,9,11,07:30,UTC,0,1018,-,56,0,-1,15.5,6.9,35680,126,5.4,3.2
2022,9,11,07:40,UTC,0,1018,-,55,0,-1,15.7,6.6,36600,136,5.2,3.5
2022,9,11,07:50,UTC,0,1018,-,54,0,-1,15.6,6.4,38560,146,6.4,3.9
2022,9,11,08:00,UTC,1,1017.9,0,52,0,-1,16.2,6.4,33980,138,6.3,4.3
2022,9,11,08:10,UTC,1,1017.9,-,52,0,-1,16.2,6.3,37140,131,4.8,3
2022,9,11,08:20,UTC,3,1017.9,-,52,0,-1,16.2,6.3,42650,121,6.4,3.2
2022,9,11,08:30,UTC,5,1017.8,-,52,0,-1,15.7,5.8,41090,110,7.6,4.2
2022,9,11,08:40,UTC,5,1017.8,-,50,0,-1,16,5.5,49300,122,6,3.7
2022,9,11,08:50,UTC,1,1017.7,-,49,0,-1,16.6,5.8,35140,127,5.8,3.6
2022,9,11,09:00,UTC,1,1017.7,0,51,0,-1,15.9,5.7,45460,121,6.6,3.6
2022,9,11,09:10,UTC,0,1017.8,-,50,0,-1,16.2,5.8,39980,117,6.4,3.7
2022,9,11,09:20,UTC,1,1017.8,-,51,0,-1,15.9,5.8,44030,112,6.2,3.9
2022,9,11,09:30,UTC,1,1017.8,-,51,0,-1,15.8,5.8,45640,111,5.8,3.4
2022,9,11,09:40,UTC,1,1017.7,-,53,0,-1,15.5,5.9,50000,119,6.4,4.5
2022,9,11,09:50,UTC,1,1017.6,-,56,0,-1,15.9,7,40530,130,5.5,4.2
2022,9,11,10:00,UTC,1,1017.6,0,55,0,-1,15.2,6.3,50000,119,5.9,3.8
2022,9,11,10:10,UTC,1,1017.5,-,56,0,-1,15.8,7.1,47700,114,5.3,3.3
2022,9,11,10:20,UTC,1,1017.4,-,56,0,-1,15.5,6.9,50000,133,5.2,3.2
2022,9,11,10:30,UTC,1,1017.4,-,54,0,-1,15.6,6.4,44330,132,5,3.5
2022,9,11,10:40,UTC,3,1017.3,-,52,0,-1,16.9,6.9,42760,138,6.3,4.3
2022,9,11,10:50,UTC,5,1017.3,-,50,0,-1,16.8,6.3,49730,140,6.7,4.7
2022,9,11,11:00,UTC,7,1017.3,0,54,0,-1,16.6,7.3,47300,139,6.3,4.7
2022,9,11,11:10,UTC,5,1017.3,-,53,0,-1,17.1,7.5,40960,140,6.5,4.5
2022,9,11,11:20,UTC,1,1017.2,-,52,0,-1,16.5,6.7,41550,130,5.7,3.7
2022,9,11,11:30,UTC,1,1017.1,-,49,0,-1,16.5,5.8,42260,136,6.1,4.2
2022,9,11,11:40,UTC,0,1017.1,-,47,0,-1,16.8,5.3,44910,134,6.3,4.6
2022,9,11,11:50,UTC,0,1016.9,-,48,0,-1,16.6,5.6,44200,132,6.5,4.1
2022,9,11,12:00,UTC,0,1016.9,0,46,0,-1,16.8,5,50000,137,6.3,4.6
2022,9,11,12:10,UTC,0,1016.9,-,46,0,-1,16.7,4.9,44750,138,6.4,4.5
2022,9,11,12:20,UTC,0,1016.8,-,46,0,-1,16.7,5.1,50000,133,6.9,4.9
2022,9,11,12:30,UTC,0,1016.7,-,46,0,-1,16.6,5,50000,135,7.7,4.7
2022,9,11,12:40,UTC,0,1016.6,-,47,0,-1,17.1,5.7,44760,144,7.4,5.3
2022,9,11,12:50,UTC,0,1016.6,-,48,0,-1,16.3,5.2,50000,136,6.9,4.3
2022,9,11,13:00,UTC,0,1016.5,0,47,0,-1,16.5,5.1,50000,141,7.7,4.1
2022,9,11,13:10,UTC,0,1016.5,-,49,0,-1,16.3,5.6,48000,124,6.3,3.9
2022,9,11,13:20,UTC,0,1016.4,-,49,0,-1,16.5,5.7,50000,113,6.3,4.2
2022,9,11,13:30,UTC,0,1016.4,-,49,0,-1,16,5.3,50000,122,7,4.7
2022,9,11,13:40,UTC,0,1016.4,-,50,0,-1,16.1,5.7,50000,118,6.7,4.2
2022,9,11,13:50,UTC,0,1016.3,-,52,0,-1,15.9,5.9,48180,127,6.2,4.1
2022,9,11,14:00,UTC,0,1016.3,0,52,0,-1,15.8,6,48650,122,6.3,3.9
2022,9,11,14:10,UTC,0,1016.3,-,51,0,-1,16,5.8,45060,132,7.3,4.6
2022,9,11,14:20,UTC,0,1016.3,-,51,0,-1,15.9,5.7,48780,133,7.2,4.5
2022,9,11,14:30,UTC,0,1016.3,-,53,0,-1,15.7,6,44960,132,7.7,4.6
2022,9,11,14:40,UTC,0,1016.4,-,53,0,-1,15.4,5.8,50000,129,6.9,4.4
2022,9,11,14:50,UTC,0,1016.3,-,53,0,-1,15.1,5.5,50000,118,7.1,4.9
2022,9,11,15:00,UTC,0,1016.3,0,53,0,-1,15,5.5,50000,126,7.5,4.5
2022,9,11,15:10,UTC,0,1016.4,-,52,0,-1,15.2,5.3,50000,122,6.7,4.1
2022,9,11,15:20,UTC,0,1016.4,-,53,0,-1,14.9,5.5,50000,121,6.4,4.2
2022,9,11,15:30,UTC,0,1016.3,-,54,0,-1,14.7,5.4,50000,122,5.5,3.7
2022,9,11,15:40,UTC,0,1016.2,-,57,0,-1,14.5,5.9,50000,125,7.2,4
2022,9,11,15:50,UTC,0,1016.2,-,57,0,-1,14.4,6,50000,115,6.6,4.3
2022,9,11,16:00,UTC,0,1016.2,0,59,0,-1,14.2,6.3,50000,122,6.9,4.3
2022,9,11,16:10,UTC,0,1016.2,-,59,0,-1,14.1,6.1,50000,124,7,4.9
2022,9,11,16:20,UTC,0,1016.3,-,58,0,-1,14.1,5.9,50000,116,5.9,3.9
2022,9,11,16:30,UTC,0,1016.3,-,59,0,-1,13.9,5.9,50000,117,6.7,4.7
2022,9,11,16:40,UTC,0,1016.3,-,60,0,-1,13.6,5.9,50000,119,5.6,4
2022,9,11,16:50,UTC,0,1016.3,-,60,0,-1,13.5,6,50000,114,5.1,3.6
2022,9,11,17:00,UTC,0,1016.3,0,62,0,-1,13,5.9,50000,111,4.1,2.6
2022,9,11,17:10,UTC,0,1016.3,-,64,0,-1,12.6,5.9,50000,115,4.7,3.1
2022,9,11,17:20,UTC,0,1016.3,-,64,0,-1,12.5,5.9,50000,114,3.8,2.3
2022,9,11,17:30,UTC,0,1016.3,-,66,0,-1,12.3,6.1,50000,117,3.5,2.6
2022,9,11,17:40,UTC,0,1016.2,-,65,0,-1,12.3,6,50000,110,3.5,2.5
2022,9,11,17:50,UTC,0,1016.2,-,64,0,-1,12.5,5.7,50000,109,4,2.8
2022,9,11,18:00,UTC,0,1016.2,0,69,0,-1,11.3,5.9,50000,103,4.3,2.6
2022,9,11,18:10,UTC,0,1016.2,-,72,0,-1,10.8,5.8,50000,89,4,3
2022,9,11,18:20,UTC,0,1016.2,-,75,0,-1,10.2,5.9,50000,83,4.3,3
2022,9,11,18:30,UTC,0,1016.3,-,77,0,-1,9.7,5.8,50000,79,4.1,3
2022,9,11,18:40,UTC,0,1016.3,-,78,0,-1,9.3,5.7,50000,71,3.6,2.9
2022,9,11,18:50,UTC,0,1016.3,-,79,0,-1,9,5.6,50000,69,3.6,2.9
2022,9,11,19:00,UTC,0,1016.3,0,82,0,-1,8.6,5.7,50000,73,3.8,3.1
2022,9,11,19:10,UTC,0,1016.3,-,83,0,-1,8.4,5.6,50000,73,4.3,2.8
2022,9,11,19:20,UTC,0,1016.3,-,83,0,-1,8.3,5.6,50000,70,3.2,2.5
2022,9,11,19:30,UTC,0,1016.3,-,83,0,-1,8.3,5.6,50000,66,3.2,2.4
2022,9,11,19:40,UTC,0,1016.3,-,84,0,-1,8.1,5.5,50000,69,3.6,2.7
2022,9,11,19:50,UTC,0,1016.2,-,84,0,-1,8,5.4,50000,78,3.5,2.8
2022,9,11,20:00,UTC,0,1016.2,0,85,0,-1,7.9,5.5,50000,75,3,2.5
2022,9,11,20:10,UTC,0,1016.2,-,84,0,-1,8.1,5.6,50000,62,3.2,2.6
2022,9,11,20:20,UTC,0,1016.2,-,84,0,-1,8,5.4,50000,57,3.3,2.6
2022,9,11,20:30,UTC,0,1016.2,-,86,0,-1,7.4,5.3,50000,66,3.8,2.7
2022,9,11,20:40,UTC,0,1016.1,-,88,0,-1,7.1,5.2,50000,73,3.5,3
2022,9,11,20:50,UTC,0,1016.1,-,88,0,-1,7.3,5.5,50000,76,3.6,3.1
2022,9,11,21:00,UTC,0,1016,0,87,0,-1,7.5,5.4,50000,68,3.6,3
2022,9,11,21:10,UTC,0,1016,-,83,0,-1,8,5.2,50000,53,4.1,3.4
2022,9,11,21:20,UTC,0,1016.1,-,84,0,-1,7.5,5,50000,48,4.3,3.8
2022,9,11,21:30,UTC,0,1016.1,-,85,0,-1,7.4,5,50000,42,4.4,4
2022,9,11,21:40,UTC,0,1016.1,-,88,0,-1,6.8,4.9,50000,50,4.4,3.5
2022,9,11,21:50,UTC,0,1016.1,-,91,0,-1,6.3,5,50000,47,4,2.9
2022,9,11,22:00,UTC,0,1016.2,0,92,0,-1,6.2,5.1,50000,41,3.7,2.9
2022,9,11,22:10,UTC,0,1016.1,-,92,0,-1,6.4,5.2,50000,40,4,3.5
2022,9,11,22:20,UTC,0,1016.1,-,92,0,-1,6.2,4.9,50000,41,3.9,3.5
2022,9,11,22:30,UTC,0,1016,-,92,0,-1,5.9,4.7,50000,45,3.8,3
2022,9,11,22:40,UTC,0,1016,-,94,0,-1,5.8,4.9,50000,50,3.3,2.3
2022,9,11,22:50,UTC,0,1016,-,93,0,-1,5.9,5,50000,37,3.8,3.1
2022,9,11,23:00,UTC,0,1016.1,0,94,0,-1,5.7,4.8,50000,43,3.8,3.2
2022,9,11,23:10,UTC,0,1016,-,94,0,-1,5.5,4.7,50000,37,3.9,3.2
2022,9,11,23:20,UTC,0,1016,-,95,0,-1,5.5,4.7,49660,48,3.8,2.6
2022,9,11,23:30,UTC,0,1016,-,95,0,-1,5.6,4.9,50000,42,3.5,2.7
2022,9,11,23:40,UTC,0,1015.9,-,95,0,-1,5.5,4.7,50000,44,3.7,2.9
2022,9,11,23:50,UTC,0,1015.9,-,95,0,-1,5.4,4.7,50000,48,4.2,3
2022,9,12,00:00,UTC,0,1015.8,0,95,0,-1,5.8,5,50000,36,4.5,3.8
2022,9,12,00:10,UTC,0,1015.8,-,92,0,-1,5.7,4.5,50000,34,4.5,4
2022,9,12,00:20,UTC,0,1015.7,-,93,0,-1,5.5,4.5,50000,31,4.4,3.6
2022,9,12,00:30,UTC,0,1015.6,-,94,0,-1,5.2,4.3,50000,34,4,3.3
2022,9,12,00:40,UTC,0,1015.5,-,95,0,-1,5.1,4.3,50000,46,3.9,2.7
2022,9,12,00:50,UTC,0,1015.5,-,96,0,-1,5.3,4.6,50000,40,3.8,2.7
2022,9,12,01:00,UTC,0,1015.4,0,94,0,-1,5.1,4.3,50000,44,4.2,2.8
2022,9,12,01:10,UTC,0,1015.4,-,95,0,-1,5.6,4.9,50000,34,5.1,3.5
2022,9,12,01:20,UTC,0,1015.4,-,92,0,-1,5.3,4.2,50000,37,4.3,3.3
2022,9,12,01:30,UTC,0,1015.5,-,91,0,-1,5.7,4.3,50000,32,5.1,3.9
2022,9,12,01:40,UTC,0,1015.5,-,86,0,-1,6.4,4.3,50000,31,5.9,4.5
2022,9,12,01:50,UTC,0,1015.5,-,83,0,-1,6.9,4.3,50000,35,5.8,4.2
2022,9,12,02:00,UTC,0,1015.6,0,82,0,-1,7,4.1,50000,39,6.1,4.1
2022,9,12,02:10,UTC,0,1015.6,-,84,0,-1,6.7,4.1,50000,41,5.5,4
2022,9,12,02:20,UTC,0,1015.7,-,83,0,-1,6.7,4.1,50000,39,4.9,3.6
2022,9,12,02:30,UTC,0,1015.7,-,84,0,-1,6.5,4,47380,44,4.7,3.1
2022,9,12,02:40,UTC,0,1015.7,-,87,0,-1,5.9,4,50000,42,4.8,3.4
2022,9,12,02:50,UTC,0,1015.7,-,87,0,-1,6.1,4,50000,38,4.8,3.7
2022,9,12,03:00,UTC,0,1015.8,0,90,0,-1,5.5,4,50000,42,4.6,3
2022,9,12,03:10,UTC,0,1015.8,-,87,0,-1,6,4,50000,32,4.9,3.9
2022,9,12,03:20,UTC,0,1015.9,-,89,0,-1,5.7,3.9,50000,37,5.3,3.6
2022,9,12,03:30,UTC,0,1015.9,-,88,0,-1,5.9,4.1,50000,34,4.5,3.5
2022,9,12,03:40,UTC,0,1015.9,-,89,0,-1,5.9,4.2,50000,32,4.7,3.8
2022,9,12,03:50,UTC,0,1015.9,-,89,0,-1,5.9,4.1,50000,37,4.8,3.6
2022,9,12,04:00,UTC,0,1015.9,0,90,0,-1,5.8,4.3,50000,39,4.5,3
2022,9,12,04:10,UTC,0,1015.9,-,91,0,-1,5.4,4.1,49020,52,4.2,2.1
2022,9,12,04:20,UTC,0,1015.9,-,93,0,-1,5.3,4.2,49840,47,3.6,2.1
2022,9,12,04:30,UTC,0,1015.9,-,93,0,-1,5.7,4.7,50000,52,4.3,2.5
2022,9,12,04:40,UTC,0,1015.9,-,92,0,-1,5.8,4.6,49470,43,4.2,2.8
2022,9,12,04:50,UTC,0,1015.9,-,92,0,-1,6,4.8,42430,37,3.8,2.5
2022,9,12,05:00,UTC,0,1015.8,0,91,0,-1,6.7,5.3,48370,46,3.5,2.6
2022,9,12,05:10,UTC,0,1015.8,-,87,0,-1,7.3,5.3,46680,41,3.3,2.5
2022,9,12,05:20,UTC,0,1015.8,-,85,0,-1,8,5.6,47060,36,3.5,2.5
2022,9,12,05:30,UTC,0,1015.8,-,81,0,-1,8.8,5.6,37150,34,3.8,2
2022,9,12,05:40,UTC,0,1015.9,-,79,0,-1,9,5.6,37340,52,3.5,1.9
2022,9,12,05:50,UTC,0,1015.8,-,78,0,-1,9.7,6,43290,45,3.3,2
2022,9,12,06:00,UTC,0,1015.8,0,75,0,-1,10.5,6.3,34880,52,3.1,1.2
2022,9,12,06:10,UTC,0,1015.7,-,72,0,-1,11.1,6.3,34920,50,2.2,1.1
2022,9,12,06:20,UTC,1,1015.7,-,73,0,-1,10.8,6.2,32690,43,3,1.8
2022,9,12,06:30,UTC,1,1015.8,-,73,0,-1,11.4,6.7,34430,17,2.8,1.8
2022,9,12,06:40,UTC,1,1015.7,-,73,0,-1,11.7,7,35420,24,3.8,2
2022,9,12,06:50,UTC,3,1015.7,-,71,0,-1,12.1,6.9,34780,40,2.6,1.6
2022,9,12,07:00,UTC,5,1015.6,0,69,0,-1,12.8,7.3,29430,50,3.2,1.8
2022,9,12,07:10,UTC,3,1015.5,-,68,0,-1,13.2,7.4,36810,64,3.2,1.9
2022,9,12,07:20,UTC,3,1015.6,-,66,0,-1,13.7,7.5,34770,97,4.1,2.2
2022,9,12,07:30,UTC,3,1015.7,-,66,0,-1,13.9,7.5,37260,63,4,2
2022,9,12,07:40,UTC,3,1015.7,-,65,0,-1,14.4,7.8,34700,66,3.7,1.9
2022,9,12,07:50,UTC,3,1015.7,-,65,0,-1,14.8,8.2,33470,94,4.8,2.7
2022,9,12,08:00,UTC,3,1015.8,0,65,0,-1,15.1,8.5,40420,91,4,2.5
2022,9,12,08:10,UTC,3,1015.8,-,64,0,-1,15.6,8.9,39620,115,3.7,2.2
2022,9,12,08:20,UTC,3,1015.8,-,62,0,-1,15.9,8.6,37920,119,4.8,2.4
2022,9,12,08:30,UTC,3,1015.8,-,60,0,-1,16.1,8.3,41070,118,4.6,2.9
2022,9,12,08:40,UTC,3,1015.9,-,59,0,-1,16.2,8.2,42010,135,4.2,2.8
2022,9,12,08:50,UTC,3,1015.8,-,60,0,-1,16.1,8.4,35640,125,5.1,3.7
2022,9,12,09:00,UTC,3,1015.7,0,63,0,-1,16.3,9.2,42320,135,5.9,4
2022,9,12,09:10,UTC,3,1015.7,-,62,0,-1,16.6,9.1,44140,143,6,3.4
2022,9,12,09:20,UTC,3,1015.6,-,57,0,-1,16.5,8,35410,121,5.2,3.1
2022,9,12,09:30,UTC,3,1015.6,-,59,0,-1,16.8,8.7,32770,137,5.1,3.2
2022,9,12,09:40,UTC,3,1015.6,-,58,0,-1,16.6,8.4,33270,115,6.2,3.9
2022,9,12,09:50,UTC,3,1015.5,-,61,0,-1,16.9,9.3,48730,144,6.7,4
2022,9,12,10:00,UTC,3,1015.5,0,59,0,-1,17,8.9,31310,136,6.3,4.4
2022,9,12,10:10,UTC,3,1015.5,-,58,0,-1,16.6,8.3,35550,129,5.7,3.8
2022,9,12,10:20,UTC,3,1015.6,-,58,0,-1,16.5,8.3,36570,159,6.1,4.2
2022,9,12,10:30,UTC,3,1015.5,-,62,0,-1,16.9,9.6,40620,170,7.2,4.3
2022,9,12,10:40,UTC,5,1015.6,-,63,0,-1,16.8,9.7,43560,166,6.5,4.4
2022,9,12,10:50,UTC,3,1015.7,-,63,0,-1,16.7,9.6,33040,150,5.9,3.7
2022,9,12,11:00,UTC,5,1015.7,0,68,0,-1,16.3,10.4,36010,177,7.1,4.9
2022,9,12,11:10,UTC,3,1015.7,-,67,0,-1,16.4,10.2,32690,152,6.5,4.6
2022,9,12,11:20,UTC,3,1015.8,-,68,0,-1,15.6,9.8,37540,156,6.3,3.9
2022,9,12,11:30,UTC,3,1015.8,-,71,0,-1,15.4,10.1,37950,153,6.4,4.4
2022,9,12,11:40,UTC,3,1015.8,-,68,0,-1,15.6,9.8,40690,151,6.5,3.9
2022,9,12,11:50,UTC,3,1015.8,-,64,0,-1,15.7,9,36830,154,5.8,3.4
2022,9,12,12:00,UTC,3,1015.7,0,64,0,-1,15.4,8.7,41360,160,6.5,4
2022,9,12,12:10,UTC,3,1015.7,-,62,0,-1,15.6,8.3,39810,150,6.5,3.9
2022,9,12,12:20,UTC,3,1015.7,-,57,0,-1,15.5,7.1,44510,142,5.6,4.1
2022,9,12,12:30,UTC,3,1015.7,-,58,0,-1,15.9,7.7,43600,147,5.6,3.9
2022,9,12,12:40,UTC,3,1015.6,-,57,0,-1,15.7,7.3,46140,157,5.9,3.8
2022,9,12,12:50,UTC,3,1015.7,-,57,0,-1,15.6,7.2,50000,138,5.4,3.8
2022,9,12,13:00,UTC,3,1015.6,0,60,0,-1,15.7,7.9,47460,136,5.6,3.3
2022,9,12,13:10,UTC,3,1015.4,-,62,0,-1,15.1,7.9,44920,125,6.3,4.5
2022,9,12,13:20,UTC,3,1015.4,-,62,0,-1,15.2,7.9,44520,143,6.7,4.3
2022,9,12,13:30,UTC,3,1015.5,-,63,0,-1,15,7.9,47600,158,6.2,4.3
2022,9,12,13:40,UTC,1,1015.3,-,63,0,-1,15,8.1,50000,155,6.8,4.7
2022,9,12,13:50,UTC,1,1015.4,-,63,0,-1,15,8.1,43510,152,6.9,4.4
2022,9,12,14:00,UTC,1,1015.4,0,63,0,-1,15,8.1,50000,131,6.4,3.8
2022,9,12,14:10,UTC,1,1015.4,-,66,0,-1,14.4,8,50000,125,6.6,4.4
2022,9,12,14:20,UTC,1,1015.3,-,65,0,-1,14.3,7.8,50000,126,6.6,5
2022,9,12,14:30,UTC,3,1015.3,-,65,0,-1,14.1,7.7,49830,125,5.8,4.3
2022,9,12,14:40,UTC,1,1015.3,-,68,0,-1,13.7,7.8,50000,124,6.3,4.7
2022,9,12,14:50,UTC,3,1015.2,-,68,0,-1,13.7,7.9,50000,126,6.5,4.5
2022,9,12,15:00,UTC,3,1015.3,0,70,0,-1,13.4,8,50000,122,6.3,4.7
2022,9,12,15:10,UTC,3,1015.2,-,70,0,-1,13.2,7.9,50000,122,6.2,4.8
2022,9,12,15:20,UTC,3,1015.3,-,71,0,-1,13.1,7.9,50000,124,6.2,4.2
2022,9,12,15:30,UTC,3,1015.4,-,72,0,-1,12.8,7.9,50000,127,5.8,4.2
2022,9,12,15:40,UTC,3,1015.4,-,74,0,-1,12.6,8.1,50000,130,5.9,4.1
2022,9,12,15:50,UTC,3,1015.4,-,74,0,-1,12.5,8.1,50000,134,5.9,4.1
2022,9,12,16:00,UTC,3,1015.3,0,76,0,-1,12.4,8.2,50000,139,5.1,3.2
2022,9,12,16:10,UTC,3,1015.4,-,75,0,-1,12.3,8.1,50000,136,5.6,4
2022,9,12,16:20,UTC,3,1015.4,-,76,0,-1,12.2,8.2,50000,141,5.3,3.8
2022,9,12,16:30,UTC,3,1015.4,-,77,0,-1,12.1,8.1,50000,136,4.7,3
2022,9,12,16:40,UTC,3,1015.3,-,77,0,-1,12,8.1,50000,140,4.5,3.2
2022,9,12,16:50,UTC,3,1015.4,-,78,0,-1,11.8,8.1,50000,142,5.2,3.5
2022,9,12,17:00,UTC,3,1015.4,0,78,0,-1,11.8,8.1,50000,141,5,3.7
2022,9,12,17:10,UTC,5,1015.3,-,79,0,-1,11.7,8.1,50000,138,5.7,3.9
2022,9,12,17:20,UTC,3,1015.2,-,81,0,-1,11.4,8.2,50000,133,6.1,3.8
2022,9,12,17:30,UTC,3,1015.2,-,82,0,-1,11.3,8.3,50000,135,5,3.8
2022,9,12,17:40,UTC,3,1015.2,-,82,0,-1,11.2,8.3,50000,137,4.4,3.5
2022,9,12,17:50,UTC,5,1015.2,-,83,0,-1,11.3,8.6,50000,138,4,3
2022,9,12,18:00,UTC,3,1015.2,0,85,0,-1,11,8.5,50000,140,3.6,2.6
2022,9,12,18:10,UTC,3,1015.2,-,84,0,-1,11.1,8.6,50000,137,3.1,2.4
2022,9,12,18:20,UTC,3,1015.1,-,85,0,-1,11,8.7,50000,138,2.8,2
2022,9,12,18:30,UTC,5,1015.1,-,84,0,-1,11.6,9,50000,176,7.2,3.9
2022,9,12,18:40,UTC,5,1015.2,-,82,0,-1,11.8,8.8,50000,189,6.3,4
2022,9,12,18:50,UTC,5,1015.2,-,81,0,-1,11.8,8.7,50000,197,7.3,4.5
2022,9,12,19:00,UTC,3,1015.2,0,81,0,-1,11.8,8.6,50000,192,6.5,4.3
2022,9,12,19:10,UTC,3,1015.2,-,82,0,-1,11.6,8.6,50000,203,6.1,4
2022,9,12,19:20,UTC,3,1015.1,-,82,0,-1,11.4,8.5,50000,205,5.7,3.8
2022,9,12,19:30,UTC,1,1015.1,-,83,0,-1,11.4,8.5,50000,211,4.8,3
2022,9,12,19:40,UTC,3,1015.1,-,84,0,-1,11.3,8.7,50000,204,5.7,3
2022,9,12,19:50,UTC,3,1015,-,83,0,-1,11.3,8.5,50000,220,3.9,2.7
2022,9,12,20:00,UTC,3,1015,0,84,0,-1,11.2,8.5,50000,222,5.1,3.2
2022,9,12,20:10,UTC,3,1015,-,84,0,-1,11.1,8.5,50000,222,5,2.9
2022,9,12,20:20,UTC,3,1015,-,84,0,-1,11.1,8.5,50000,211,3.9,2.2
2022,9,12,20:30,UTC,3,1014.9,-,84,0,-1,11.1,8.5,50000,202,4.8,2.9
2022,9,12,20:40,UTC,3,1015,-,84,0,-1,11.2,8.6,50000,195,4.9,3
2022,9,12,20:50,UTC,5,1014.9,-,84,0,-1,11.5,8.8,50000,193,5.4,3.6
2022,9,12,21:00,UTC,7,1014.8,0,83,0,-1,11.7,8.8,50000,192,6.8,3.8
2022,9,12,21:10,UTC,7,1014.7,-,81,0,-1,11.8,8.7,50000,185,6.1,3.5
2022,9,12,21:20,UTC,7,1014.7,-,81,0,-1,11.7,8.6,50000,202,5.4,3.4
2022,9,12,21:30,UTC,7,1014.7,-,81,0,-1,11.7,8.6,50000,203,5.5,3.7
2022,9,12,21:40,UTC,7,1014.6,-,81,0,-1,11.9,8.7,50000,194,5.6,3.5
2022,9,12,21:50,UTC,7,1014.5,-,81,0,-1,11.9,8.7,50000,196,5.6,3.4
2022,9,12,22:00,UTC,7,1014.5,0,80,0,-1,12,8.7,50000,187,6,3.6
2022,9,12,22:10,UTC,7,1014.5,-,80,0,-1,11.9,8.6,50000,198,6.7,4.8
2022,9,12,22:20,UTC,7,1014.4,-,81,0,-1,11.8,8.6,50000,191,6.6,4.4
2022,9,12,22:30,UTC,7,1014.3,-,81,0,-1,11.8,8.6,50000,184,6.1,4.1
2022,9,12,22:40,UTC,7,1014.2,-,81,0,-1,11.7,8.5,50000,185,6.4,3.7
2022,9,12,22:50,UTC,7,1014.1,-,82,0,-1,11.3,8.4,50000,187,6,3.2
2022,9,12,23:00,UTC,5,1014,0,84,0,-1,11,8.3,50000,188,5.3,3.4
2022,9,12,23:10,UTC,3,1013.9,-,84,0,-1,11,8.3,50000,185,5.2,3.3
2022,9,12,23:20,UTC,3,1013.8,-,86,0,-1,10.8,8.5,50000,179,4.7,3
2022,9,12,23:30,UTC,3,1013.8,-,87,0,-1,10.8,8.6,50000,189,5.6,3.5
2022,9,12,23:40,UTC,5,1013.6,-,87,0,-1,10.9,8.8,50000,180,5.3,3
2022,9,12,23:50,UTC,5,1013.5,-,87,0,-1,11.1,9,50000,181,4.8,2.8
2022,9,13,00:00,UTC,7,1013.5,0,86,0,-1,11.3,9,50000,182,5.5,2.9
2022,9,13,00:10,UTC,7,1013.5,-,85,0,-1,11.4,9,50000,186,7.1,3.9
2022,9,13,00:20,UTC,7,1013.4,-,84,0,-1,11.5,8.8,50000,188,7,3.5
2022,9,13,00:30,UTC,7,1013.4,-,81,0,-1,11.6,8.4,50000,198,8.7,5.3
2022,9,13,00:40,UTC,7,1013.4,-,81,0,-1,11.6,8.4,50000,186,6.9,3.4
2022,9,13,00:50,UTC,7,1013.4,-,81,0,-1,11.6,8.6,50000,195,8.2,5.6
2022,9,13,01:00,UTC,7,1013.4,0,81,0,-1,11.5,8.4,50000,201,7.8,4.7
2022,9,13,01:10,UTC,7,1013.3,-,79,0,-1,11.5,8.1,50000,202,7.3,4.4
2022,9,13,01:20,UTC,7,1013.3,-,79,0,-1,11.6,8.2,50000,188,7,3.9
2022,9,13,01:30,UTC,7,1013.3,-,80,0,-1,11.6,8.2,50000,194,7.8,4
2022,9,13,01:40,UTC,7,1013.2,-,79,0,-1,11.7,8.2,50000,185,8.1,4.3
2022,9,13,01:50,UTC,7,1013.2,-,77,0,-1,11.7,7.8,50000,193,9.4,4.8
2022,9,13,02:00,UTC,7,1013.2,0,76,0,-1,11.7,7.6,50000,205,8.6,5.3
2022,9,13,02:10,UTC,7,1013.2,-,78,0,-1,11.7,7.9,50000,197,7.3,4.8
2022,9,13,02:20,UTC,7,1013.2,-,78,0,-1,11.7,7.9,50000,190,7.6,4.6
2022,9,13,02:30,UTC,7,1013.1,-,78,0,-1,11.8,8.1,50000,184,6.4,4
2022,9,13,02:40,UTC,7,1012.9,-,78,0,-1,11.7,8,50000,196,8.2,3.9
2022,9,13,02:50,UTC,7,1012.7,-,77,0,-1,11.8,8,50000,190,8.4,5.4
2022,9,13,03:00,UTC,7,1012.6,0,78,0,-1,11.8,8.1,50000,197,7.9,4.8
2022,9,13,03:10,UTC,7,1012.5,-,79,0,-1,11.7,8.2,50000,192,8.3,4.6
2022,9,13,03:20,UTC,7,1012.5,-,80,0,-1,11.7,8.4,50000,195,7.3,4.4
2022,9,13,03:30,UTC,8,1012.4,-,80,0,-1,11.7,8.4,50000,185,6.2,3.9
2022,9,13,03:40,UTC,7,1012.3,-,80,0,-1,11.7,8.3,50000,188,8.5,4.5
2022,9,13,03:50,UTC,7,1012.3,-,80,0,-1,11.8,8.4,50000,186,7.5,4.2
2022,9,13,04:00,UTC,7,1012.3,0,80,0,-1,11.7,8.3,50000,202,7.5,4
2022,9,13,04:10,UTC,7,1012.2,-,80,0,-1,11.8,8.4,50000,195,5.9,3.8
2022,9,13,04:20,UTC,7,1012.2,-,80,0,-1,11.8,8.5,50000,192,7.8,4
2022,9,13,04:30,UTC,7,1012.1,-,79,0,-1,11.8,8.3,50000,208,9,5.3
2022,9,13,04:40,UTC,7,1012,-,79,0,-1,11.9,8.3,50000,201,8.1,4.9
2022,9,13,04:50,UTC,7,1011.9,-,79,0,-1,11.9,8.3,50000,207,8,5.3
2022,9,13,05:00,UTC,7,1011.9,0,78,0,-1,11.9,8.2,50000,202,8.9,4.8
2022,9,13,05:10,UTC,7,1011.9,-,78,0,-1,11.8,8.1,50000,205,9.3,6.2
2022,9,13,05:20,UTC,7,1011.8,-,78,0,-1,11.8,8.2,50000,206,9.6,6
2022,9,13,05:30,UTC,7,1011.8,-,78,0,-1,11.8,8.1,50000,198,8.7,5.5
2022,9,13,05:40,UTC,7,1011.7,-,78,0,-1,11.9,8.1,50000,199,9.2,5.3
2022,9,13,05:50,UTC,7,1011.6,-,78,0,-1,11.8,8.1,50000,199,9,5.8
2022,9,13,06:00,UTC,7,1011.6,0,78,0,-1,11.8,8.1,50000,197,8.9,5
2022,9,13,06:10,UTC,7,1011.5,-,77,0,-1,11.8,8,50000,190,8.7,5.3
2022,9,13,06:20,UTC,7,1011.4,-,76,0,-1,11.8,7.7,50000,207,9.2,5.1
2022,9,13,06:30,UTC,7,1011.4,-,75,0,-1,11.8,7.6,50000,193,8.7,5
2022,9,13,06:40,UTC,7,1011.4,-,75,0,-1,11.9,7.7,50000,191,7.4,4.3
2022,9,13,06:50,UTC,7,1011.3,-,75,0,-1,12,7.7,50000,188,7.9,4.2
2022,9,13,07:00,UTC,7,1011.3,0,74,0,-1,12.1,7.6,50000,193,8.5,4.3
2022,9,13,07:10,UTC,7,1011.3,-,74,0,-1,12.2,7.7,48390,190,8.1,4.3
2022,9,13,07:20,UTC,7,1011.3,-,73,0,-1,12.3,7.6,47280,192,8.2,4.6
2022,9,13,07:30,UTC,8,1011.2,-,72,0,-1,12.3,7.4,50000,187,8.3,5.5
2022,9,13,07:40,UTC,7,1011.1,-,72,0,-1,12.3,7.5,50000,184,9.1,5.3
2022,9,13,07:50,UTC,7,1011,-,72,0,-1,12.4,7.5,50000,197,8.3,5
2022,9,13,08:00,UTC,7,1011,0,73,0,-1,12.4,7.6,50000,185,8,5.3
2022,9,13,08:10,UTC,7,1011,-,72,0,-1,12.5,7.6,50000,195,7.5,4.6
2022,9,13,08:20,UTC,7,1011,-,70,0,-1,12.5,7.3,50000,180,8.3,4.6
2022,9,13,08:30,UTC,7,1010.9,-,70,0,-1,12.2,7,50000,179,10,6.2
2022,9,13,08:40,UTC,7,1010.8,-,71,0,-1,12.3,7.2,50000,183,9.5,5.9
2022,9,13,08:50,UTC,7,1010.8,-,70,0,-1,12.8,7.3,50000,179,8.3,4.8
2022,9,13,09:00,UTC,7,1010.7,0,67,0,-1,13.6,7.6,39770,188,8.6,5.1
2022,9,13,09:10,UTC,7,1010.6,-,68,0,-1,13.5,7.8,50000,190,8.7,5.7
2022,9,13,09:20,UTC,7,1010.6,-,66,0,-1,14,7.7,43860,175,8.7,4.8
2022,9,13,09:30,UTC,5,1010.5,-,67,0,-1,13.7,7.7,45890,181,8.7,5
2022,9,13,09:40,UTC,7,1010.3,-,67,0,-1,13.6,7.7,41300,186,8.7,4.9
2022,9,13,09:50,UTC,7,1010.3,-,66,0,-1,13.9,7.7,38970,182,8.3,5.3
2022,9,13,10:00,UTC,7,1010.2,0,64,0,-1,13.9,7.2,43870,174,8.9,5.1
2022,9,13,10:10,UTC,7,1010.2,-,63,0,-1,14.3,7.3,39020,181,8.4,4.8
2022,9,13,10:20,UTC,7,1010.1,-,67,0,-1,13.2,7.3,49460,181,8.6,4.9
2022,9,13,10:30,UTC,7,1010,-,67,0,-1,13.6,7.5,45180,176,9,5.8
2022,9,13,10:40,UTC,7,1010,-,67,0,-1,13.4,7.4,45010,188,9.9,6.4
2022,9,13,10:50,UTC,7,1009.9,-,67,0,-1,13.3,7.4,43570,173,9.1,5.3
2022,9,13,11:00,UTC,7,1009.7,0,69,0,-1,13.3,7.7,47770,176,7.8,4.8
2022,9,13,11:10,UTC,7,1009.7,-,70,0,-1,13,7.5,50000,175,9.5,5.3
2022,9,13,11:20,UTC,7,1009.6,-,69,0,-1,13.1,7.5,50000,180,8,5.1
2022,9,13,11:30,UTC,7,1009.4,-,69,0,-1,13,7.5,50000,191,7.9,4.7
2022,9,13,11:40,UTC,7,1009.4,-,70,0,-1,12.9,7.5,50000,183,9,5.2
2022,9,13,11:50,UTC,7,1009.3,-,69,0,-1,13,7.3,50000,198,7.6,4.7
2022,9,13,12:00,UTC,7,1009.1,0,69,0,-1,13.1,7.6,50000,188,9.2,4.7
2022,9,13,12:10,UTC,7,1009,-,68,0,-1,13.1,7.3,46010,175,8.5,5.2
2022,9,13,12:20,UTC,7,1008.8,-,69,0,-1,13,7.4,50000,171,8,5
2022,9,13,12:30,UTC,7,1008.6,-,68,0,-1,13.2,7.4,50000,168,7.6,4.7
2022,9,13,12:40,UTC,7,1008.4,-,67,0,-1,13.5,7.5,50000,174,8.4,4.7
2022,9,13,12:50,UTC,7,1008.3,-,67,0,-1,13.6,7.5,49230,173,7.2,4.2
2022,9,13,13:00,UTC,7,1008.3,0,68,0,-1,13.4,7.6,36080,166,8.1,4.3
2022,9,13,13:10,UTC,7,1008.2,-,70,0,-1,13.1,7.7,40240,171,8.1,5.8
2022,9,13,13:20,UTC,7,1008.1,-,70,0,-1,13.2,7.8,41760,167,7.6,4.5
2022,9,13,13:30,UTC,7,1008.1,-,70,0,-1,12.9,7.7,48090,168,8.3,5.2
2022,9,13,13:40,UTC,7,1007.9,-,71,0,-1,13,7.9,48450,178,8.7,3.8
2022,9,13,13:50,UTC,7,1007.8,-,73,0,-1,13,8.2,50000,176,7.8,4.2
2022,9,13,14:00,UTC,7,1007.6,0,71,0,-1,12.9,7.9,49100,186,8,5
2022,9,13,14:10,UTC,7,1007.4,-,72,0,-1,12.9,7.9,49880,181,9.4,4.8
2022,9,13,14:20,UTC,7,1007.3,-,73,0,-1,12.8,8.2,50000,165,7.2,4.2
2022,9,13,14:30,UTC,7,1007.2,-,74,0,-1,12.9,8.3,49430,180,6.9,4.1
2022,9,13,14:40,UTC,7,1007.1,-,77,0,-1,12.6,8.7,19620,178,7.9,5.3
2022,9,13,14:50,UTC,7,1007,-,79,0,-1,12.3,8.8,44770,172,8.3,4.7
2022,9,13,15:00,UTC,7,1007,0,77,0,-1,12.4,8.6,47400,177,9.9,6.1
2022,9,13,15:10,UTC,7,1007,-,81,0,-1,12.1,9,15770,174,8.3,5.5
2022,9,13,15:20,UTC,7,1006.9,-,85,0,-1,11.7,9.2,17070,174,8.1,4.9
2022,9,13,15:30,UTC,7,1006.8,-,82,0,-1,12,9,50000,162,7.8,4.8
2022,9,13,15:40,UTC,7,1006.6,-,78,0,-1,12.2,8.5,50000,168,8.7,5.2
2022,9,13,15:50,UTC,8,1006.6,-,78,0,-1,12.3,8.5,50000,164,9.1,5.7
2022,9,13,16:00,UTC,7,1006.6,0,77,0,-1,12.3,8.3,50000,168,10.1,5.3
2022,9,13,16:10,UTC,7,1006.6,-,80,0,-1,12.1,8.7,25830,189,10,5.6
2022,9,13,16:20,UTC,7,1006.5,-,82,0,-1,11.9,8.9,41210,183,9.7,5.3
2022,9,13,16:30,UTC,7,1006.5,-,80,0,-1,12,8.6,49590,188,8.9,5.7
2022,9,13,16:40,UTC,7,1006.4,-,79,0,-1,12.1,8.6,50000,180,8.1,5
2022,9,13,16:50,UTC,7,1006.4,-,77,0,-1,12.2,8.3,50000,170,12.7,6.1
2022,9,13,17:00,UTC,7,1006.3,0,77,0,-1,12.2,8.2,49400,177,11.1,6.7
2022,9,13,17:10,UTC,7,1006.2,-,76,0,-1,12.1,8,50000,179,10.4,6.8
2022,9,13,17:20,UTC,7,1006,-,76,0,-1,12.1,8.1,48130,174,11.1,6.2
2022,9,13,17:30,UTC,7,1005.9,-,73,0,-1,12.2,7.6,50000,173,11.8,6.1
2022,9,13,17:40,UTC,7,1005.7,-,73,0,-1,12.2,7.5,50000,170,10.1,6.6
2022,9,13,17:50,UTC,7,1005.5,-,70,0,-1,12.3,7.1,50000,172,11.4,6.7
2022,9,13,18:00,UTC,7,1005.4,0,72,0,-1,12.4,7.4,50000,169,12.5,6.5
2022,9,13,18:10,UTC,7,1005.5,-,74,0,-1,12.2,7.7,50000,175,11.6,7.1
2022,9,13,18:20,UTC,7,1005.5,-,75,0,-1,12.2,7.8,50000,174,11,6.1
2022,9,13,18:30,UTC,7,1005.5,-,75,0,-1,12.3,8,50000,173,10.2,5.8
2022,9,13,18:40,UTC,7,1005.3,-,76,0,-1,12.3,8.2,50000,168,11.7,5.7
2022,9,13,18:50,UTC,7,1005.2,-,77,0,-1,12.3,8.4,50000,165,10.8,6.5
2022,9,13,19:00,UTC,7,1005.2,0,77,0,-1,12.3,8.4,50000,161,12.2,6.5
2022,9,13,19:10,UTC,7,1005,-,77,0,-1,12.3,8.4,50000,163,10.6,6.4
2022,9,13,19:20,UTC,7,1005,-,78,0,-1,12.3,8.5,50000,166,10.7,6.9
2022,9,13,19:30,UTC,7,1004.9,-,78,0,-1,12.3,8.5,50000,165,10.9,6.4
2022,9,13,19:40,UTC,7,1004.8,-,78,0,-1,12.3,8.6,50000,169,11.9,7.1
2022,9,13,19:50,UTC,7,1004.6,-,78,0,-1,12.2,8.5,50000,167,12.2,6.9
2022,9,13,20:00,UTC,7,1004.5,0,79,0,-1,12.2,8.7,50000,167,12.7,7.6
2022,9,13,20:10,UTC,7,1004.4,-,79,0,-1,12.2,8.7,50000,168,11,6.2
2022,9,13,20:20,UTC,7,1004.2,-,80,0,-1,12.1,8.7,50000,169,11.8,6
2022,9,13,20:30,UTC,8,1004.1,-,78,0,-1,12.2,8.3,50000,179,10.6,5.8
2022,9,13,20:40,UTC,8,1004,-,76,0,-1,12.2,8,50000,181,10.7,6.2
2022,9,13,20:50,UTC,8,1004.1,-,77,0,-1,12.1,8.3,50000,180,11.6,6.9
2022,9,13,21:00,UTC,8,1003.8,0,78,0,-1,12.1,8.3,50000,173,11.8,7.1
2022,9,13,21:10,UTC,8,1003.8,-,77,0,-1,12.3,8.4,50000,177,10.6,6.3
2022,9,13,21:20,UTC,7,1003.7,-,77,0,-1,12.5,8.5,50000,174,11.5,7.6
2022,9,13,21:30,UTC,8,1003.5,-,76,0,-1,12.4,8.4,50000,174,11.6,6.6
2022,9,13,21:40,UTC,7,1003.4,-,77,0,-1,12.4,8.4,50000,177,13,6
2022,9,13,21:50,UTC,7,1003.4,-,78,0,-1,12.3,8.5,50000,175,12.6,6.3
2022,9,13,22:00,UTC,7,1003.2,0,80,0,-1,12.2,8.9,50000,179,12.3,6.6
2022,9,13,22:10,UTC,7,1003.2,-,81,0,-1,12.1,8.9,50000,175,12.1,6.5
2022,9,13,22:20,UTC,7,1003,-,80,0,-1,12.2,8.9,50000,175,10.9,6.5
2022,9,13,22:30,UTC,7,1003,-,81,0,-1,12.2,9,50000,169,12.6,6.5
2022,9,13,22:40,UTC,7,1002.8,-,80,0,-1,12.1,8.8,50000,172,13,7.3
2022,9,13,22:50,UTC,7,1002.6,-,81,0,-1,12.1,8.9,50000,175,10.4,6.4
2022,9,13,23:00,UTC,7,1002.5,0,80,0,-1,12.1,8.8,50000,174,10.7,6.8
2022,9,13,23:10,UTC,7,1002.2,-,81,0,-1,12,8.8,50000,169,9.8,5.3
2022,9,13,23:20,UTC,7,1002,-,80,0,-1,12.2,8.8,50000,173,11.3,7.5
2022,9,13,23:30,UTC,7,1001.8,-,79,0,-1,12.3,8.8,48340,172,12.6,7.3
2022,9,13,23:40,UTC,7,1001.6,-,79,0,-1,12.3,8.9,50000,173,11.6,7.3
2022,9,13,23:50,UTC,7,1001.4,-,79,0,-1,12.3,8.9,50000,171,10.5,6.5
2022,9,14,00:00,UTC,7,1001.2,0,80,0,-1,12.4,9,50000,168,9.8,6.1
2022,9,14,00:10,UTC,7,1001,-,80,0,-1,12.4,9,50000,161,10.4,6.3
2022,9,14,00:20,UTC,7,1000.9,-,80,0,-1,12.4,9,50000,165,13.1,7.7
2022,9,14,00:30,UTC,7,1000.8,-,80,0,-1,12.4,9.1,50000,159,10.8,7.4
2022,9,14,00:40,UTC,7,1000.7,-,81,0,-1,12.3,9.1,50000,157,10.8,6.7
2022,9,14,00:50,UTC,7,1000.6,-,81,0,-1,12.3,9.1,50000,155,11.5,6.8
2022,9,14,01:00,UTC,7,1000.5,0,82,0,-1,12.1,9.1,50000,155,10.6,6.5
2022,9,14,01:10,UTC,7,1000.4,-,82,0,-1,12.1,9.1,50000,159,11.3,7.5
2022,9,14,01:20,UTC,7,1000.4,-,82,0,-1,12.1,9.1,50000,156,11.3,6.5
2022,9,14,01:30,UTC,7,1000.3,-,82,0,-1,12,9.1,50000,158,11.8,6.8
2022,9,14,01:40,UTC,7,1000.2,-,84,0,-1,12,9.3,50000,156,10.8,6.9
2022,9,14,01:50,UTC,7,1000.1,-,84,0,-1,11.9,9.4,46520,156,10.8,6.1
2022,9,14,02:00,UTC,7,1000.1,0,84,0,-1,12,9.4,47830,156,10.5,7
2022,9,14,02:10,UTC,7,1000,-,84,0,-1,12,9.4,49880,159,9.9,6.2
2022,9,14,02:20,UTC,7,999.8,-,83,0,-1,12.2,9.4,50000,161,11.4,7.6
2022,9,14,02:30,UTC,7,999.6,-,83,0,-1,12.2,9.3,50000,153,12.2,6.9
2022,9,14,02:40,UTC,7,999.5,-,83,0,-1,12.1,9.4,50000,158,11.4,7
2022,9,14,02:50,UTC,7,999.5,-,83,0,-1,12.2,9.3,49920,157,12,7.4
2022,9,14,03:00,UTC,7,999.4,0,83,0,-1,12.2,9.4,50000,158,10.6,6.3
2022,9,14,03:10,UTC,8,999.3,-,83,0,-1,12.2,9.3,50000,159,13.1,7.5
2022,9,14,03:20,UTC,7,999.2,-,82,0,-1,12.2,9.3,50000,158,11,6.7
2022,9,14,03:30,UTC,7,999.1,-,82,0,-1,12.2,9.2,50000,155,12.1,7.6
2022,9,14,03:40,UTC,7,999,-,82,0,-1,12.2,9.3,50000,157,11.5,7.2
2022,9,14,03:50,UTC,7,999,-,82,0,-1,12.2,9.3,50000,154,10.5,6.5
2022,9,14,04:00,UTC,7,998.8,0,82,0,-1,12.3,9.3,50000,156,11.6,7.6
2022,9,14,04:10,UTC,7,998.8,-,83,0,-1,12.3,9.4,50000,152,10.1,6.3
2022,9,14,04:20,UTC,7,998.6,-,83,0,-1,12.3,9.5,41590,155,12.3,6.9
2022,9,14,04:30,UTC,7,998.5,-,83,0,-1,12.4,9.5,34900,155,12.3,7.2
2022,9,14,04:40,UTC,7,998.4,-,83,0,-1,12.3,9.6,48050,156,10.8,7.2
2022,9,14,04:50,UTC,7,998.3,-,84,0,-1,12.4,9.8,23540,154,11.6,6.8
2022,9,14,05:00,UTC,7,998.2,0.1,88,0.6,-1,12,10.1,14670,152,11.4,7.2
2022,9,14,05:10,UTC,8,998.2,-,90,0.6,-1,11.8,10.3,14780,153,11.5,7.9
2022,9,14,05:20,UTC,7,998.1,-,92,1,-1,11.7,10.5,11030,152,11.3,7.3
2022,9,14,05:30,UTC,7,998,-,92,0.7,-1,11.7,10.5,13320,152,10.1,7.1
2022,9,14,05:40,UTC,7,997.9,-,93,0.5,-1,11.7,10.7,10590,148,11.1,7.2
2022,9,14,05:50,UTC,7,997.9,-,92,0.4,-1,11.7,10.5,12900,147,10.5,7.8
2022,9,14,06:00,UTC,7,997.8,0.8,94,1.4,-1,11.7,10.8,8780,146,10.4,7.5
2022,9,14,06:10,UTC,8,997.8,-,95,0.7,-1,11.7,10.9,9400,147,11.7,7.3
2022,9,14,06:20,UTC,7,997.8,-,95,1.6,-1,11.8,11,10700,150,8.9,6.4
2022,9,14,06:30,UTC,7,997.7,-,94,0.7,-1,11.9,10.9,10900,153,10.4,6.5
2022,9,14,06:40,UTC,8,997.7,-,93,0.4,-1,11.9,10.7,14490,151,10.6,6.5
2022,9,14,06:50,UTC,8,997.6,-,93,0,-1,11.9,10.8,29240,154,10.9,5.8
2022,9,14,07:00,UTC,7,997.5,0.6,92,0,-1,11.9,10.7,21980,151,11,7.8
2022,9,14,07:10,UTC,7,997.4,-,92,0,-1,12,10.7,20640,152,10.4,7
2022,9,14,07:20,UTC,7,997.3,-,90,0,-1,12,10.5,32320,149,11.6,7.7
2022,9,14,07:30,UTC,7,997.2,-,90,0,-1,12.1,10.5,23470,154,11.5,7.1
2022,9,14,07:40,UTC,8,997.2,-,88,0,-1,12.2,10.2,30880,155,11.7,7.6
2022,9,14,07:50,UTC,8,997.1,-,88,0,-1,12.2,10.2,41870,154,13.5,8
2022,9,14,08:00,UTC,7,997.1,0,89,0,-1,12.1,10.3,10630,156,12.9,7.7
2022,9,14,08:10,UTC,7,997.1,-,92,0.6,-1,11.8,10.6,6720,158,12.7,8
2022,9,14,08:20,UTC,7,997,-,95,2.9,-1,11.6,10.9,6020,157,11.7,7.2
2022,9,14,08:30,UTC,7,997,-,96,2,-1,11.7,11.1,6640,162,10.5,6.4
2022,9,14,08:40,UTC,8,997,-,98,3.9,-1,11.6,11.2,5200,155,10.9,7.3
2022,9,14,08:50,UTC,8,996.9,-,98,2.3,-1,11.6,11.3,5050,162,12.1,7.4
2022,9,14,09:00,UTC,7,996.8,2.2,99,1.4,-1,11.6,11.4,4540,156,11.4,7.3
2022,9,14,09:10,UTC,7,996.8,-,98,0.1,-1,11.7,11.4,12110,156,13.1,8.2
2022,9,14,09:20,UTC,8,996.7,-,96,0,-1,11.9,11.3,32440,159,11.4,7.1
2022,9,14,09:30,UTC,7,996.7,-,96,0.7,-1,11.8,11.2,10190,167,12.2,6.7
2022,9,14,09:40,UTC,7,996.7,-,98,2.3,-1,11.7,11.4,6430,170,10.6,6.8
2022,9,14,09:50,UTC,7,996.7,-,98,0,-1,11.9,11.6,21170,163,8.6,5.5
2022,9,14,10:00,UTC,7,996.7,0.5,95,0,-1,12.1,11.3,38640,165,13.1,7.3
2022,9,14,10:10,UTC,8,996.7,-,94,0,-1,12.1,11.2,40320,175,11.1,6.6
2022,9,14,10:20,UTC,7,996.7,-,94,0,-1,12.2,11.3,33750,172,12.7,6.2
2022,9,14,10:30,UTC,7,996.7,-,94,0,-1,12.2,11.3,45080,164,10.9,6.5
2022,9,14,10:40,UTC,8,996.7,-,94,0,-1,12.3,11.3,41810,164,10.7,6.1
2022,9,14,10:50,UTC,7,996.7,-,92,0,-1,12.5,11.3,39400,164,13.3,6.3
2022,9,14,11:00,UTC,7,996.6,0,92,0,-1,12.6,11.3,50000,166,12,6.4
2022,9,14,11:10,UTC,8,996.6,-,90,0,-1,12.5,10.9,42160,181,14,7.9
2022,9,14,11:20,UTC,7,996.7,-,89,0,-1,12.5,10.8,44540,183,12.6,7.6
2022,9,14,11:30,UTC,7,996.7,-,89,0,-1,12.4,10.7,41910,177,13.9,7.8
2022,9,14,11:40,UTC,7,996.7,-,87,0,-1,12.4,10.4,38190,179,13.6,8.4
2022,9,14,11:50,UTC,8,996.5,-,89,0,-1,12.5,10.9,39860,172,11.7,6.3
2022,9,14,12:00,UTC,7,996.5,0,88,0,-1,12.7,10.8,43430,171,11.9,6.9
2022,9,14,12:10,UTC,7,996.4,-,89,0,-1,12.8,11,43510,172,10.7,6.4
2022,9,14,12:20,UTC,7,996.2,-,89,0,-1,12.9,11.1,37840,163,11,6.2
2022,9,14,12:30,UTC,7,996.2,-,87,0,-1,12.9,10.9,39360,165,12.6,8.4
2022,9,14,12:40,UTC,7,996.1,-,87,0,-1,13,11,44680,162,12,6.8
2022,9,14,12:50,UTC,7,996,-,85,0,-1,13.1,10.6,42770,162,12.3,8.5
2022,9,14,13:00,UTC,7,995.9,0,84,0,-1,13.3,10.6,47340,164,13.7,8.2
2022,9,14,13:10,UTC,7,995.9,-,85,0,-1,13.2,10.8,44980,163,13.6,8.2
2022,9,14,13:20,UTC,7,995.8,-,86,0,-1,13.1,10.8,47650,161,12.5,6.9
2022,9,14,13:30,UTC,7,995.9,-,88,0,-1,13,11,19430,168,13,6.9
2022,9,14,13:40,UTC,7,995.8,-,91,0.4,-1,12.7,11.3,12340,165,11.9,6.2
2022,9,14,13:50,UTC,7,995.7,-,92,0.4,-1,12.6,11.4,24500,163,11.3,6.5
2022,9,14,14:00,UTC,7,995.7,0.1,90,0,-1,12.8,11.2,33660,164,12.4,7.8
2022,9,14,14:10,UTC,8,995.6,-,90,0,-1,13,11.3,44750,165,11.5,6.6
2022,9,14,14:20,UTC,7,995.6,-,88,0,-1,13.2,11.2,42910,162,10.2,7.2
2022,9,14,14:30,UTC,7,995.6,-,88,0,-1,13.1,11.2,49440,165,10.9,6.9
2022,9,14,14:40,UTC,8,995.5,-,87,0,-1,13.2,11.1,40560,166,12.2,6.5
2022,9,14,14:50,UTC,8,995.5,-,87,0,-1,13.2,11.1,43140,166,10.8,6.2
2022,9,14,15:00,UTC,8,995.4,0,86,0,-1,13.3,11.1,41230,168,10.4,6.1
2022,9,14,15:10,UTC,7,995.4,-,85,0,-1,13.3,10.8,40030,169,11.7,6.8
2022,9,14,15:20,UTC,7,995.4,-,86,0,-1,13.3,11,46880,167,11.9,6.3
2022,9,14,15:30,UTC,7,995.3,-,84,0,-1,13.4,10.7,45070,167,11.4,7.3
2022,9,14,15:40,UTC,7,995.3,-,87,0,-1,13.2,11.1,27740,168,11.7,6.2
2022,9,14,15:50,UTC,7,995.3,-,90,0.5,-1,13,11.3,23220,167,10,6.3
2022,9,14,16:00,UTC,7,995.1,0.1,89,0,-1,13.1,11.3,23510,172,12.4,6.9
2022,9,14,16:10,UTC,7,995.1,-,88,0,-1,13.1,11.1,40560,169,10.6,6.5
2022,9,14,16:20,UTC,8,995,-,88,0,-1,13.1,11.2,42960,166,10.4,6.4
2022,9,14,16:30,UTC,7,995,-,90,0.4,-1,13,11.4,20290,173,11.1,6.5
2022,9,14,16:40,UTC,7,994.9,-,90,0.4,-1,12.9,11.4,29750,171,9.7,6
2022,9,14,16:50,UTC,7,994.9,-,93,0.7,-1,12.6,11.5,10950,175,12.7,7.5
2022,9,14,17:00,UTC,7,994.9,0.4,95,1.1,-1,12.6,11.8,11180,172,10,5.7
2022,9,14,17:10,UTC,7,994.8,-,96,2,-1,12.6,11.9,10970,165,10.2,5.8
2022,9,14,17:20,UTC,7,994.8,-,96,1.1,-1,12.6,12,8420,160,9.7,6.5
2022,9,14,17:30,UTC,7,994.6,-,97,3.4,-1,12.5,12.1,8690,163,11.8,7
2022,9,14,17:40,UTC,7,994.5,-,97,1.2,-1,12.6,12.1,10690,161,12.3,7.1
2022,9,14,17:50,UTC,7,994.5,-,98,1.4,-1,12.5,12.2,6410,171,11.9,7.2
2022,9,14,18:00,UTC,7,994.3,2.2,99,4,-1,12.4,12.2,5660,163,9.5,6.2
2022,9,14,18:10,UTC,7,994.2,-,99,2,-1,12.4,12.3,5730,158,10.1,6
2022,9,14,18:20,UTC,7,994.1,-,99,2.6,-1,12.5,12.4,6810,163,11.5,6.4
2022,9,14,18:30,UTC,7,994.1,-,98,0,-1,12.6,12.4,23160,183,12,6.8
2022,9,14,18:40,UTC,7,994.1,-,98,0,-1,12.6,12.4,23360,194,11.8,5.8
2022,9,14,18:50,UTC,7,994,-,97,0,-1,12.7,12.3,29060,190,10.1,6.2
2022,9,14,19:00,UTC,7,994,0.8,98,0,-1,12.5,12.2,33530,185,7.9,5.2
2022,9,14,19:10,UTC,7,993.9,-,97,0,-1,12.6,12.1,35210,200,9.4,6
2022,9,14,19:20,UTC,7,993.9,-,98,0,-1,12.5,12.2,29320,195,7.7,4.8
2022,9,14,19:30,UTC,7,993.9,-,98,0,-1,12.5,12.1,29100,192,7.6,4.5
2022,9,14,19:40,UTC,5,993.8,-,98,0,-1,12.4,12,30520,197,8,4.9
2022,9,14,19:50,UTC,5,993.8,-,97,0,-1,12.3,11.9,36000,195,7.2,4.7
2022,9,14,20:00,UTC,5,993.7,0,97,0,-1,12.2,11.8,40310,198,6.5,4.2
2022,9,14,20:10,UTC,5,993.6,-,98,0,-1,12.3,12,40570,192,5.9,3.7
2022,9,14,20:20,UTC,7,993.6,-,98,0,-1,12.4,12.1,34240,188,6.1,4.1
2022,9,14,20:30,UTC,7,993.6,-,97,0,-1,12.3,11.8,42860,196,5.1,3.8
2022,9,14,20:40,UTC,7,993.6,-,95,0,-1,12.2,11.5,50000,194,6.1,4
2022,9,14,20:50,UTC,5,993.6,-,97,0,-1,12.1,11.6,50000,197,6,3.6
2022,9,14,21:00,UTC,5,993.6,0,98,0,-1,12.3,12,41690,197,6.7,4.3
2022,9,14,21:10,UTC,3,993.6,-,98,0,-1,12.1,11.8,32070,188,6.4,3.9
2022,9,14,21:20,UTC,3,993.5,-,99,0,-1,12.1,12,24630,190,6.2,3.9
2022,9,14,21:30,UTC,5,993.5,-,100,0,-1,12.3,12.2,24470,198,6,4.3
2022,9,14,21:40,UTC,3,993.5,-,99,0,-1,12.1,12,28290,197,6.1,3.9
2022,9,14,21:50,UTC,1,993.4,-,99,0,-1,12,11.8,28060,193,6.5,3.2
2022,9,14,22:00,UTC,1,993.3,0,99,0,-1,12.1,11.9,31390,188,5.6,3.8
2022,9,14,22:10,UTC,1,993.3,-,98,0,-1,12.1,11.8,33960,190,5.6,3.9
2022,9,14,22:20,UTC,3,993.2,-,98,0,-1,12.2,11.9,39620,193,4.9,3.3
2022,9,14,22:30,UTC,3,993.1,-,98,0,-1,12.1,11.7,35080,191,4.8,3.1
2022,9,14,22:40,UTC,3,993,-,98,0,-1,12.1,11.8,37800,186,5.9,3.5
2022,9,14,22:50,UTC,5,992.9,-,97,0,-1,12.1,11.7,43900,193,5.6,3.6
2022,9,14,23:00,UTC,3,992.9,0,98,0,-1,12,11.7,44250,187,5.2,3.3
2022,9,14,23:10,UTC,3,992.9,-,98,0,-1,12.2,11.8,45330,192,5.8,3.9
2022,9,14,23:20,UTC,3,992.8,-,98,0,-1,12.2,11.8,44390,195,6.9,4.2
2022,9,14,23:30,UTC,5,992.8,-,97,0,-1,12.2,11.7,44820,190,6.2,4.3
2022,9,14,23:40,UTC,5,992.6,-,97,0,-1,12.2,11.8,38530,187,5.9,3.4
2022,9,14,23:50,UTC,7,992.6,-,98,0,-1,12.2,11.9,40400,186,6,3.9
2022,9,15,00:00,UTC,3,992.5,0,97,0,-1,12.1,11.6,47660,191,6.4,4.1
2022,9,15,00:10,UTC,5,992.4,-,96,0,-1,12,11.5,50000,180,5.7,3.5
2022,9,15,00:20,UTC,5,992.3,-,96,0,-1,12.1,11.5,50000,179,6.8,3.6
2022,9,15,00:30,UTC,5,992.2,-,93,0,-1,12.4,11.3,50000,181,8,4.4
2022,9,15,00:40,UTC,7,992,-,92,0,-1,12.5,11.3,50000,175,7.2,4.8
2022,9,15,00:50,UTC,7,991.9,-,92,0,-1,12.6,11.3,50000,168,7.4,4.8
2022,9,15,01:00,UTC,7,991.9,0,92,0,-1,12.6,11.4,23590,179,7.4,4.8
2022,9,15,01:10,UTC,7,991.7,-,95,0.8,-1,12.4,11.6,28520,171,9,5.5
2022,9,15,01:20,UTC,8,991.6,-,96,0,-1,12.3,11.7,50000,164,7.9,4.3
2022,9,15,01:30,UTC,7,991.5,-,96,0,-1,12.4,11.8,50000,168,7.7,5.2
2022,9,15,01:40,UTC,7,991.5,-,96,0,-1,12.7,12,50000,176,9.2,5.1
2022,9,15,01:50,UTC,7,991.4,-,97,0,-1,12.5,12,9860,191,10.7,5.5
2022,9,15,02:00,UTC,7,991.3,0.8,99,4.3,-1,12.1,11.9,5380,196,11.3,5.3
2022,9,15,02:10,UTC,7,991.2,-,99,2.3,-1,12.2,12,9530,186,10.3,5.7
2022,9,15,02:20,UTC,7,991,-,99,3.5,-1,12.1,11.9,8360,181,7.9,4.7
2022,9,15,02:30,UTC,7,991,-,100,0.3,-1,12,11.9,29170,181,7.3,4.7
2022,9,15,02:40,UTC,7,990.9,-,100,0,-1,12.1,12.1,28330,186,8.4,4.6
2022,9,15,02:50,UTC,8,990.9,-,99,0,-1,12.1,12,39880,185,10.1,4.8
2022,9,15,03:00,UTC,8,990.8,1,99,0,-1,12.2,12.1,43750,182,7.9,4.4
2022,9,15,03:10,UTC,7,990.7,-,99,0,-1,12.2,12.1,41800,183,8.5,3.8
2022,9,15,03:20,UTC,7,990.6,-,97,0,-1,12.3,11.9,50000,180,6.9,4
2022,9,15,03:30,UTC,7,990.6,-,98,0,-1,12.2,11.9,45230,184,7.3,3.8
2022,9,15,03:40,UTC,7,990.5,-,96,0,-1,12.3,11.8,46020,197,8,4.8
2022,9,15,03:50,UTC,7,990.4,-,95,0,-1,12.3,11.5,50000,188,9.4,5.1
2022,9,15,04:00,UTC,5,990.4,0,96,0,-1,12.2,11.6,50000,193,10,5.3
2022,9,15,04:10,UTC,7,990.2,-,95,0,-1,12.5,11.8,50000,193,7.2,4.8
2022,9,15,04:20,UTC,7,990.1,-,94,0,-1,12.8,11.9,50000,188,8,5.1
2022,9,15,04:30,UTC,7,989.9,-,95,0,-1,12.9,12.1,46660,186,11,4.8
2022,9,15,04:40,UTC,7,990,-,96,0,-1,12.9,12.3,45560,184,10.2,6.2
2022,9,15,04:50,UTC,8,989.9,-,97,0,-1,12.9,12.5,42080,187,10.6,5.8
2022,9,15,05:00,UTC,7,990,0.1,96,0.7,-1,12.8,12.1,14410,191,13.2,7.1
2022,9,15,05:10,UTC,7,989.9,-,97,0.2,-1,12.6,12.1,11340,205,13,6.8
2022,9,15,05:20,UTC,7,990,-,99,9.9,-1,12.1,12,3460,209,12.1,7.6
2022,9,15,05:30,UTC,7,990,-,99,4.6,-1,11.9,11.9,5360,226,12,7.4
2022,9,15,05:40,UTC,7,990,-,99,3.7,-1,11.8,11.8,6440,228,11.6,7.2
2022,9,15,05:50,UTC,7,990.1,-,99,4.9,-1,11.6,11.5,5720,234,9,5.5
2022,9,15,06:00,UTC,7,990.2,4.7,99,4.7,-1,11.3,11.1,6290,251,8.9,5.3
2022,9,15,06:10,UTC,8,990.1,-,99,3.4,-1,10.9,10.8,7160,267,7.4,4.1
2022,9,15,06:20,UTC,8,990.1,-,100,5.3,-1,10.7,10.7,4900,266,5.9,3.7
2022,9,15,06:30,UTC,8,990.2,-,100,5.3,-1,10.6,10.6,5610,252,5,3.2
2022,9,15,06:40,UTC,7,990.1,-,100,2.9,-1,10.7,10.7,12290,260,4.1,2.7
2022,9,15,06:50,UTC,8,990.1,-,100,0,-1,10.7,10.7,11610,280,3.6,2.2
2022,9,15,07:00,UTC,8,990.1,3.4,100,3.7,-1,10.6,10.6,7690,264,3.5,2.2
2022,9,15,07:10,UTC,7,990,-,100,2.5,-1,10.7,10.7,12740,272,2.5,1.2
2022,9,15,07:20,UTC,7,990,-,100,0.4,-1,11,11,31770,166,2,1
2022,9,15,07:30,UTC,7,990,-,100,0,-1,11.3,11.2,38390,143,2.6,1.6
2022,9,15,07:40,UTC,7,990,-,99,0.5,-1,11.6,11.4,18320,143,1.6,1
2022,9,15,07:50,UTC,7,990,-,98,0.4,-1,11.7,11.5,17880,214,2.4,1.4
2022,9,15,08:00,UTC,8,990.1,0.8,97,1.3,-1,11.5,11,11550,224,3.7,2.4
2022,9,15,08:10,UTC,7,990,-,96,1.4,-1,11.4,10.8,12210,190,4.2,2.8
2022,9,15,08:20,UTC,8,990.1,-,98,2.9,-1,11.4,11.1,5990,185,4.2,2.3
2022,9,15,08:30,UTC,8,990,-,96,5.3,-1,11.2,10.6,3850,180,4.5,3
2022,9,15,08:40,UTC,7,990,-,99,3.8,-1,11.4,11.2,6110,184,4.5,3.4
2022,9,15,08:50,UTC,7,989.9,-,98,1,-1,12.4,12.1,16630,173,4.6,3
2022,9,15,09:00,UTC,5,989.8,2.5,98,0.5,-1,12.8,12.5,22860,166,4.3,2.9
2022,9,15,09:10,UTC,7,989.8,-,89,0.2,-1,13,11.2,38620,154,4.5,3.3
2022,9,15,09:20,UTC,7,989.8,-,87,0,-1,13.5,11.4,36820,154,3.4,2.5
2022,9,15,09:30,UTC,7,989.8,-,88,0,-1,13.3,11.3,42640,-,-,-
2022,9,15,09:40,UTC,7,989.8,-,89,0,-1,13.7,11.8,50000,183,4.9,2.7
2022,9,15,09:50,UTC,7,989.7,-,82,0,-1,13.7,10.6,45570,163,4.7,3.2
2022,9,15,10:00,UTC,7,989.8,0,85,0,-1,13.6,11.2,47000,165,5.3,3.2
2022,9,15,10:10,UTC,7,989.7,-,86,0,-1,13.9,11.7,43570,174,5.7,2.7
2022,9,15,10:20,UTC,7,989.7,-,84,0,-1,14.3,11.7,48340,173,5.5,3.7
2022,9,15,10:30,UTC,7,989.6,-,83,0,-1,14.5,11.7,42540,182,6,3
2022,9,15,10:40,UTC,7,989.6,-,82,0,-1,14.5,11.4,42670,172,6.8,4.8
2022,9,15,10:50,UTC,7,989.6,-,83,0,-1,15.1,12.3,40320,196,6.2,3.8
2022,9,15,11:00,UTC,7,989.6,0,82,0,-1,14.5,11.4,50000,187,6,3.5
2022,9,15,11:10,UTC,7,989.6,-,81,0,-1,14.5,11.3,50000,188,6.3,4.5
2022,9,15,11:20,UTC,7,989.5,-,82,0,-1,14.4,11.3,50000,180,6.8,4.6
2022,9,15,11:30,UTC,5,989.5,-,80,0,-1,14.6,11.2,45530,188,6.9,4.3
2022,9,15,11:40,UTC,5,989.4,-,84,0,-1,14.5,11.9,43900,177,7.4,4.6
2022,9,15,11:50,UTC,5,989.4,-,80,0,-1,15,11.5,40390,170,7.5,5
2022,9,15,12:00,UTC,7,989.5,0,80,0,-1,15.2,11.7,41590,178,5.2,3.3
2022,9,15,12:10,UTC,5,989.5,-,79,0,-1,15,11.3,43790,189,4.7,2.9
2022,9,15,12:20,UTC,7,989.5,-,79,0,-1,14.6,11,48090,171,5.8,3.4
2022,9,15,12:30,UTC,7,989.5,-,83,0,-1,14.6,11.8,50000,169,5.5,3.2
2022,9,15,12:40,UTC,7,989.4,-,81,0,-1,14.8,11.5,50000,184,5.3,3.4
2022,9,15,12:50,UTC,7,989.5,-,91,5.6,-1,13.5,12.1,3820,179,8.4,4.2
2022,9,15,13:00,UTC,7,989.4,2.5,97,9.4,-1,13,12.6,3660,168,5.6,3.7
2022,9,15,13:10,UTC,7,989.3,-,99,0,-1,13.6,13.5,35080,162,4.4,2.8
2022,9,15,13:20,UTC,7,989.3,-,98,0,-1,13.8,13.4,36630,164,5.2,2.9
2022,9,15,13:30,UTC,7,989.3,-,95,0,-1,13.6,12.9,38290,176,6.3,4.3
2022,9,15,13:40,UTC,7,989.2,-,95,0,-1,13.6,12.8,47690,174,6.9,4.1
2022,9,15,13:50,UTC,7,989.2,-,95,0,-1,13.6,12.8,42790,182,6.4,4
2022,9,15,14:00,UTC,5,989.2,0,86,0,-1,14.4,12,46590,181,6,3.7
2022,9,15,14:10,UTC,3,989.2,-,87,0,-1,14.2,12,48090,195,5.8,3.9
2022,9,15,14:20,UTC,1,989.2,-,84,0,-1,14.1,11.5,44830,182,5.9,3.9
2022,9,15,14:30,UTC,1,989.1,-,88,0,-1,14,12.1,50000,194,4.4,2.6
2022,9,15,14:40,UTC,1,989,-,86,0,-1,13.9,11.6,50000,187,4.7,3
2022,9,15,14:50,UTC,1,988.9,-,87,0,-1,13.5,11.4,50000,172,5.2,3.9
2022,9,15,15:00,UTC,1,988.9,0,90,0,-1,13.5,11.8,48420,173,4.6,3
2022,9,15,15:10,UTC,3,988.9,-,89,0,-1,13.8,12,50000,192,4.7,2.9
2022,9,15,15:20,UTC,3,988.8,-,88,0,-1,13.6,11.7,50000,190,4.9,2.7
2022,9,15,15:30,UTC,1,988.9,-,88,0,-1,13.4,11.4,50000,190,5.1,3.3
2022,9,15,15:40,UTC,1,988.8,-,86,0,-1,13.5,11.2,48940,188,5.3,3.5
2022,9,15,15:50,UTC,3,988.7,-,85,0,-1,13.5,11.1,50000,177,4.4,2.5
2022,9,15,16:00,UTC,5,988.7,0,86,0,-1,13.5,11.2,50000,189,4.6,2.5
2022,9,15,16:10,UTC,5,988.6,-,86,0,-1,13.4,11,50000,188,5.6,3.6
2022,9,15,16:20,UTC,5,988.5,-,86,0,-1,13.2,10.9,50000,196,5.4,3.5
2022,9,15,16:30,UTC,5,988.5,-,86,0,-1,13,10.7,50000,188,4.9,3
2022,9,15,16:40,UTC,7,988.4,-,83,0,-1,12.9,10.1,50000,193,5,3.3
2022,9,15,16:50,UTC,5,988.4,-,85,0,-1,12.9,10.5,50000,193,6.3,3.5
2022,9,15,17:00,UTC,5,988.3,0,86,0,-1,12.8,10.4,50000,195,6.6,3.8
2022,9,15,17:10,UTC,5,988.3,-,80,0,-1,12.9,9.5,50000,190,8.6,4.5
2022,9,15,17:20,UTC,5,988.3,-,80,0,-1,12.9,9.5,50000,194,6.2,3.6
2022,9,15,17:30,UTC,7,988.2,-,85,0,-1,12.8,10.3,50000,201,7,4.6
2022,9,15,17:40,UTC,7,988.1,-,87,0,-1,12.6,10.5,47230,203,6.6,4.1
2022,9,15,17:50,UTC,7,988.1,-,87,0,-1,12.4,10.4,45480,199,6.1,3.5
2022,9,15,18:00,UTC,7,988.1,0,86,0,-1,12.3,10.1,39370,205,5.3,3.6
2022,9,15,18:10,UTC,8,988.1,-,87,0,-1,12.2,10,49440,224,4.7,2.4
2022,9,15,18:20,UTC,7,988.1,-,88,0,-1,12,10.1,50000,228,6.3,3.2
2022,9,15,18:30,UTC,7,988.1,-,86,0,-1,12.3,9.9,50000,227,7,4
2022,9,15,18:40,UTC,7,988,-,86,0,-1,12.2,9.9,50000,220,5.3,3.1
2022,9,15,18:50,UTC,7,988,-,87,0,-1,11.9,9.9,24770,232,7.5,4.2
2022,9,15,19:00,UTC,8,987.9,0.2,90,1.4,-1,11.5,9.9,8610,227,5.7,3.7
2022,9,15,19:10,UTC,8,987.8,-,93,3.4,-1,11.1,10,5170,211,3.4,2.3
2022,9,15,19:20,UTC,8,987.8,-,95,5,-1,10.9,10.2,6160,212,3.9,2.5
2022,9,15,19:30,UTC,8,987.7,-,97,3.2,-1,10.7,10.3,8260,221,4.3,2.9
2022,9,15,19:40,UTC,7,987.7,-,97,2.2,-1,10.7,10.3,12520,214,4.1,2.9
2022,9,15,19:50,UTC,7,987.6,-,98,1,-1,10.6,10.2,19590,223,4,2.5
2022,9,15,20:00,UTC,7,987.4,2.5,98,0.4,-1,10.4,10.2,40080,224,2.5,1.8
2022,9,15,20:10,UTC,7,987.6,-,99,4,-1,10.4,10.4,5400,207,6.2,2.3
2022,9,15,20:20,UTC,7,987.4,-,99,12.2,-1,10.6,10.4,2730,149,2.9,1.6
2022,9,15,20:30,UTC,7,987.4,-,99,0.1,-1,10.5,10.4,49900,193,3.3,1.9
2022,9,15,20:40,UTC,7,987.3,-,100,0,-1,10.8,10.8,50000,207,5.6,3.1
2022,9,15,20:50,UTC,7,987.2,-,100,0,-1,11.1,11.1,42510,218,6.8,4
2022,9,15,21:00,UTC,7,987.2,2.7,100,0,-1,11.4,11.4,45500,217,5.7,3.9
2022,9,15,21:10,UTC,7,987.1,-,100,0,-1,11.4,11.4,50000,217,4.8,3.3
2022,9,15,21:20,UTC,7,987.1,-,100,0,-1,11.3,11.3,40360,241,4.3,3
2022,9,15,21:30,UTC,7,987.1,-,99,0,-1,11,10.8,50000,314,4.2,2.5
2022,9,15,21:40,UTC,7,987,-,98,0,-1,10.9,10.6,46650,360,2,0.9
2022,9,15,21:50,UTC,7,987,-,99,0,-1,10.6,10.4,47440,323,1.7,0.9
2022,9,15,22:00,UTC,7,986.9,0,99,0,-1,10.4,10.2,50000,22,1.8,1.2
2022,9,15,22:10,UTC,7,986.9,-,100,0,-1,10.3,10.3,40070,60,1.3,0.9
2022,9,15,22:20,UTC,7,987,-,100,0,-1,10.3,10.3,18880,295,2.7,1.5
2022,9,15,22:30,UTC,8,987,-,100,0,-1,10.4,10.4,42770,288,1.4,0.7
2022,9,15,22:40,UTC,7,987,-,100,0,-1,10.3,10.3,29460,262,1.3,0.7
2022,9,15,22:50,UTC,7,986.9,-,99,0,-1,10.4,10.4,46370,17,1.4,0.9
2022,9,15,23:00,UTC,8,987,0,100,0,-1,10.3,10.3,41910,332,2.4,1.4
2022,9,15,23:10,UTC,8,986.9,-,100,0,-1,10.4,10.4,49240,328,1.1,0.8
2022,9,15,23:20,UTC,8,986.9,-,100,0,-1,10.3,10.3,35130,321,1.3,0.9
2022,9,15,23:30,UTC,7,986.9,-,100,0,-1,10.3,10.3,47470,338,1.9,1.2
2022,9,15,23:40,UTC,7,986.8,-,100,0,-1,10.2,10.2,44550,343,1.9,1.2
2022,9,15,23:50,UTC,7,986.9,-,100,0,-1,10.3,10.3,46310,323,1,0.7
2022,9,16,00:00,UTC,7,986.9,0,100,0,-1,10.1,10.1,38610,313,0.8,0.6
2022,9,16,00:10,UTC,7,986.9,-,100,0,-1,10.1,10.1,44170,322,0.8,0.6
2022,9,16,00:20,UTC,7,986.8,-,100,0,-1,10.2,10.2,50000,92,1,0.5
2022,9,16,00:30,UTC,7,986.7,-,100,0,-1,10.5,10.5,50000,96,1.7,1.1
2022,9,16,00:40,UTC,7,986.7,-,100,0,-1,10.6,10.6,50000,87,2.2,1.7
2022,9,16,00:50,UTC,7,986.6,-,98,0,-1,10.7,10.4,50000,59,2.2,1.6
2022,9,16,01:00,UTC,7,986.5,0,97,0,-1,10.7,10.1,50000,53,2.2,1.4
2022,9,16,01:10,UTC,8,986.5,-,99,0,-1,10.5,10.3,43600,42,3.1,1.8
2022,9,16,01:20,UTC,8,986.5,-,98,0,-1,10.4,10.1,20000,70,3.6,1.8
2022,9,16,01:30,UTC,8,986.5,-,99,0.3,-1,10.3,10.1,50000,16,3.9,2.4
2022,9,16,01:40,UTC,8,986.5,-,97,0,-1,10.3,9.9,50000,44,4.2,2.6
2022,9,16,01:50,UTC,7,986.3,-,96,0,-1,10.4,9.8,50000,70,2.6,1.6
2022,9,16,02:00,UTC,8,986.2,0.1,95,0,-1,10.5,9.8,50000,71,2,1.2
2022,9,16,02:10,UTC,8,986.3,-,98,0,-1,10.4,10,48070,122,1.9,1.1
2022,9,16,02:20,UTC,8,986.2,-,99,0,-1,10.4,10.2,45380,110,2.3,1.3
2022,9,16,02:30,UTC,7,986.2,-,100,0.5,-1,10.2,10.2,32320,186,4.3,1.6
2022,9,16,02:40,UTC,7,986.1,-,100,0,-1,10.6,10.6,45940,232,6.6,3.4
2022,9,16,02:50,UTC,7,986.2,-,99,0,-1,10.2,10.1,27830,309,8.4,3.9
2022,9,16,03:00,UTC,8,986.3,0.4,99,1.8,-1,9.9,9.8,10150,344,4.7,2.9
2022,9,16,03:10,UTC,7,986.3,-,100,2.2,-1,9.7,9.7,4260,356,3,1.6
2022,9,16,03:20,UTC,7,986.3,-,100,2.5,-1,9.6,9.6,32850,355,2.8,1.8
2022,9,16,03:30,UTC,7,986.3,-,100,0,-1,9.6,9.6,50000,14,2.6,1.7
2022,9,16,03:40,UTC,7,986.2,-,100,1.3,-1,9.8,9.8,15150,69,4,2.3
2022,9,16,03:50,UTC,7,986.3,-,100,0.6,-1,9.8,9.8,50000,96,4.6,3.5
2022,9,16,04:00,UTC,8,986.3,1.1,100,0,-1,9.8,9.8,50000,86,5.1,3.5
2022,9,16,04:10,UTC,8,986.3,-,100,0,-1,9.8,9.7,50000,92,5.6,3.8
2022,9,16,04:20,UTC,7,986.2,-,100,0,-1,9.8,9.8,50000,89,4.7,3.4
2022,9,16,04:30,UTC,7,986.2,-,99,0,-1,10,9.8,50000,93,4.2,2.4
2022,9,16,04:40,UTC,8,986.1,-,99,0,-1,10.1,10,50000,107,3.7,2.3
2022,9,16,04:50,UTC,7,986.1,-,98,0,-1,10.3,10,50000,105,3.8,2
2022,9,16,05:00,UTC,7,986,0,96,0,-1,10.4,9.9,50000,97,4.6,2.6
2022,9,16,05:10,UTC,7,985.9,-,95,0,-1,10.6,9.9,50000,88,4.5,2.9
2022,9,16,05:20,UTC,7,985.9,-,97,0,-1,10.6,10.1,50000,87,4.9,3.7
2022,9,16,05:30,UTC,7,985.8,-,96,0,-1,10.8,10.2,50000,88,4.9,3.2
2022,9,16,05:40,UTC,8,985.7,-,95,0,-1,11,10.3,50000,112,4.3,2.5
2022,9,16,05:50,UTC,7,985.6,-,97,0,-1,11.4,10.9,50000,157,5,2.8
2022,9,16,06:00,UTC,7,985.6,0,95,0,-1,11.6,10.8,50000,180,5.6,3.3
2022,9,16,06:10,UTC,8,985.5,-,94,0,-1,11.6,10.7,46820,181,4.7,3.5
2022,9,16,06:20,UTC,8,985.5,-,95,0,-1,11.6,10.8,50000,192,4.8,2.5
2022,9,16,06:30,UTC,8,985.5,-,96,0,-1,11.6,10.9,50000,191,5.5,2.7
2022,9,16,06:40,UTC,8,985.5,-,96,0,-1,11.5,10.9,13250,175,6.1,3.8
2022,9,16,06:50,UTC,7,985.4,-,97,0.5,-1,11.6,11.1,24770,172,6.1,3.6
2022,9,16,07:00,UTC,7,985.5,0.1,96,0,-1,11.8,11.2,33620,200,5.9,3.8
2022,9,16,07:10,UTC,7,985.5,-,94,0,-1,11.9,11,35240,191,5.7,3.4
2022,9,16,07:20,UTC,7,985.5,-,96,0,-1,11.9,11.3,8790,202,6.6,4
2022,9,16,07:30,UTC,7,985.5,-,97,1.6,-1,11.7,11.2,7360,198,5.7,3.2
2022,9,16,07:40,UTC,7,985.4,-,97,0,-1,12,11.6,11840,200,5.6,3.6
2022,9,16,07:50,UTC,7,985.5,-,95,0,-1,12.1,11.2,12960,198,6.4,4.3
2022,9,16,08:00,UTC,7,985.6,1.2,97,5.6,-1,11.6,11.2,3870,204,6.7,3.5
2022,9,16,08:10,UTC,7,985.5,-,99,15.7,-1,11.3,11,2020,166,5.2,3
2022,9,16,08:20,UTC,7,985.6,-,100,5.4,-1,11.4,11.3,6390,221,5.7,3.1
2022,9,16,08:30,UTC,7,985.6,-,100,2.2,-1,11.6,11.5,7900,205,6.1,3
2022,9,16,08:40,UTC,8,985.7,-,99,1.7,-1,11.7,11.5,17160,202,6.4,4.1
2022,9,16,08:50,UTC,7,985.7,-,99,0.2,-1,11.8,11.7,48400,201,4.8,3.1
2022,9,16,09:00,UTC,7,985.7,4.2,98,0,-1,11.9,11.6,50000,205,6.4,4.2
2022,9,16,09:10,UTC,7,985.7,-,98,0,-1,11.8,11.4,46370,234,7,4
2022,9,16,09:20,UTC,7,985.8,-,97,0,-1,11.7,11.3,31240,237,6.9,3.7
2022,9,16,09:30,UTC,7,985.7,-,96,0,-1,12,11.3,14460,212,5.1,2.9
2022,9,16,09:40,UTC,7,985.8,-,97,2.7,-1,11.8,11.4,7380,195,7,3.4
2022,9,16,09:50,UTC,7,985.8,-,98,2.9,-1,11.6,11.3,4990,206,7.4,4.1
2022,9,16,10:00,UTC,7,985.8,1.8,98,5,-1,11.8,11.6,5720,198,6.5,3.7
2022,9,16,10:10,UTC,7,985.8,-,98,0.7,-1,12,11.6,20330,197,7.1,4.4
2022,9,16,10:20,UTC,7,985.8,-,97,0.3,-1,12,11.5,15730,208,8.1,4.6
2022,9,16,10:30,UTC,7,985.9,-,98,1.4,-1,12,11.7,6650,206,6.8,3
2022,9,16,10:40,UTC,7,985.8,-,98,-,-1,12.6,12.4,8040,186,6.5,3.6
2022,9,16,10:50,UTC,7,985.8,-,94,0.1,-1,13,12.1,44020,184,5.4,3.3
2022,9,16,11:00,UTC,7,985.7,-,95,0.4,-1,12.4,11.5,12690,208,7,3.9
2022,9,16,11:10,UTC,7,985.7,-,97,2.3,-1,12.6,12.2,11640,231,6.3,3
2022,9,16,11:20,UTC,5,985.7,-,92,0,-1,13.6,12.3,39600,205,4.7,3
2022,9,16,11:30,UTC,5,985.6,-,90,0,-1,13.3,11.7,50000,215,6.7,3.3
2022,9,16,11:40,UTC,5,985.7,-,86,0,-1,13.8,11.5,48300,225,6.4,3.1
2022,9,16,11:50,UTC,5,985.7,-,87,0,-1,14.3,12.1,46000,217,6.4,3.9
2022,9,16,12:00,UTC,5,985.7,0.4,79,0,-1,14.1,10.6,47590,231,7.3,4.5
2022,9,16,12:10,UTC,7,985.8,-,86,0,-1,13.3,11,50000,235,6.5,3.5
2022,9,16,12:20,UTC,7,985.9,-,93,0,-1,12.6,11.4,10880,249,6,3.7
2022,9,16,12:30,UTC,7,985.9,-,97,2.1,-1,12.3,11.8,6140,259,6.5,4.8
2022,9,16,12:40,UTC,8,985.9,-,99,3.4,-1,12.7,12.4,19420,264,4.7,2.2
2022,9,16,12:50,UTC,7,985.9,-,97,0,-1,12.8,12.3,30370,308,3.4,2.2
2022,9,16,13:00,UTC,7,985.9,0.9,96,0,-1,12.7,12.1,17590,312,4.2,2.6
2022,9,16,13:10,UTC,7,985.9,-,96,0,-1,12.6,11.9,24250,304,3.4,2.5
2022,9,16,13:20,UTC,7,985.9,-,98,0.8,-1,13.1,12.8,20080,296,3.6,2.3
2022,9,16,13:30,UTC,5,986,-,90,0,-1,13.9,12.3,47780,279,5,2.7
2022,9,16,13:40,UTC,3,986.1,-,89,0,-1,13.6,11.9,50000,294,5.1,2.9
2022,9,16,13:50,UTC,1,986.1,-,90,0,-1,12.6,11.1,50000,293,4.5,3.1
2022,9,16,14:00,UTC,3,986.1,0.1,92,0,-1,12.8,11.5,50000,298,3.7,2.5
2022,9,16,14:10,UTC,5,986.1,-,92,0,-1,12.9,11.7,50000,297,3.8,2.5
2022,9,16,14:20,UTC,5,986.2,-,88,0,-1,13.8,11.8,47490,281,4.3,2.4
2022,9,16,14:30,UTC,5,986.3,-,88,0,-1,13.6,11.7,50000,287,4.6,2.9
2022,9,16,14:40,UTC,3,986.4,-,92,0,-1,12.9,11.7,50000,280,4.1,2.4
2022,9,16,14:50,UTC,5,986.5,-,92,0,-1,12.6,11.3,50000,285,4.5,2.6
2022,9,16,15:00,UTC,5,986.6,0,92,0,-1,12.5,11.2,50000,294,2.9,1.9
2022,9,16,15:10,UTC,7,986.6,-,94,0,-1,12.6,11.6,50000,288,2.6,1.9
2022,9,16,15:20,UTC,7,986.6,-,91,0,-1,12.6,11.2,50000,295,2.4,1.8
2022,9,16,15:30,UTC,7,986.5,-,93,0,-1,12.5,11.4,50000,299,2.2,1.3
2022,9,16,15:40,UTC,7,986.6,-,93,0,-1,12.5,11.4,50000,264,1.6,1
2022,9,16,15:50,UTC,7,986.6,-,95,0,-1,12.3,11.6,32440,265,2.5,1.6
2022,9,16,16:00,UTC,7,986.6,0.1,96,0.7,-1,12.3,11.7,15010,251,3.1,1.9
2022,9,16,16:10,UTC,7,986.6,-,95,0.5,-1,12.1,11.4,41020,258,3.9,2
2022,9,16,16:20,UTC,7,986.7,-,96,0,-1,11.8,11.2,50000,265,4.4,2.1
2022,9,16,16:30,UTC,7,986.7,-,98,0,-1,11.5,11.2,50000,276,2.4,1.7
2022,9,16,16:40,UTC,7,986.7,-,99,0,-1,11.3,11.2,50000,288,2.6,2
2022,9,16,16:50,UTC,7,986.8,-,100,0,-1,11.2,11.2,50000,291,2.3,1.8
2022,9,16,17:00,UTC,7,986.8,0.1,100,0,-1,11.1,11.1,50000,288,2.2,1.7
2022,9,16,17:10,UTC,8,986.8,-,100,0,-1,11.1,11.1,50000,276,2.6,1.5
2022,9,16,17:20,UTC,5,986.8,-,100,0,-1,10.7,10.6,50000,276,2.1,1.4
2022,9,16,17:30,UTC,3,986.8,-,100,0,-1,10.5,10.5,50000,263,1.9,1.3
2022,9,16,17:40,UTC,3,986.8,-,100,0,-1,10.3,10.3,50000,293,2.3,1.5
2022,9,16,17:50,UTC,3,986.7,-,100,0,-1,10.2,10.2,50000,303,2.5,2
2022,9,16,18:00,UTC,1,986.6,0,100,0,-1,9.9,9.9,50000,304,2.3,1.8
2022,9,16,18:10,UTC,1,986.7,-,100,0,-1,9.7,9.7,50000,285,1.9,1.6
2022,9,16,18:20,UTC,0,986.7,-,100,0,-1,9.4,9.4,50000,264,1.7,1.2
2022,9,16,18:30,UTC,0,986.6,-,100,0,-1,9.3,9.3,50000,290,1.8,1.5
2022,9,16,18:40,UTC,0,986.6,-,100,0,-1,9.5,9.5,50000,307,1.6,1.4
2022,9,16,18:50,UTC,0,986.6,-,100,0,-1,9.4,9.4,50000,314,1.4,1.2
2022,9,16,19:00,UTC,1,986.6,0,100,0,-1,9.1,9.1,50000,283,1.4,1.1
2022,9,16,19:10,UTC,1,986.5,-,100,0,-1,8.7,8.7,47380,234,1.7,1.3
2022,9,16,19:20,UTC,1,986.5,-,100,0,-1,9,9,40540,259,2,1.6
2022,9,16,19:30,UTC,5,986.5,-,100,0,-1,9.1,9.1,50000,276,1.6,1.3
2022,9,16,19:40,UTC,5,986.6,-,100,0,-1,9.1,9.1,50000,262,1.6,1.2
2022,9,16,19:50,UTC,7,986.6,-,100,0,-1,9.1,9.1,35780,257,1.5,1.1
2022,9,16,20:00,UTC,5,986.6,0,100,0,-1,8.7,8.7,21890,278,1.8,1.1
2022,9,16,20:10,UTC,3,986.6,-,100,0,-1,8.7,8.7,21060,284,2.6,2.2
2022,9,16,20:20,UTC,1,986.6,-,100,0,-1,8.6,8.6,26050,297,2.8,2.4
2022,9,16,20:30,UTC,0,986.6,-,100,0,-1,8.6,8.6,26440,303,3.2,2.7
2022,9,16,20:40,UTC,0,986.5,-,100,0,-1,9.1,9.1,50000,308,3.2,2.9
2022,9,16,20:50,UTC,0,986.5,-,100,0,-1,8.6,8.6,17030,311,3,2.9
2022,9,16,21:00,UTC,0,986.5,0,100,0,-1,8.6,8.6,17670,314,3.1,2.8
2022,9,16,21:10,UTC,0,986.6,-,100,0,-1,8.5,8.5,17400,313,2.6,2.2
2022,9,16,21:20,UTC,0,986.6,-,100,0,-1,8.5,8.5,11660,318,2.7,2.4
2022,9,16,21:30,UTC,0,986.6,-,100,0,-1,8.3,8.3,5410,320,2.7,2.3
2022,9,16,21:40,UTC,1,986.7,-,100,0,-1,8.5,8.5,13080,332,2.8,2.5
2022,9,16,21:50,UTC,3,986.8,-,100,0,-1,8.5,8.5,9640,339,3,2.5
2022,9,16,22:00,UTC,5,986.9,0,100,0,-1,8.4,8.4,7540,340,2.9,2.1
2022,9,16,22:10,UTC,7,986.9,-,100,0,-1,8.4,8.4,6060,335,3.1,2.8
2022,9,16,22:20,UTC,7,986.9,-,100,0,-1,8.5,8.5,8560,341,3.4,2.8
2022,9,16,22:30,UTC,7,986.9,-,100,0,-1,8.5,8.5,9650,354,3.1,2.2
2022,9,16,22:40,UTC,7,986.9,-,100,0,-1,8.6,8.6,9220,351,3.2,2.1
2022,9,16,22:50,UTC,7,986.9,-,100,0,-1,8.5,8.5,6360,339,3.5,2.7
2022,9,16,23:00,UTC,7,986.9,0,100,0,-1,8.6,8.6,10400,343,3.3,2.7
2022,9,16,23:10,UTC,7,986.9,-,100,0,-1,8.6,8.6,10310,344,3.9,2.7
2022,9,16,23:20,UTC,8,986.9,-,100,0,-1,8.6,8.6,11240,348,4.2,2.4
2022,9,16,23:30,UTC,8,986.9,-,100,0,-1,8.7,8.7,10500,345,3.5,2.2
2022,9,16,23:40,UTC,8,986.9,-,100,0,-1,8.7,8.7,9760,346,2.9,2
2022,9,16,23:50,UTC,8,986.8,-,100,0,-1,8.7,8.7,9910,352,2.9,1.8
2022,9,17,00:00,UTC,7,986.8,0,100,0,-1,8.7,8.7,15510,358,2.5,1.6
2022,9,17,00:10,UTC,8,986.8,-,100,0,-1,8.7,8.7,18530,359,2.5,1.6
2022,9,17,00:20,UTC,8,986.8,-,100,0,-1,8.6,8.6,19480,4,2.5,1.6
2022,9,17,00:30,UTC,8,986.8,-,100,0,-1,8.6,8.6,13160,4,2.2,1.7
2022,9,17,00:40,UTC,8,986.8,-,100,0,-1,8.7,8.7,23430,58,1.5,1
2022,9,17,00:50,UTC,8,986.8,-,100,0,-1,8.6,8.6,15690,34,1.4,0.9
2022,9,17,01:00,UTC,7,986.8,0,100,0,-1,8.6,8.6,10190,14,1.9,1.4
2022,9,17,01:10,UTC,8,986.8,-,100,0,-1,8.6,8.6,15800,12,2.2,1.6
2022,9,17,01:20,UTC,8,986.8,-,100,0,-1,8.6,8.6,21770,15,2.2,1.7
2022,9,17,01:30,UTC,8,986.8,-,100,0,-1,8.6,8.6,10570,357,2.2,1.6
2022,9,17,01:40,UTC,8,986.8,-,100,0,-1,8.6,8.6,13350,359,2.6,1.9
2022,9,17,01:50,UTC,8,986.8,-,100,0,-1,8.6,8.6,15380,4,2.3,1.6
2022,9,17,02:00,UTC,7,986.8,0,100,0,-1,8.6,8.6,14340,349,2.3,1.6
2022,9,17,02:10,UTC,8,986.8,-,100,0,-1,8.6,8.6,13170,347,2.4,1.6
2022,9,17,02:20,UTC,8,986.8,-,100,0,-1,8.5,8.5,14390,337,2.1,1.6
2022,9,17,02:30,UTC,8,986.8,-,100,0,-1,8.5,8.5,12650,348,2.7,1.8
2022,9,17,02:40,UTC,8,986.9,-,100,0,-1,8.5,8.5,12040,337,2.6,2.1
2022,9,17,02:50,UTC,8,986.9,-,100,0,-1,8.6,8.6,26410,347,3.1,2
2022,9,17,03:00,UTC,7,986.9,0,100,0,-1,8.5,8.5,14780,354,1.7,0.9
2022,9,17,03:10,UTC,8,986.9,-,100,0,-1,8.5,8.5,12150,326,1.9,1.1
2022,9,17,03:20,UTC,8,986.9,-,100,0,-1,8.4,8.4,9410,325,1.5,1.1
2022,9,17,03:30,UTC,8,986.9,-,100,0,-1,8.5,8.5,9910,331,1.9,1.4
2022,9,17,03:40,UTC,8,986.9,-,100,0,-1,8.6,8.6,11660,342,2,1.5
2022,9,17,03:50,UTC,8,986.9,-,100,0,-1,8.6,8.6,19180,3,2.7,1.6
2022,9,17,04:00,UTC,7,986.9,0,100,0,-1,8.5,8.5,7850,337,2.3,1.6
2022,9,17,04:10,UTC,8,986.9,-,100,0,-1,8.6,8.6,13520,341,1.6,1.4
2022,9,17,04:20,UTC,8,986.9,-,100,0,-1,8.6,8.6,12940,32,2.6,1
2022,9,17,04:30,UTC,8,986.8,-,100,0,-1,8.6,8.6,9020,4,2.7,1.6
2022,9,17,04:40,UTC,8,986.9,-,100,0,-1,8.6,8.6,9570,342,2.3,1.6
2022,9,17,04:50,UTC,8,987,-,100,0,-1,8.7,8.7,10690,328,2.1,1.7
2022,9,17,05:00,UTC,7,987,0,100,0,-1,8.9,8.9,18380,347,2.4,1.7
2022,9,17,05:10,UTC,7,987.1,-,100,0,-1,9,9,12430,352,2.4,1.3
2022,9,17,05:20,UTC,8,987.3,-,100,0,-1,9.1,9.1,11510,328,2.2,1.6
2022,9,17,05:30,UTC,8,987.3,-,100,0,-1,9.2,9.2,18620,1,2.6,1.4
2022,9,17,05:40,UTC,8,987.3,-,100,0,-1,9.3,9.3,34340,4,3.3,1.7
2022,9,17,05:50,UTC,8,987.2,-,100,0,-1,9.4,9.4,32940,32,2,1.3
2022,9,17,06:00,UTC,7,987.3,0,100,0,-1,9.4,9.4,18940,325,1.7,0.9
2022,9,17,06:10,UTC,7,987.4,-,100,0,-1,9.7,9.7,30330,355,2.1,1.1
2022,9,17,06:20,UTC,7,987.4,-,100,0,-1,9.8,9.8,21190,332,1.5,0.9
2022,9,17,06:30,UTC,7,987.4,-,100,0,-1,9.9,9.9,23430,329,1.6,0.6
2022,9,17,06:40,UTC,7,987.5,-,100,0,-1,10.1,10.1,40080,65,1.1,0.5
2022,9,17,06:50,UTC,7,987.5,-,100,0,-1,10.3,10.3,43440,64,1.2,0.6
2022,9,17,07:00,UTC,7,987.6,0,100,0,-1,10.7,10.7,38770,139,0.9,0.3
2022,9,17,07:10,UTC,7,987.6,-,96,0,-1,11.7,11.1,38250,145,1.7,0.6
2022,9,17,07:20,UTC,7,987.6,-,92,0,-1,12.2,11,42110,125,1.6,0.8
2022,9,17,07:30,UTC,5,987.8,-,87,0,-1,12.2,10.1,44550,294,1.5,0.8
2022,9,17,07:40,UTC,7,987.8,-,86,0,-1,12.3,10,49670,321,1.5,0.8
2022,9,17,07:50,UTC,7,987.9,-,86,0,-1,12.8,10.5,50000,307,2.8,1.5
2022,9,17,08:00,UTC,7,987.9,0,82,0,-1,12.4,9.4,50000,294,4.3,2.3
2022,9,17,08:10,UTC,7,987.9,-,85,0,-1,12.7,10.2,46750,302,3,1.8
2022,9,17,08:20,UTC,7,988,-,80,0,-1,12.9,9.5,50000,297,2.7,1.6
2022,9,17,08:30,UTC,7,988,-,77,0,-1,12.8,8.8,49710,322,2.8,1.1
2022,9,17,08:40,UTC,7,988,-,81,0,-1,13.2,10.1,50000,316,2.6,1
2022,9,17,08:50,UTC,7,988,-,73,0,-1,13.3,8.7,48410,283,3.1,1.7
2022,9,17,09:00,UTC,5,988.1,0,75,0,-1,13.8,9.4,36000,295,3.3,2.2
2022,9,17,09:10,UTC,5,988.1,-,70,0,-1,13.6,8.2,50000,274,3.7,2.1
2022,9,17,09:20,UTC,3,988.2,-,70,0,-1,13.4,8,50000,316,3,2
2022,9,17,09:30,UTC,5,988.2,-,71,0,-1,13.2,8,50000,329,2.9,1.8
2022,9,17,09:40,UTC,7,988.3,-,73,0,-1,13.3,8.6,42700,341,2.8,1.7
2022,9,17,09:50,UTC,8,988.3,-,73,0,-1,13.2,8.6,50000,324,2.6,1.6
2022,9,17,10:00,UTC,7,988.3,0,70,0,-1,13.6,8.2,50000,339,2.7,1.6
2022,9,17,10:10,UTC,7,988.3,-,68,0,-1,13.7,7.9,50000,348,2.1,1.1
2022,9,17,10:20,UTC,7,988.4,-,70,0,-1,13.9,8.4,50000,7,3.3,1.6
2022,9,17,10:30,UTC,7,988.4,-,72,0,-1,13.8,8.8,50000,325,1.9,0.9
2022,9,17,10:40,UTC,7,988.4,-,74,0,-1,13.8,9.3,50000,12,1.9,1
2022,9,17,10:50,UTC,7,988.5,-,75,0,-1,13.9,9.5,50000,32,1.9,0.7
2022,9,17,11:00,UTC,7,988.5,0,68,0,-1,14.1,8.4,50000,360,1.7,0.7
2022,9,17,11:10,UTC,7,988.5,-,74,0,-1,13.5,8.9,50000,77,2.4,1.4
2022,9,17,11:20,UTC,7,988.5,-,72,0,-1,13.6,8.7,50000,106,2.9,1.7
2022,9,17,11:30,UTC,5,988.6,-,71,0,-1,13.7,8.5,50000,127,2.4,1.6
2022,9,17,11:40,UTC,3,988.7,-,67,0,-1,14.1,8,43090,94,2.7,1.6
2022,9,17,11:50,UTC,3,988.7,-,66,0,-1,14,7.8,50000,75,2.4,1.6
2022,9,17,12:00,UTC,5,988.8,0,67,0,-1,14.3,8.2,48810,93,3.2,1.9
2022,9,17,12:10,UTC,5,988.8,-,63,0,-1,14.5,7.5,50000,172,4.4,2
2022,9,17,12:20,UTC,7,988.9,-,62,0,-1,14.9,7.7,43380,159,4.3,2.4
2022,9,17,12:30,UTC,7,989,-,63,0,-1,14.4,7.5,40070,169,4.3,2.2
2022,9,17,12:40,UTC,7,989.1,-,68,0,-1,13.9,8.2,50000,185,4.3,1.9
2022,9,17,12:50,UTC,8,989.1,-,68,0,-1,13.4,7.6,50000,256,5.1,2.7
2022,9,17,13:00,UTC,7,989.2,0,69,0,-1,13.3,7.8,50000,275,4.3,2.2
2022,9,17,13:10,UTC,7,989.2,-,70,0,-1,13.3,8.1,50000,266,3.2,2
2022,9,17,13:20,UTC,7,989.3,-,73,0,-1,13.4,8.6,50000,293,2.5,1.3
2022,9,17,13:30,UTC,7,989.3,-,73,0,-1,13.3,8.7,48870,307,2.7,1.6
2022,9,17,13:40,UTC,7,989.4,-,80,0,-1,12.9,9.5,46130,315,2.8,2
2022,9,17,13:50,UTC,7,989.4,-,82,0,-1,12.6,9.6,50000,297,2.4,1.7
2022,9,17,14:00,UTC,5,989.4,0,82,0,-1,12.2,9.3,50000,293,3.7,2.2
2022,9,17,14:10,UTC,1,989.4,-,76,0,-1,13.1,9,50000,279,3.7,2.1
2022,9,17,14:20,UTC,1,989.5,-,75,0,-1,13.6,9.2,47700,243,3.5,2
2022,9,17,14:30,UTC,0,989.6,-,74,0,-1,13.6,9.1,50000,248,3.9,3
2022,9,17,14:40,UTC,1,989.6,-,75,0,-1,13.4,9,49520,243,3.4,2.5
2022,9,17,14:50,UTC,1,989.6,-,78,0,-1,13.1,9.4,50000,242,3.3,2
2022,9,17,15:00,UTC,1,989.8,0,79,0,-1,13.1,9.6,50000,251,3.9,2.1
2022,9,17,15:10,UTC,3,989.8,-,80,0,-1,13.1,9.7,50000,263,3.8,2.5
2022,9,17,15:20,UTC,1,989.9,-,80,0,-1,13,9.6,50000,270,3,1.6
2022,9,17,15:30,UTC,1,989.9,-,81,0,-1,12.8,9.6,50000,268,3.7,1.9
2022,9,17,15:40,UTC,1,990,-,81,0,-1,12.5,9.3,50000,278,3.5,2
2022,9,17,15:50,UTC,0,990,-,84,0,-1,12.2,9.5,50000,275,4.3,2
2022,9,17,16:00,UTC,1,990.1,0,87,0,-1,11.9,9.7,50000,272,3.9,2.2
2022,9,17,16:10,UTC,3,990.1,-,88,0,-1,11.7,9.8,50000,268,3,1.8
2022,9,17,16:20,UTC,5,990.2,-,90,0,-1,11.7,10.1,50000,270,3.8,2.4
2022,9,17,16:30,UTC,7,990.3,-,92,0,-1,11.6,10.3,50000,278,4.5,3.1
2022,9,17,16:40,UTC,7,990.3,-,93,0,-1,11.5,10.3,50000,285,4.3,2.6
2022,9,17,16:50,UTC,7,990.4,-,94,0,-1,11.4,10.4,50000,289,3.7,2.6
2022,9,17,17:00,UTC,7,990.5,0,94,0,-1,11.3,10.3,50000,290,3,2.2
2022,9,17,17:10,UTC,7,990.6,-,95,0,-1,11,10.2,50000,287,3.2,2.2
2022,9,17,17:20,UTC,3,990.7,-,93,0,-1,11,9.9,50000,305,3.4,2.4
2022,9,17,17:30,UTC,1,990.8,-,94,0,-1,10.7,9.7,50000,306,3.6,2.4
2022,9,17,17:40,UTC,1,990.8,-,94,0,-1,10.5,9.6,50000,302,3.8,2.9
2022,9,17,17:50,UTC,1,990.9,-,95,0,-1,10.2,9.4,50000,301,2.8,2.4
2022,9,17,18:00,UTC,1,990.9,0,97,0,-1,9.8,9.3,50000,296,3.2,2.5
2022,9,17,18:10,UTC,1,991,-,99,0,-1,9.9,9.7,50000,304,4.1,2.7
2022,9,17,18:20,UTC,1,991.1,-,99,0,-1,9.9,9.7,49080,307,4.1,3.1
2022,9,17,18:30,UTC,0,991.1,-,99,0,-1,9.6,9.5,50000,315,4.1,3.1
2022,9,17,18:40,UTC,0,991.2,-,100,0,-1,9.4,9.4,50000,307,3.7,3
2022,9,17,18:50,UTC,0,991.2,-,100,0,-1,9.3,9.3,50000,307,4.2,3.5
2022,9,17,19:00,UTC,0,991.3,0,100,0,-1,9.2,9.2,50000,306,5,3.7
2022,9,17,19:10,UTC,0,991.4,-,100,0,-1,9.2,9.2,50000,309,4.4,3.5
2022,9,17,19:20,UTC,0,991.5,-,100,0,-1,9.2,9.2,50000,313,4.6,3.4
2022,9,17,19:30,UTC,0,991.5,-,100,0,-1,8.9,8.9,50000,314,4.3,3.5
2022,9,17,19:40,UTC,0,991.7,-,100,0,-1,8.7,8.7,42600,314,4.1,3.4
2022,9,17,19:50,UTC,1,991.7,-,100,0,-1,8.8,8.8,50000,311,4.1,3.2
2022,9,17,20:00,UTC,1,991.7,0,100,0,-1,8.7,8.7,50000,311,4.6,3.4
2022,9,17,20:10,UTC,1,991.8,-,100,0,-1,8.6,8.6,49590,311,5,3.7
2022,9,17,20:20,UTC,0,991.9,-,100,0,-1,8.5,8.5,46030,308,4.4,3
2022,9,17,20:30,UTC,0,992,-,100,0,-1,8.4,8.4,40700,314,4.1,3.2
2022,9,17,20:40,UTC,0,992.1,-,100,0,-1,8.2,8.2,28840,312,4,3.1
2022,9,17,20:50,UTC,1,992.2,-,100,0,-1,8.4,8.4,34030,307,4.7,3.4
2022,9,17,21:00,UTC,1,992.2,0,100,0,-1,8.4,8.4,41730,312,4.5,3.5
2022,9,17,21:10,UTC,5,992.4,-,100,0,-1,8.5,8.5,42780,314,5,3.6
2022,9,17,21:20,UTC,5,992.3,-,100,0,-1,8.6,8.6,43620,320,4.8,3.3
2022,9,17,21:30,UTC,7,992.4,-,100,0,-1,8.7,8.7,45250,322,5.2,3.5
2022,9,17,21:40,UTC,8,992.4,-,100,0,-1,8.8,8.8,48870,320,4.8,3.4
2022,9,17,21:50,UTC,7,992.4,-,100,0,-1,8.8,8.8,50000,319,4.3,3.2
2022,9,17,22:00,UTC,7,992.4,0,100,0,-1,8.7,8.7,50000,311,4.2,3.2
2022,9,17,22:10,UTC,7,992.5,-,100,0,-1,8.9,8.9,50000,308,4.1,3
2022,9,17,22:20,UTC,8,992.6,-,100,0,-1,9.1,9.1,50000,313,4.3,3.1
2022,9,17,22:30,UTC,8,992.7,-,100,0,-1,9.2,9.2,50000,311,5.2,3.5
2022,9,17,22:40,UTC,7,992.8,-,100,0,-1,9.1,9.1,50000,316,5.6,3.7
2022,9,17,22:50,UTC,3,992.8,-,100,0,-1,8.9,8.9,50000,315,4.9,3.5
2022,9,17,23:00,UTC,3,992.9,0,100,0,-1,8.6,8.6,45290,311,4.5,3.1
2022,9,17,23:10,UTC,1,992.9,-,100,0,-1,8.5,8.5,49120,307,4.4,2.9
2022,9,17,23:20,UTC,1,992.9,-,100,0,-1,8.4,8.4,42620,317,4.3,3.2
2022,9,17,23:30,UTC,5,993,-,100,0,-1,8.4,8.4,29470,317,4.8,3.2
2022,9,17,23:40,UTC,5,993,-,100,0,-1,8.3,8.3,31870,312,4.2,3.1
2022,9,17,23:50,UTC,7,993.2,-,100,0,-1,8.4,8.4,43630,312,4.5,3.4
2022,9,18,00:00,UTC,8,993.3,0,100,0,-1,8.5,8.5,50000,306,4,3
2022,9,18,00:10,UTC,7,993.3,-,100,0,-1,8.6,8.6,50000,307,4.2,3.1
2022,9,18,00:20,UTC,8,993.4,-,100,0,-1,8.5,8.5,40920,297,3.8,2.7
2022,9,18,00:30,UTC,8,993.5,-,100,0,-1,8.5,8.5,49390,292,3.6,2.8
2022,9,18,00:40,UTC,5,993.5,-,100,0,-1,8.3,8.3,48130,290,3.6,2.9
2022,9,18,00:50,UTC,1,993.6,-,100,0,-1,8,8,33600,288,3.7,2.6
2022,9,18,01:00,UTC,3,993.7,0,100,0,-1,8,8,18910,281,4.7,3
2022,9,18,01:10,UTC,5,993.7,-,100,0,-1,8.2,8.2,39290,287,5.5,3.8
2022,9,18,01:20,UTC,7,993.8,-,100,0,-1,8.2,8.2,40580,290,5.2,3.6
2022,9,18,01:30,UTC,8,993.8,-,100,0,-1,8.1,8.1,21630,303,5.4,3.7
2022,9,18,01:40,UTC,8,993.9,-,100,0,-1,8.1,8.1,15030,300,5,3.4
2022,9,18,01:50,UTC,8,994,-,100,0,-1,8.2,8.2,15590,305,5.4,3.3
2022,9,18,02:00,UTC,8,994,0,100,0,-1,8.3,8.3,19410,309,4.5,3
2022,9,18,02:10,UTC,7,994,-,100,0,-1,8.3,8.3,18960,315,3.7,2.1
2022,9,18,02:20,UTC,8,994.2,-,100,0,-1,8.4,8.4,20810,306,4,2.5
2022,9,18,02:30,UTC,8,994.2,-,100,0,-1,8.5,8.5,21450,304,3.8,2.3
2022,9,18,02:40,UTC,8,994.3,-,100,0,-1,8.5,8.5,19650,314,5.1,2.9
2022,9,18,02:50,UTC,8,994.4,-,100,0,-1,8.6,8.6,24010,318,4.6,2.8
2022,9,18,03:00,UTC,8,994.5,0,100,0,-1,8.7,8.7,28920,317,4.4,2.5
2022,9,18,03:10,UTC,7,994.6,-,100,0,-1,8.7,8.7,38420,316,6.1,3.5
2022,9,18,03:20,UTC,8,994.6,-,100,0,-1,8.8,8.8,50000,308,5.1,3.1
2022,9,18,03:30,UTC,7,994.7,-,100,0,-1,8.7,8.6,46290,300,4.6,2.7
2022,9,18,03:40,UTC,7,994.7,-,100,0,-1,8.5,8.5,45020,299,2.7,1.9
2022,9,18,03:50,UTC,7,994.8,-,100,0,-1,8.4,8.4,43550,299,2.4,1.6
2022,9,18,04:00,UTC,7,994.8,0,100,0,-1,8.4,8.4,42070,288,3.4,1.9
2022,9,18,04:10,UTC,7,994.9,-,100,0,-1,8.4,8.4,44880,286,4.5,2.4
2022,9,18,04:20,UTC,7,994.9,-,100,0,-1,8.5,8.5,50000,293,3.5,2.1
2022,9,18,04:30,UTC,7,995,-,100,0,-1,8.6,8.6,50000,297,4.2,2.5
2022,9,18,04:40,UTC,7,995.1,-,100,0,-1,8.8,8.7,50000,281,4.8,2.5
2022,9,18,04:50,UTC,8,995.3,-,99,0,-1,8.9,8.7,50000,279,5.4,3.3
2022,9,18,05:00,UTC,8,995.3,0,97,0,-1,9,8.5,50000,286,5.6,3.5
2022,9,18,05:10,UTC,7,995.4,-,96,0,-1,9.2,8.6,50000,287,5.6,3.5
2022,9,18,05:20,UTC,7,995.5,-,94,0,-1,9.2,8.3,50000,300,6,3.7
2022,9,18,05:30,UTC,7,995.5,-,95,0,-1,9.4,8.5,50000,293,6.2,3.5
2022,9,18,05:40,UTC,7,995.6,-,91,0,-1,9.7,8.4,50000,296,6.1,3.7
2022,9,18,05:50,UTC,7,995.6,-,90,0,-1,10.1,8.6,46920,296,5.7,3.3
2022,9,18,06:00,UTC,7,995.7,0,90,0,-1,10,8.5,50000,291,7,4.2
2022,9,18,06:10,UTC,7,995.8,-,91,0,-1,10,8.5,50000,288,6.4,3.4
2022,9,18,06:20,UTC,7,996,-,90,0,-1,10.1,8.6,50000,290,6.5,3.7
2022,9,18,06:30,UTC,8,996,-,90,0,-1,10,8.4,50000,288,6.4,3.8
2022,9,18,06:40,UTC,8,996.1,-,89,0,-1,10.3,8.5,45710,298,6,3.7
2022,9,18,06:50,UTC,8,996.1,-,88,0,-1,10.5,8.5,50000,307,5.3,3.1
2022,9,18,07:00,UTC,8,996.2,0,84,0,-1,10.9,8.4,50000,337,5.5,2.8
2022,9,18,07:10,UTC,7,996.3,-,86,0,-1,10.7,8.4,50000,310,5.3,3.1
2022,9,18,07:20,UTC,7,996.3,-,86,0,-1,10.7,8.5,50000,321,4.9,2.9
2022,9,18,07:30,UTC,8,996.4,-,86,0,-1,10.6,8.4,50000,298,5.6,3.4
2022,9,18,07:40,UTC,8,996.5,-,85,0,-1,11.1,8.7,50000,281,6.7,3.5
2022,9,18,07:50,UTC,7,996.6,-,86,0,-1,11.5,9.3,49910,284,5.4,3
2022,9,18,08:00,UTC,7,996.7,0,83,0,-1,11.5,8.7,50000,294,5.6,3.9
2022,9,18,08:10,UTC,7,996.7,-,82,0,-1,12,9,48540,294,4.5,2.4
2022,9,18,08:20,UTC,7,996.9,-,81,0,-1,11.9,8.7,50000,285,5.9,3.5
2022,9,18,08:30,UTC,7,996.9,-,81,0,-1,12.3,9.1,50000,303,5.2,3
2022,9,18,08:40,UTC,7,997,-,80,0,-1,12.5,9.1,50000,285,5.2,3
2022,9,18,08:50,UTC,7,997.1,-,79,0,-1,12.3,8.8,48490,290,6,4.3
2022,9,18,09:00,UTC,7,997.1,0,79,0,-1,12.6,9.1,50000,282,5.5,3.9
2022,9,18,09:10,UTC,7,997.1,-,78,0,-1,12.7,9.1,50000,295,5.7,3.2
2022,9,18,09:20,UTC,7,997.2,-,75,0,-1,13,8.8,50000,275,5.2,2.8
2022,9,18,09:30,UTC,7,997.2,-,75,0,-1,13.8,9.5,38190,284,5.3,3.2
2022,9,18,09:40,UTC,7,997.2,-,69,0,-1,14.3,8.7,40440,275,5.6,2.9
2022,9,18,09:50,UTC,7,997.3,-,69,0,-1,14.6,9,42750,277,6.2,3.4
2022,9,18,10:00,UTC,3,997.4,0,65,0,-1,14,7.6,40960,305,5.7,3.5
2022,9,18,10:10,UTC,3,997.5,-,68,0,-1,13.8,7.9,43110,298,6,4
2022,9,18,10:20,UTC,1,997.6,-,68,0,-1,14.4,8.6,47010,283,5.9,3.2
2022,9,18,10:30,UTC,3,997.6,-,66,0,-1,14.7,8.3,50000,270,7.2,4.5
2022,9,18,10:40,UTC,1,997.8,-,63,0,-1,14.9,8,45100,263,6.8,4
2022,9,18,10:50,UTC,5,997.9,-,66,0,-1,14.1,7.9,50000,261,7.1,4.6
2022,9,18,11:00,UTC,5,997.9,0,63,0,-1,15,8.1,47000,272,7.8,4.6
2022,9,18,11:10,UTC,5,998,-,61,0,-1,15.1,7.7,50000,277,8.3,4.5
2022,9,18,11:20,UTC,3,998.1,-,57,0,-1,15.5,7.1,45720,268,7.3,4.2
2022,9,18,11:30,UTC,3,998.1,-,61,0,-1,14.7,7.2,50000,279,6.4,3.4
2022,9,18,11:40,UTC,3,998.1,-,57,0,-1,15.1,6.7,47220,277,4.9,3
2022,9,18,11:50,UTC,1,998.2,-,63,0,-1,14,7.1,50000,277,4.3,2.5
2022,9,18,12:00,UTC,3,998.1,0,63,0,-1,14.6,7.5,50000,249,6.5,3.4
2022,9,18,12:10,UTC,5,998.1,-,60,0,-1,16.2,8.4,38080,234,7.4,4.1
2022,9,18,12:20,UTC,3,998.1,-,59,0,-1,15.9,7.9,43460,234,8.6,5.4
2022,9,18,12:30,UTC,3,998.1,-,58,0,-1,16,7.6,44430,242,7.6,4.8
2022,9,18,12:40,UTC,1,998.2,-,60,0,-1,15.8,8.1,50000,237,7.8,5.2
2022,9,18,12:50,UTC,3,998.3,-,66,0,-1,14.4,8.1,50000,246,8.1,5.8
2022,9,18,13:00,UTC,5,998.4,0,69,0,-1,13.9,8.3,50000,240,8.3,5.8
2022,9,18,13:10,UTC,7,998.5,-,72,0,-1,13.4,8.5,50000,236,8.1,5.3
2022,9,18,13:20,UTC,7,998.6,-,78,0,-1,13,9.2,41960,241,9.2,6
2022,9,18,13:30,UTC,8,998.7,-,83,0,-1,12.6,9.7,26940,245,7.9,4.6
2022,9,18,13:40,UTC,8,998.7,-,81,0,-1,12.6,9.4,28530,272,8.5,5.1
2022,9,18,13:50,UTC,7,998.7,-,80,0,-1,12.9,9.6,50000,253,7.1,4.6
2022,9,18,14:00,UTC,7,998.6,0,76,0,-1,13.3,9.2,50000,248,6.1,4.1
2022,9,18,14:10,UTC,7,998.7,-,74,0,-1,13.6,9,50000,244,6.3,3.7
2022,9,18,14:20,UTC,7,998.7,-,73,0,-1,13.7,8.9,50000,253,6.8,3.9
2022,9,18,14:30,UTC,7,998.6,-,71,0,-1,13.8,8.6,50000,251,6.1,4.5
2022,9,18,14:40,UTC,7,998.6,-,71,0,-1,13.7,8.5,50000,253,7.2,4
2022,9,18,14:50,UTC,7,998.6,-,72,0,-1,13.5,8.5,50000,257,6.5,3.7
2022,9,18,15:00,UTC,7,998.6,0,72,0,-1,13.5,8.6,50000,261,5.2,3.2
2022,9,18,15:10,UTC,8,998.6,-,73,0,-1,13.4,8.8,50000,266,5.3,3.4
2022,9,18,15:20,UTC,7,998.7,-,72,0,-1,13.4,8.5,50000,281,6.6,4
2022,9,18,15:30,UTC,8,998.6,-,72,0,-1,13.3,8.4,50000,273,6.6,3.6
2022,9,18,15:40,UTC,8,998.7,-,74,0,-1,13.2,8.6,50000,284,4.5,2.4
2022,9,18,15:50,UTC,8,998.7,-,74,0,-1,13,8.5,50000,290,3.5,2.3
2022,9,18,16:00,UTC,8,998.8,0,76,0,-1,12.8,8.7,50000,256,3.9,2.3
2022,9,18,16:10,UTC,7,998.9,-,76,0,-1,12.7,8.7,50000,256,4.7,2.4
2022,9,18,16:20,UTC,7,999,-,77,0,-1,12.6,8.7,50000,255,3.1,1.9
2022,9,18,16:30,UTC,8,999.1,-,79,0,-1,12.6,9.1,16900,287,7.4,3.9
2022,9,18,16:40,UTC,8,999.2,-,83,0,-1,12.2,9.3,42530,323,3.7,2.4
2022,9,18,16:50,UTC,8,999.3,-,85,0,-1,11.9,9.5,34760,318,2.7,1.8
2022,9,18,17:00,UTC,8,999.3,0,88,0,-1,11.7,9.7,12780,290,3.1,1.4
2022,9,18,17:10,UTC,8,999.3,-,89,0,-1,11.5,9.7,50000,296,1.5,1.1
2022,9,18,17:20,UTC,7,999.3,-,89,0,-1,11.3,9.6,50000,275,1.5,1
2022,9,18,17:30,UTC,8,999.3,-,89,0,-1,11.2,9.4,50000,288,1.7,1.5
2022,9,18,17:40,UTC,8,999.3,-,88,0,-1,11.3,9.3,50000,295,2.2,1.8
2022,9,18,17:50,UTC,8,999.4,-,90,0,-1,11.2,9.6,50000,296,2.5,2
2022,9,18,18:00,UTC,7,999.4,0,87,0,-1,11.5,9.4,50000,323,4.4,3
2022,9,18,18:10,UTC,7,999.5,-,88,0,-1,11.4,9.5,50000,336,4.4,2.9
2022,9,18,18:20,UTC,7,999.6,-,89,0,-1,11.3,9.6,50000,319,5.5,3.2
2022,9,18,18:30,UTC,8,999.6,-,88,0,-1,11.4,9.5,50000,318,5.6,3.2
2022,9,18,18:40,UTC,8,999.6,-,89,0,-1,11.3,9.6,50000,321,4.8,3
2022,9,18,18:50,UTC,8,999.6,-,90,0,-1,11.1,9.5,50000,325,3.5,2.4
2022,9,18,19:00,UTC,8,999.6,0,91,0,-1,11,9.5,50000,326,3.2,2.2
2022,9,18,19:10,UTC,8,999.5,-,91,0,-1,10.9,9.5,50000,336,2.4,1.6
2022,9,18,19:20,UTC,7,999.5,-,92,0,-1,10.8,9.6,50000,327,2.1,1.3
2022,9,18,19:30,UTC,8,999.5,-,94,0,-1,10.6,9.8,50000,285,2.2,1.8
2022,9,18,19:40,UTC,7,999.5,-,94,0,-1,10.7,9.7,50000,303,2.6,1.9
2022,9,18,19:50,UTC,7,999.5,-,94,0,-1,10.6,9.6,50000,310,2.1,1.8
2022,9,18,20:00,UTC,8,999.5,0,94,0,-1,10.5,9.6,50000,306,2.6,2
2022,9,18,20:10,UTC,8,999.4,-,92,0,-1,10.6,9.4,50000,331,2.7,2.3
2022,9,18,20:20,UTC,7,999.4,-,93,0,-1,10.6,9.5,50000,329,2.9,2.2
2022,9,18,20:30,UTC,8,999.4,-,94,0,-1,10.5,9.5,50000,326,2.7,2.2
2022,9,18,20:40,UTC,8,999.3,-,95,0,-1,10.5,9.7,50000,325,3.5,2.8
2022,9,18,20:50,UTC,7,999.3,-,95,0,-1,10.5,9.7,50000,329,3.2,2.7
2022,9,18,21:00,UTC,8,999.2,0,96,0,-1,10.5,9.8,50000,331,3.3,2.1
2022,9,18,21:10,UTC,8,999.3,-,96,0,-1,10.5,9.9,50000,345,2.9,1.6
2022,9,18,21:20,UTC,7,999.3,-,96,0,-1,10.4,9.8,50000,346,2.4,1.3
2022,9,18,21:30,UTC,8,999.2,-,97,0,-1,10.4,9.9,50000,356,2,1.4
2022,9,18,21:40,UTC,8,999.1,-,98,0,-1,10.3,9.9,50000,358,1.9,1.3
2022,9,18,21:50,UTC,8,999.1,-,98,0,-1,10.2,9.9,50000,359,1.6,0.9
2022,9,18,22:00,UTC,8,999.2,0,98,0,-1,10.2,9.9,50000,45,1.1,0.6
2022,9,18,22:10,UTC,8,999.2,-,99,0,-1,10.2,10,50000,68,1.5,0.7
2022,9,18,22:20,UTC,7,999.1,-,99,0,-1,10.2,10.1,50000,346,1.6,0.9
2022,9,18,22:30,UTC,8,999.1,-,99,0,-1,10.2,10.1,50000,330,1.4,0.9
2022,9,18,22:40,UTC,8,999.1,-,99,0,-1,10.2,10.1,50000,340,1.7,1.1
2022,9,18,22:50,UTC,8,999,-,99,0,-1,10.1,10,50000,345,2.8,1.5
2022,9,18,23:00,UTC,8,999,0,99,0,-1,10.1,10,50000,355,2.5,1.5
2022,9,18,23:10,UTC,8,998.9,-,100,0,-1,10.1,10,50000,353,2.5,1.9
2022,9,18,23:20,UTC,7,998.9,-,100,0,-1,10,10,50000,346,2.5,1.8
2022,9,18,23:30,UTC,8,998.9,-,100,0,-1,10,10,50000,346,2.5,1.5
2022,9,18,23:40,UTC,8,998.8,-,100,0,-1,10,10,50000,354,2.5,1.7
2022,9,18,23:50,UTC,8,998.8,-,100,0,-1,10,10,50000,359,2.6,1.6
2022,9,19,00:00,UTC,8,998.7,0,100,0,-1,10,10,50000,351,2.8,2
2022,9,19,00:10,UTC,8,998.7,-,100,0,-1,9.9,9.9,50000,350,3,2
2022,9,19,00:20,UTC,7,998.6,-,100,0,-1,10,10,50000,355,3.4,1.9
2022,9,19,00:30,UTC,8,998.6,-,100,0,-1,10,10,50000,360,2.7,1.7
2022,9,19,00:40,UTC,8,998.6,-,100,0,-1,10.1,10.1,50000,4,2.9,1.9
2022,9,19,00:50,UTC,8,998.5,-,100,0,-1,10.1,10,50000,7,3.1,2
2022,9,19,01:00,UTC,8,998.5,0,100,0,-1,10,9.9,50000,3,2.8,1.8
2022,9,19,01:10,UTC,8,998.4,-,100,0,-1,10,10,50000,3,3.1,1.9
2022,9,19,01:20,UTC,7,998.5,-,100,0,-1,10,10,50000,359,3,1.8
2022,9,19,01:30,UTC,7,998.4,-,99,0,-1,10.1,10,50000,5,3,1.9
2022,9,19,01:40,UTC,8,998.4,-,99,0,-1,10,9.9,50000,2,3.3,2.3
2022,9,19,01:50,UTC,7,998.3,-,99,0,-1,10,9.9,50000,3,4.3,2.7
2022,9,19,02:00,UTC,7,998.2,0,99,0,-1,9.9,9.8,50000,2,4,2.8
2022,9,19,02:10,UTC,7,998.3,-,99,0,-1,9.9,9.8,50000,10,3.8,2.4
2022,9,19,02:20,UTC,7,998.3,-,99,0,-1,10,9.8,50000,24,2.8,1.9
2022,9,19,02:30,UTC,7,998.3,-,99,0,-1,9.9,9.7,50000,18,3,2
2022,9,19,02:40,UTC,8,998.2,-,99,0,-1,9.8,9.7,50000,7,3.4,2
2022,9,19,02:50,UTC,7,998.1,-,100,0,-1,9.7,9.7,50000,357,3.3,2.2
2022,9,19,03:00,UTC,7,998.1,0,100,0,-1,9.7,9.7,50000,4,3.6,2.2
2022,9,19,03:10,UTC,7,998.1,-,100,0,-1,9.7,9.7,50000,9,3.6,2.5
2022,9,19,03:20,UTC,7,998,-,99,0,-1,9.7,9.6,50000,10,4.2,2.4
2022,9,19,03:30,UTC,7,998,-,99,0,-1,9.6,9.6,50000,6,3.4,2
2022,9,19,03:40,UTC,7,998,-,99,0,-1,9.6,9.5,50000,15,3.8,2.4
2022,9,19,03:50,UTC,7,997.9,-,100,0,-1,9.5,9.5,50000,9,3.6,2
2022,9,19,04:00,UTC,7,998,0,100,0,-1,9.5,9.5,50000,8,3.2,1.9
2022,9,19,04:10,UTC,8,998,-,99,0,-1,9.6,9.5,50000,20,3.4,2.2
2022,9,19,04:20,UTC,7,998,-,99,0,-1,9.6,9.5,50000,19,3.4,2
2022,9,19,04:30,UTC,7,998.1,-,99,0,-1,9.7,9.5,50000,20,3.8,2.4
2022,9,19,04:40,UTC,8,998.2,-,99,0,-1,9.8,9.6,48170,22,4.8,3
2022,9,19,04:50,UTC,8,998.1,-,98,0,-1,9.8,9.5,47050,11,5.1,3.3
2022,9,19,05:00,UTC,8,998.1,0,98,0,-1,9.9,9.6,46010,3,4.3,2.7
2022,9,19,05:10,UTC,7,997.9,-,97,0,-1,10,9.5,49090,4,4.8,2.8
2022,9,19,05:20,UTC,7,998,-,96,0,-1,10.1,9.5,45310,14,5.3,3.3
2022,9,19,05:30,UTC,7,998,-,95,0,-1,10.2,9.4,46680,22,7.1,4
2022,9,19,05:40,UTC,7,998,-,94,0,-1,10.4,9.5,50000,10,6.1,3.3
2022,9,19,05:50,UTC,7,998,-,93,0,-1,10.4,9.4,43390,23,5.8,3.7
2022,9,19,06:00,UTC,8,998,0,93,0,-1,10.5,9.3,44220,30,6.7,3.4
2022,9,19,06:10,UTC,7,998,-,92,0,-1,10.6,9.4,46420,29,5.8,3.3
2022,9,19,06:20,UTC,7,998,-,91,0,-1,10.8,9.4,50000,18,6.1,3.3
2022,9,19,06:30,UTC,7,998.2,-,92,0,-1,10.8,9.5,50000,21,6.5,3.6
2022,9,19,06:40,UTC,8,998.2,-,91,0,-1,10.8,9.3,49480,23,6.3,3.6
2022,9,19,06:50,UTC,7,998.3,-,91,0,-1,10.8,9.4,47270,26,5.9,3.7
2022,9,19,07:00,UTC,7,998.3,0,90,0,-1,10.9,9.4,50000,27,5.8,3.4
2022,9,19,07:10,UTC,7,998.2,-,83,0,-1,11.7,8.9,42570,24,6.2,4
2022,9,19,07:20,UTC,5,998.2,-,82,0,-1,11.8,8.8,46160,35,6.5,3.8
2022,9,19,07:30,UTC,7,998.3,-,78,0,-1,12.6,8.9,39260,35,6.4,3.3
2022,9,19,07:40,UTC,7,998.3,-,80,0,-1,12.3,8.9,38220,32,6.9,4.3
2022,9,19,07:50,UTC,7,998.3,-,80,0,-1,12,8.7,50000,38,6.3,3.5
2022,9,19,08:00,UTC,7,998.4,0,79,0,-1,12,8.6,50000,45,5.8,3.8
2022,9,19,08:10,UTC,7,998.3,-,77,0,-1,13.1,9.2,42670,24,6.5,2.9
2022,9,19,08:20,UTC,7,998.2,-,73,0,-1,13.8,9.1,34340,11,6.2,3.3
2022,9,19,08:30,UTC,5,998.2,-,77,0,-1,13.1,9.1,42250,11,4.7,2.7
2022,9,19,08:40,UTC,3,998.1,-,73,0,-1,13.6,8.8,43270,9,7.4,4.6
2022,9,19,08:50,UTC,3,998.1,-,74,0,-1,13.7,9.2,50000,4,6.5,3.5
2022,9,19,09:00,UTC,5,998.1,0,74,0,-1,13.5,9,50000,9,6.3,3.5
2022,9,19,09:10,UTC,5,998.1,-,72,0,-1,13.7,8.6,43290,9,7.9,4.5
2022,9,19,09:20,UTC,3,998,-,68,0,-1,14,8.3,50000,18,7.4,4.1
2022,9,19,09:30,UTC,1,997.9,-,70,0,-1,13.6,8.2,42080,27,7.3,4.4
2022,9,19,09:40,UTC,1,997.8,-,67,0,-1,14.4,8.3,45680,29,7.3,3.7
2022,9,19,09:50,UTC,3,997.8,-,65,0,-1,15.1,8.5,29370,7,8.4,4.3
2022,9,19,10:00,UTC,5,998.1,0.3,85,1.9,-1,12.6,10.1,7800,18,9.7,5.3
2022,9,19,10:10,UTC,7,998,-,82,1.1,-1,12.4,9.5,41180,17,7.9,4.3
2022,9,19,10:20,UTC,7,998,-,79,0,-1,13.2,9.6,36370,21,6.9,4
2022,9,19,10:30,UTC,5,998.1,-,78,0,-1,13.4,9.7,43920,25,6,3.5
2022,9,19,10:40,UTC,3,998,-,72,0,-1,14.1,9.1,39720,26,5.5,2.5
2022,9,19,10:50,UTC,1,997.9,-,70,0,-1,14.9,9.4,48780,12,8.2,4
2022,9,19,11:00,UTC,3,997.8,0.2,69,0,-1,14.6,8.9,49020,20,7.8,4.3
2022,9,19,11:10,UTC,5,998,-,65,0,-1,14.6,8.2,36700,15,7.8,4.5
2022,9,19,11:20,UTC,7,998.1,-,86,3.4,-1,11.9,9.6,7670,347,11.3,5.8
2022,9,19,11:30,UTC,7,998.1,-,91,0,-1,11.6,10.1,50000,342,6.7,4
2022,9,19,11:40,UTC,3,998,-,91,0,-1,12,10.6,50000,347,5.5,3.5
2022,9,19,11:50,UTC,1,998,-,84,0,-1,13.6,10.9,46890,352,6.2,3.9
2022,9,19,12:00,UTC,3,998,2,82,8.5,-1,13.1,10.2,3390,6,6.9,3.1
2022,9,19,12:10,UTC,5,998.1,-,83,0.8,-1,13,10.2,41170,30,6.8,3.8
2022,9,19,12:20,UTC,5,998,-,84,0,-1,12.6,9.9,50000,23,4.7,2.7
2022,9,19,12:30,UTC,3,997.9,-,83,0,-1,13.7,11,43530,12,3.9,2.3
2022,9,19,12:40,UTC,3,997.8,-,70,0,-1,14.5,9,42350,22,5.3,2.9
2022,9,19,12:50,UTC,5,997.9,-,68,0,-1,14.7,8.8,46110,360,6.9,4
2022,9,19,13:00,UTC,5,998,0.1,69,0,-1,14.1,8.6,50000,15,7.9,3.5
2022,9,19,13:10,UTC,5,998.2,-,75,0,-1,12.9,8.6,50000,356,10.7,5.9
2022,9,19,13:20,UTC,5,998.3,-,78,0,-1,12.9,9.2,50000,351,8,3.5
2022,9,19,13:30,UTC,5,998.3,-,73,0,-1,13.8,9,44410,2,7.9,3.6
2022,9,19,13:40,UTC,7,998.4,-,67,0,-1,13.6,7.6,50000,8,8.3,4.6
2022,9,19,13:50,UTC,7,998.5,-,64,0,-1,13.4,6.8,50000,1,6.3,4
2022,9,19,14:00,UTC,7,998.6,0,69,0,-1,13.1,7.5,50000,353,6.3,3.5
2022,9,19,14:10,UTC,5,998.7,-,68,0,-1,13.1,7.2,50000,357,5.5,3.7
2022,9,19,14:20,UTC,3,998.7,-,66,0,-1,13.3,7.1,46980,1,5.1,3.5
2022,9,19,14:30,UTC,1,998.6,-,67,0,-1,13.5,7.5,50000,355,5.6,3.6
2022,9,19,14:40,UTC,0,998.7,-,68,0,-1,13.6,7.7,45400,349,5.8,3.1
2022,9,19,14:50,UTC,0,998.6,-,69,0,-1,13.4,7.8,50000,345,6.4,3.8
2022,9,19,15:00,UTC,1,998.7,0,69,0,-1,13.5,7.9,50000,350,6.6,3.6
2022,9,19,15:10,UTC,3,998.8,-,62,0,-1,13.7,6.4,50000,5,8,4.8
2022,9,19,15:20,UTC,5,998.7,-,62,0,-1,13.5,6.4,50000,360,6.9,3.9
2022,9,19,15:30,UTC,3,998.9,-,64,0,-1,12.9,6.2,50000,2,7.2,4
2022,9,19,15:40,UTC,1,999,-,66,0,-1,12.5,6.4,50000,354,6.5,3.6
2022,9,19,15:50,UTC,1,999.1,-,71,0,-1,11.9,6.7,50000,352,6.9,3.6
2022,9,19,16:00,UTC,0,999.1,0,75,0,-1,11.5,7.1,50000,346,6,3.4
2022,9,19,16:10,UTC,0,999.2,-,75,0,-1,11.4,7.1,50000,342,6.7,4
2022,9,19,16:20,UTC,0,999.2,-,78,0,-1,11,7.3,50000,345,6.5,3.9
2022,9,19,16:30,UTC,0,999.3,-,79,0,-1,10.7,7.3,50000,343,6.3,3.8
2022,9,19,16:40,UTC,0,999.3,-,80,0,-1,10.4,7.1,50000,344,6.4,4
2022,9,19,16:50,UTC,0,999.4,-,80,0,-1,10.4,7.1,50000,347,6.5,4.1
2022,9,19,17:00,UTC,0,999.5,0,80,0,-1,10.4,7.2,50000,347,6.3,3.8
2022,9,19,17:10,UTC,1,999.5,-,81,0,-1,10.6,7.4,50000,348,7.2,4
2022,9,19,17:20,UTC,3,999.6,-,80,0,-1,10.9,7.5,50000,353,7.3,4
2022,9,19,17:30,UTC,5,999.6,-,81,0,-1,10.8,7.6,50000,345,4.7,2.5
2022,9,19,17:40,UTC,5,999.6,-,83,0,-1,10.4,7.6,50000,347,4.1,2.4
2022,9,19,17:50,UTC,5,999.7,-,86,0,-1,10.1,7.8,50000,339,4.8,2.8
2022,9,19,18:00,UTC,7,999.6,0,87,0,-1,10,7.9,50000,335,5.5,3.5
2022,9,19,18:10,UTC,5,999.6,-,88,0,-1,9.8,7.9,50000,335,6.4,3.9
2022,9,19,18:20,UTC,1,999.6,-,88,0,-1,10,8.1,50000,340,7.4,4.7
2022,9,19,18:30,UTC,1,999.7,-,90,0,-1,9.6,8,50000,338,6.1,3.8
2022,9,19,18:40,UTC,0,999.8,-,91,0,-1,9.5,8.1,50000,340,6.3,4.1
2022,9,19,18:50,UTC,0,999.8,-,91,0,-1,9.5,8.2,50000,341,6.6,4.2
2022,9,19,19:00,UTC,0,999.9,0,92,0,-1,9.4,8.2,50000,341,6.6,4
2022,9,19,19:10,UTC,3,999.9,-,92,0,-1,9.5,8.3,50000,344,6.8,4.1
2022,9,19,19:20,UTC,5,999.9,-,92,0,-1,9.7,8.5,50000,343,6.3,3.9
2022,9,19,19:30,UTC,5,999.9,-,92,0,-1,9.8,8.5,50000,345,6.7,3.7
2022,9,19,19:40,UTC,5,1000,-,92,0,-1,9.8,8.6,50000,343,6.3,3.8
2022,9,19,19:50,UTC,3,1000,-,92,0,-1,9.9,8.6,50000,342,8,4.4
2022,9,19,20:00,UTC,1,1000,0,92,0,-1,9.9,8.7,50000,343,7.3,4.3
2022,9,19,20:10,UTC,3,1000,-,92,0,-1,10,8.8,50000,344,6.9,4.3
2022,9,19,20:20,UTC,5,1000.2,-,91,0,-1,10.2,8.9,50000,347,6.5,4.1
2022,9,19,20:30,UTC,7,1000.2,-,91,0,-1,10.4,8.9,39450,346,6.8,3.9
2022,9,19,20:40,UTC,7,1000.3,-,89,0,-1,10.6,8.9,50000,352,6.4,4
2022,9,19,20:50,UTC,7,1000.3,-,90,0,-1,10.5,8.9,35170,349,6.4,4
2022,9,19,21:00,UTC,7,1000.4,0,92,0,-1,10.3,9,50000,352,5.9,3.7
2022,9,19,21:10,UTC,7,1000.4,-,92,0,-1,10.3,9.1,50000,348,5.9,3.5
2022,9,19,21:20,UTC,7,1000.4,-,93,0.4,-1,10.2,9.1,50000,346,5.4,3.2
2022,9,19,21:30,UTC,7,1000.5,-,92,0,-1,10.2,9,50000,348,5.3,3.4
2022,9,19,21:40,UTC,7,1000.6,-,92,0,-1,10.2,9,50000,350,6.2,3.8
2022,9,19,21:50,UTC,7,1000.7,-,92,0,-1,10.3,9,50000,346,6.1,3.7
2022,9,19,22:00,UTC,7,1000.7,0.1,90,0,-1,10.6,8.9,50000,347,6,3.6
2022,9,19,22:10,UTC,5,1000.8,-,89,0,-1,10.5,8.8,50000,356,7.6,4.3
2022,9,19,22:20,UTC,3,1000.9,-,88,0,-1,10.6,8.7,50000,352,10.3,4.6
2022,9,19,22:30,UTC,5,1001,-,86,0,-1,10.7,8.5,50000,354,8.1,4.6
2022,9,19,22:40,UTC,3,1001.1,-,86,0,-1,10.6,8.3,50000,355,7,4.2
2022,9,19,22:50,UTC,3,1001.2,-,86,0,-1,10.6,8.3,50000,355,8.5,4.3
2022,9,19,23:00,UTC,3,1001.3,0,87,0,-1,10.5,8.3,50000,354,9.1,3.8
2022,9,19,23:10,UTC,3,1001.5,-,87,0,-1,10.5,8.4,50000,354,6.6,4
2022,9,19,23:20,UTC,5,1001.6,-,87,0,-1,10.5,8.4,50000,352,7.8,4.3
2022,9,19,23:30,UTC,7,1001.7,-,87,0,-1,10.5,8.5,50000,353,6.7,4
2022,9,19,23:40,UTC,7,1001.9,-,88,0,-1,10.5,8.5,50000,353,7.9,3.9
2022,9,19,23:50,UTC,7,1002,-,87,0,-1,10.5,8.5,50000,349,7.9,4.4
2022,9,20,00:00,UTC,7,1002.1,0,88,0,-1,10.4,8.4,50000,349,6.9,4.1
2022,9,20,00:10,UTC,7,1002.2,-,87,0,-1,10.5,8.4,50000,347,7.5,4.5
2022,9,20,00:20,UTC,7,1002.3,-,87,0,-1,10.5,8.4,50000,349,7.4,4
2022,9,20,00:30,UTC,7,1002.4,-,87,0,-1,10.4,8.4,50000,346,7.3,4.1
2022,9,20,00:40,UTC,7,1002.5,-,88,0,-1,10.4,8.4,50000,347,7,3.7
2022,9,20,00:50,UTC,7,1002.6,-,87,0,-1,10.4,8.3,50000,347,7.6,3.9
2022,9,20,01:00,UTC,7,1002.7,0,88,0,-1,10.2,8.3,50000,343,7,3.7
2022,9,20,01:10,UTC,7,1002.8,-,89,0,-1,10.1,8.4,50000,344,5.8,3.8
2022,9,20,01:20,UTC,7,1002.8,-,88,0,-1,10.2,8.4,50000,344,6.4,3.5
2022,9,20,01:30,UTC,7,1003,-,87,0,-1,10.3,8.3,50000,344,7.3,3.9
2022,9,20,01:40,UTC,7,1003,-,86,0,-1,10.4,8.1,50000,342,7.7,4.1
2022,9,20,01:50,UTC,8,1003.1,-,86,0,-1,10.4,8.1,50000,346,7,3.7
2022,9,20,02:00,UTC,8,1003.2,0,85,0,-1,10.5,8,50000,344,6.8,4
2022,9,20,02:10,UTC,8,1003.3,-,85,0,-1,10.4,8,50000,341,5.9,3.4
2022,9,20,02:20,UTC,8,1003.4,-,85,0,-1,10.4,7.9,50000,339,7,4
2022,9,20,02:30,UTC,7,1003.6,-,85,0,-1,10.3,7.9,50000,338,7.2,3.7
2022,9,20,02:40,UTC,7,1003.6,-,85,0,-1,10.1,7.8,50000,337,5.3,3.5
2022,9,20,02:50,UTC,8,1003.7,-,85,0,-1,10.1,7.8,50000,343,6.5,4
2022,9,20,03:00,UTC,8,1003.8,0,86,0,-1,10.1,7.8,50000,344,6.1,3.4
2022,9,20,03:10,UTC,7,1004,-,86,0,-1,9.9,7.8,50000,344,6.2,3.7
2022,9,20,03:20,UTC,8,1004.1,-,86,0,-1,10,7.7,50000,342,7.8,3.7
2022,9,20,03:30,UTC,7,1004.2,-,86,0,-1,9.9,7.7,50000,349,6.6,3.2
2022,9,20,03:40,UTC,7,1004.4,-,86,0,-1,9.8,7.6,50000,346,7,3.7
2022,9,20,03:50,UTC,7,1004.6,-,85,0,-1,9.9,7.5,50000,345,6.5,3.8
2022,9,20,04:00,UTC,7,1004.7,0,85,0,-1,9.9,7.5,50000,347,7.4,3.9
2022,9,20,04:10,UTC,7,1004.8,-,85,0,-1,9.9,7.5,50000,342,7.1,4.2
2022,9,20,04:20,UTC,7,1005,-,85,0,-1,9.8,7.4,50000,345,6.6,4.1
2022,9,20,04:30,UTC,7,1005.1,-,85,0,-1,9.9,7.4,50000,347,6.8,4.2
2022,9,20,04:40,UTC,7,1005.3,-,85,0,-1,9.8,7.5,50000,343,6.2,3.5
2022,9,20,04:50,UTC,7,1005.4,-,85,0,-1,9.9,7.4,50000,343,5.9,3.5
2022,9,20,05:00,UTC,5,1005.6,0,86,0,-1,9.7,7.5,50000,343,5.7,3.2
2022,9,20,05:10,UTC,5,1005.7,-,85,0,-1,9.9,7.5,50000,346,7.1,3.5
2022,9,20,05:20,UTC,7,1005.9,-,83,0,-1,10.1,7.4,50000,345,7.1,4.2
2022,9,20,05:30,UTC,7,1006,-,83,0,-1,10.1,7.4,50000,344,6.6,3.9
2022,9,20,05:40,UTC,7,1006.2,-,82,0,-1,10.3,7.3,50000,350,6.5,3.6
2022,9,20,05:50,UTC,7,1006.3,-,82,0,-1,10.4,7.5,50000,349,6.8,4.1
2022,9,20,06:00,UTC,7,1006.5,0,81,0,-1,10.4,7.3,50000,346,6.4,3.4
2022,9,20,06:10,UTC,7,1006.6,-,80,0,-1,10.4,7.2,50000,347,7.5,3.7
2022,9,20,06:20,UTC,7,1006.8,-,79,0,-1,10.5,7.1,50000,352,7.8,4.6
2022,9,20,06:30,UTC,5,1006.9,-,79,0,-1,10.6,7.1,50000,354,7.9,4.8
2022,9,20,06:40,UTC,5,1007,-,78,0,-1,10.7,7.1,50000,353,8.2,4.4
2022,9,20,06:50,UTC,7,1007.1,-,78,0,-1,10.8,7.1,50000,353,9.3,5.1
2022,9,20,07:00,UTC,7,1007.3,0,77,0,-1,10.9,7,50000,358,9.3,4.3
2022,9,20,07:10,UTC,7,1007.4,-,76,0,-1,11.1,6.9,50000,359,9.4,5.2
2022,9,20,07:20,UTC,5,1007.6,-,75,0,-1,11.1,6.9,50000,359,9.7,5.2
2022,9,20,07:30,UTC,3,1007.8,-,74,0,-1,11.3,6.9,50000,4,8.5,4.5
2022,9,20,07:40,UTC,5,1007.9,-,73,0,-1,11.4,6.7,50000,9,9.2,5.2
2022,9,20,07:50,UTC,5,1008,-,71,0,-1,11.5,6.5,50000,4,9.4,4.7
2022,9,20,08:00,UTC,7,1008.1,0,73,0,-1,11.6,6.8,50000,9,9.3,4.7
2022,9,20,08:10,UTC,7,1008.2,-,71,0,-1,11.6,6.6,50000,13,8.1,5.1
2022,9,20,08:20,UTC,7,1008.3,-,71,0,-1,11.8,6.6,50000,6,8.5,4.4
2022,9,20,08:30,UTC,7,1008.5,-,69,0,-1,11.8,6.3,50000,7,9.1,5.8
2022,9,20,08:40,UTC,7,1008.7,-,68,0,-1,11.8,6.1,50000,11,10.1,5.5
2022,9,20,08:50,UTC,8,1008.8,-,66,0,-1,11.8,5.7,50000,15,9.9,5.2
2022,9,20,09:00,UTC,7,1008.9,0,67,0,-1,12.1,6.1,50000,23,9.7,5.4
2022,9,20,09:10,UTC,7,1009.1,-,68,0,-1,12.1,6.3,49500,1,10.1,5
2022,9,20,09:20,UTC,8,1009.2,-,68,0,-1,11.8,6,50000,6,8.8,4.9
2022,9,20,09:30,UTC,7,1009.3,-,68,0,-1,12,6.3,50000,6,8.5,5
2022,9,20,09:40,UTC,7,1009.4,-,66,0,-1,12.3,6.2,50000,11,6.5,4
2022,9,20,09:50,UTC,8,1009.5,-,66,0,-1,12.1,6,50000,17,9.1,5.1
2022,9,20,10:00,UTC,7,1009.6,0,65,0,-1,12.6,6.1,50000,8,8,3.5
2022,9,20,10:10,UTC,8,1009.7,-,64,0,-1,12.4,5.8,48180,25,11,5.6
2022,9,20,10:20,UTC,8,1009.9,-,63,0,-1,12.8,6,46060,19,7.7,4.1
2022,9,20,10:30,UTC,8,1010.1,-,64,0,-1,12.6,5.9,49570,17,8.3,4.7
2022,9,20,10:40,UTC,7,1010.2,-,64,0,-1,12.6,5.9,46730,20,7.6,3.8
2022,9,20,10:50,UTC,7,1010.3,-,61,0,-1,12.9,5.5,44810,15,7.7,3.9
2022,9,20,11:00,UTC,7,1010.4,0,62,0,-1,12.7,5.5,49310,22,8.8,4.9
2022,9,20,11:10,UTC,5,1010.5,-,62,0,-1,12.9,5.7,42030,3,6.4,4
2022,9,20,11:20,UTC,5,1010.7,-,63,0,-1,12.8,5.9,47840,351,7.5,4.5
2022,9,20,11:30,UTC,3,1010.8,-,60,0,-1,12.9,5.3,49990,14,7.5,4.8
2022,9,20,11:40,UTC,3,1010.9,-,58,0,-1,13.7,5.6,49180,357,6.3,3.6
2022,9,20,11:50,UTC,5,1011,-,59,0,-1,13.2,5.4,48510,356,8.1,4.7
2022,9,20,12:00,UTC,5,1011.2,0,65,0,-1,12.7,6.3,50000,350,8.9,5
2022,9,20,12:10,UTC,7,1011.3,-,66,0,-1,13,6.7,49500,341,6.5,4.1
2022,9,20,12:20,UTC,8,1011.5,-,65,0,-1,12.6,6.2,50000,351,8.9,4.8
2022,9,20,12:30,UTC,8,1011.6,-,66,0,-1,12.5,6.4,50000,346,7.8,4.2
2022,9,20,12:40,UTC,7,1011.8,-,66,0,-1,12.7,6.6,50000,347,6.9,3.5
2022,9,20,12:50,UTC,8,1011.9,-,64,0,-1,12.8,6.2,50000,359,6,3.5
2022,9,20,13:00,UTC,7,1012.1,0,64,0,-1,12.7,6.2,50000,6,7.3,3.6
2022,9,20,13:10,UTC,8,1012.1,-,65,0,-1,12.5,6,50000,18,7.3,4.6
2022,9,20,13:20,UTC,7,1012.3,-,66,0,-1,12.4,6.3,50000,9,7.3,4.7
2022,9,20,13:30,UTC,7,1012.4,-,66,0,-1,12.4,6.2,50000,13,7,4
2022,9,20,13:40,UTC,7,1012.5,-,66,0,-1,12.3,6.1,50000,14,6,3.5
2022,9,20,13:50,UTC,7,1012.6,-,65,0,-1,12.1,5.7,50000,21,7.9,4.7
2022,9,20,14:00,UTC,7,1012.8,0,67,0,-1,12,6,50000,7,7.8,4.3
2022,9,20,14:10,UTC,8,1012.9,-,70,0,-1,11.9,6.5,50000,355,5.9,2.9
2022,9,20,14:20,UTC,7,1013,-,72,0,-1,11.8,6.9,50000,350,6.2,3.2
2022,9,20,14:30,UTC,7,1013.3,-,71,0,-1,11.7,6.5,50000,2,6.9,4.1
2022,9,20,14:40,UTC,7,1013.5,-,83,0.6,-1,10.5,7.8,10520,13,7.6,4.3
2022,9,20,14:50,UTC,8,1013.6,-,88,0,-1,10.1,8.3,10440,4,5.2,3.5
2022,9,20,15:00,UTC,8,1013.8,0.1,89,0,-1,9.9,8.2,9060,7,6.9,4
2022,9,20,15:10,UTC,8,1013.8,-,90,0,-1,9.7,8.1,16050,7,6.6,4
2022,9,20,15:20,UTC,8,1014,-,87,0,-1,9.9,7.9,50000,5,6.1,3.5
2022,9,20,15:30,UTC,8,1014.1,-,87,0,-1,10.1,7.9,50000,3,5.8,3.5
2022,9,20,15:40,UTC,7,1014.3,-,88,0,-1,10.1,8.2,50000,357,5.1,2.9
2022,9,20,15:50,UTC,7,1014.4,-,86,0,-1,10.2,7.9,50000,4,5,3.1
2022,9,20,16:00,UTC,7,1014.5,0,85,0,-1,10.1,7.8,50000,6,4.1,2.4
2022,9,20,16:10,UTC,7,1014.7,-,85,0,-1,10.1,7.7,50000,9,4.6,2.5
2022,9,20,16:20,UTC,7,1014.8,-,86,0,-1,10,7.7,50000,15,3.8,2.4
2022,9,20,16:30,UTC,7,1015,-,86,0,-1,10,7.8,50000,12,5,2.8
2022,9,20,16:40,UTC,7,1015.1,-,83,0,-1,9.9,7.2,50000,18,9.7,4.8
2022,9,20,16:50,UTC,7,1015.2,-,84,0,-1,9.7,7.1,50000,16,7.4,4.7
2022,9,20,17:00,UTC,8,1015.3,0,84,0,-1,9.6,7.1,50000,11,5.7,3.8
2022,9,20,17:10,UTC,7,1015.4,-,85,0,-1,9.5,7,50000,10,5.5,3.7
2022,9,20,17:20,UTC,7,1015.5,-,85,0,-1,9.4,7.1,50000,12,4.8,3.3
2022,9,20,17:30,UTC,7,1015.6,-,86,0,-1,9.2,7,50000,8,4.1,2.8
2022,9,20,17:40,UTC,7,1015.7,-,88,0,-1,9,7.1,50000,4,4.1,2.9
2022,9,20,17:50,UTC,7,1015.9,-,89,0,-1,8.9,7.2,50000,3,5.1,3.1
2022,9,20,18:00,UTC,7,1015.9,0,88,0,-1,9,7.2,50000,1,4.5,2.9
2022,9,20,18:10,UTC,7,1016.1,-,90,0,-1,8.7,7.2,50000,355,4.6,2.8
2022,9,20,18:20,UTC,7,1016.2,-,91,0,-1,8.7,7.3,50000,354,4.6,2.8
2022,9,20,18:30,UTC,7,1016.2,-,87,0,-1,9.1,7.1,50000,358,5.2,3.1
2022,9,20,18:40,UTC,7,1016.4,-,86,0,-1,9.2,6.9,50000,356,5.4,3.3
2022,9,20,18:50,UTC,7,1016.5,-,84,0,-1,9.3,6.7,50000,1,5.8,3.8
2022,9,20,19:00,UTC,8,1016.6,0,83,0,-1,9.4,6.6,50000,5,5.1,3.2
2022,9,20,19:10,UTC,8,1016.7,-,82,0,-1,9.4,6.5,50000,7,6.1,3.9
2022,9,20,19:20,UTC,8,1016.9,-,82,0,-1,9.4,6.4,50000,10,6.8,3.9
2022,9,20,19:30,UTC,8,1017,-,82,0,-1,9.3,6.3,50000,15,7.4,3.3
2022,9,20,19:40,UTC,7,1017,-,81,0,-1,9.3,6.2,50000,13,6.2,3.8
2022,9,20,19:50,UTC,7,1017.1,-,81,0,-1,9.1,6,50000,9,6.2,4.3
2022,9,20,20:00,UTC,8,1017.2,0,80,0,-1,9.1,5.9,50000,9,8.1,4.1
2022,9,20,20:10,UTC,8,1017.3,-,80,0,-1,9.1,5.8,50000,11,8.1,4.5
2022,9,20,20:20,UTC,8,1017.5,-,79,0,-1,9.2,5.7,50000,13,7.4,5
2022,9,20,20:30,UTC,8,1017.6,-,78,0,-1,9.2,5.6,50000,16,8.1,5
2022,9,20,20:40,UTC,7,1017.7,-,79,0,-1,9.1,5.8,50000,13,7.1,3.8
2022,9,20,20:50,UTC,7,1017.7,-,80,0,-1,9.1,5.8,50000,19,6.6,3.7
2022,9,20,21:00,UTC,8,1017.9,0,79,0,-1,9.1,5.7,50000,22,7.9,4.5
2022,9,20,21:10,UTC,8,1018,-,80,0,-1,9,5.7,50000,20,7.1,3.9
2022,9,20,21:20,UTC,8,1018.1,-,80,0,-1,9,5.7,50000,20,7.7,4.4
2022,9,20,21:30,UTC,8,1018.2,-,80,0,-1,9,5.7,50000,23,6.5,3.9
2022,9,20,21:40,UTC,7,1018.3,-,80,0,-1,8.9,5.7,50000,23,7.4,4.2
2022,9,20,21:50,UTC,7,1018.4,-,80,0,-1,8.9,5.7,50000,24,7.1,4.2
2022,9,20,22:00,UTC,8,1018.5,0,81,0,-1,8.8,5.7,50000,19,4.8,3.4
2022,9,20,22:10,UTC,8,1018.6,-,82,0,-1,8.7,5.8,50000,19,5.3,3.2
2022,9,20,22:20,UTC,8,1018.6,-,82,0,-1,8.6,5.8,50000,13,6.2,3.5
2022,9,20,22:30,UTC,8,1018.7,-,83,0,-1,8.5,5.7,50000,11,5.6,3.5
2022,9,20,22:40,UTC,7,1018.8,-,83,0,-1,8.4,5.7,50000,12,6.6,3.6
2022,9,20,22:50,UTC,7,1018.9,-,83,0,-1,8.3,5.7,50000,11,6.4,4.1
2022,9,20,23:00,UTC,8,1018.9,0,84,0,-1,8.3,5.6,50000,11,6.9,3.9
2022,9,20,23:10,UTC,8,1019,-,85,0,-1,8.1,5.7,50000,5,6.2,3.3
2022,9,20,23:20,UTC,8,1019.1,-,85,0,-1,8,5.6,50000,11,4.7,2.8
2022,9,20,23:30,UTC,8,1019.2,-,86,0,-1,7.8,5.6,50000,8,5.2,3.1
2022,9,20,23:40,UTC,7,1019.2,-,87,0,-1,7.5,5.5,50000,4,5.1,2.8
2022,9,20,23:50,UTC,5,1019.3,-,88,0,-1,7.2,5.4,50000,5,5.3,3.2
2022,9,21,00:00,UTC,3,1019.3,0,90,0,-1,6.9,5.3,50000,7,5.1,2.5
2022,9,21,00:10,UTC,1,1019.3,-,91,0,-1,6.7,5.4,50000,5,5.5,3
2022,9,21,00:20,UTC,1,1019.4,-,92,0,-1,6.5,5.3,50000,10,5.6,3.3
2022,9,21,00:30,UTC,1,1019.5,-,93,0,-1,6.3,5.3,50000,12,5.9,3.7
2022,9,21,00:40,UTC,1,1019.6,-,94,0,-1,6.3,5.3,50000,16,6.2,3.8
2022,9,21,00:50,UTC,3,1019.7,-,94,0,-1,6.1,5.2,50000,13,5.4,3.7
2022,9,21,01:00,UTC,1,1019.7,0,94,0,-1,5.9,5.1,50000,16,5.9,3.9
2022,9,21,01:10,UTC,1,1019.7,-,95,0,-1,5.8,5,50000,15,6.2,3.9
2022,9,21,01:20,UTC,0,1019.8,-,95,0,-1,5.7,5,50000,18,6.1,4.1
2022,9,21,01:30,UTC,0,1019.9,-,95,0,-1,5.6,4.9,50000,10,5.4,3.8
2022,9,21,01:40,UTC,0,1019.9,-,96,0,-1,5.5,4.9,50000,14,5.6,3.5
2022,9,21,01:50,UTC,0,1020,-,96,0,-1,5.4,4.8,50000,12,5,3.3
2022,9,21,02:00,UTC,0,1020.1,0,96,0,-1,5.3,4.8,50000,10,5.6,3.2
2022,9,21,02:10,UTC,0,1020.3,-,97,0,-1,5.3,4.8,50000,12,5.1,3.6
2022,9,21,02:20,UTC,0,1020.3,-,97,0,-1,5.2,4.8,50000,12,5,3.2
2022,9,21,02:30,UTC,0,1020.4,-,97,0,-1,5.1,4.7,50000,13,4.9,3.3
2022,9,21,02:40,UTC,0,1020.5,-,97,0,-1,5.1,4.7,50000,14,5.3,3.5
2022,9,21,02:50,UTC,0,1020.5,-,97,0,-1,5.1,4.7,50000,15,5.7,4
2022,9,21,03:00,UTC,0,1020.6,0,97,0,-1,5,4.6,50000,12,5.5,3.8
2022,9,21,03:10,UTC,0,1020.7,-,97,0,-1,5,4.6,50000,16,5.7,3.8
2022,9,21,03:20,UTC,0,1020.8,-,97,0,-1,5,4.6,49760,11,5.1,3.7
2022,9,21,03:30,UTC,0,1020.8,-,97,0,-1,4.9,4.6,50000,13,5.4,3.9
2022,9,21,03:40,UTC,0,1020.9,-,97,0,-1,4.9,4.5,50000,11,5.9,3.8
2022,9,21,03:50,UTC,0,1021,-,98,0,-1,4.9,4.5,48070,8,5.4,4
2022,9,21,04:00,UTC,0,1021.1,0,98,0,-1,4.9,4.6,50000,7,5.6,4
2022,9,21,04:10,UTC,0,1021.2,-,98,0,-1,4.9,4.6,44450,4,5.9,4
2022,9,21,04:20,UTC,0,1021.2,-,98,0,-1,4.9,4.5,47870,4,5.8,3.8
2022,9,21,04:30,UTC,0,1021.3,-,98,0,-1,4.9,4.5,44250,2,5.5,3.7
2022,9,21,04:40,UTC,0,1021.3,-,98,0,-1,4.9,4.6,44140,2,4.7,3.4
2022,9,21,04:50,UTC,0,1021.4,-,98,0,-1,4.9,4.6,50000,6,5.5,3.3
2022,9,21,05:00,UTC,0,1021.5,0,98,0,-1,5.1,4.7,47440,5,5.4,3.6
2022,9,21,05:10,UTC,0,1021.7,-,97,0,-1,5.2,4.8,47000,1,5.2,3.3
2022,9,21,05:20,UTC,0,1021.8,-,97,0,-1,5.4,4.9,41740,6,5.1,3.4
2022,9,21,05:30,UTC,1,1021.9,-,96,0,-1,5.3,4.8,33840,15,5.5,3.3
2022,9,21,05:40,UTC,1,1021.9,-,96,0,-1,5.3,4.8,26990,20,5.2,3.4
2022,9,21,05:50,UTC,3,1022,-,96,0,-1,5.5,4.9,24480,21,4.4,2.7
2022,9,21,06:00,UTC,5,1022.1,0,96,0,-1,5.6,5.1,29440,22,4.8,3
2022,9,21,06:10,UTC,5,1022.1,-,94,0,-1,6,5.1,32460,21,4.6,3
2022,9,21,06:20,UTC,3,1022.2,-,93,0,-1,6.1,5.1,36360,27,5.2,3.3
2022,9,21,06:30,UTC,1,1022.3,-,92,0,-1,6.7,5.5,37190,31,4.8,3.3
2022,9,21,06:40,UTC,1,1022.3,-,89,0,-1,7.2,5.5,42450,31,5.7,3.7
2022,9,21,06:50,UTC,0,1022.3,-,87,0,-1,7.8,5.7,47690,31,6,3.9
2022,9,21,07:00,UTC,0,1022.4,0,83,0,-1,8.4,5.8,42720,34,5.4,3.3
2022,9,21,07:10,UTC,0,1022.4,-,82,0,-1,8.7,5.9,45460,42,5.9,3.2
2022,9,21,07:20,UTC,1,1022.5,-,80,0,-1,9.2,5.9,46250,41,6,4.2
2022,9,21,07:30,UTC,1,1022.5,-,79,0,-1,9,5.6,40480,42,7.3,3.7
2022,9,21,07:40,UTC,1,1022.5,-,80,0,-1,9.3,6,44100,36,6.4,3.9
2022,9,21,07:50,UTC,1,1022.5,-,78,0,-1,9.6,6,38640,22,5.5,3.4
2022,9,21,08:00,UTC,3,1022.5,0,76,0,-1,10.2,6.1,37080,25,6.1,3.8
2022,9,21,08:10,UTC,3,1022.5,-,76,0,-1,10.2,6.2,39320,23,5.5,3.4
2022,9,21,08:20,UTC,5,1022.5,-,73,0,-1,10.8,6.2,34130,25,5.3,2.8
2022,9,21,08:30,UTC,3,1022.6,-,72,0,-1,10.9,6.1,37690,41,6.1,3.4
2022,9,21,08:40,UTC,1,1022.6,-,71,0,-1,10.8,5.7,43510,40,5,3.3
2022,9,21,08:50,UTC,1,1022.7,-,71,0,-1,11,6,42150,31,5.8,3.5
2022,9,21,09:00,UTC,1,1022.7,0,71,0,-1,11.1,6,46330,49,5.5,3.6
2022,9,21,09:10,UTC,0,1022.6,-,68,0,-1,11.6,5.8,46820,52,5.3,3.4
2022,9,21,09:20,UTC,1,1022.6,-,66,0,-1,12.5,6.2,45550,30,5.6,3.3
2022,9,21,09:30,UTC,3,1022.6,-,65,0,-1,12.1,5.7,50000,38,5,3
2022,9,21,09:40,UTC,3,1022.7,-,66,0,-1,11.8,5.7,45480,40,5.5,3.7
2022,9,21,09:50,UTC,3,1022.8,-,66,0,-1,12,5.8,46270,30,4.8,3.2
2022,9,21,10:00,UTC,3,1022.8,0,65,0,-1,12.1,5.7,44620,43,5.8,2.4
2022,9,21,10:10,UTC,3,1022.8,-,63,0,-1,11.9,5,50000,80,5.5,3.3
2022,9,21,10:20,UTC,5,1022.8,-,62,0,-1,11.9,4.9,48450,71,4.9,3.1
2022,9,21,10:30,UTC,3,1022.7,-,62,0,-1,12,4.9,50000,71,4.9,3
2022,9,21,10:40,UTC,5,1022.8,-,61,0,-1,12.4,5.1,50000,70,4.5,2.8
2022,9,21,10:50,UTC,5,1022.9,-,61,0,-1,12.6,5.3,50000,85,4.2,2.3
2022,9,21,11:00,UTC,7,1022.9,0,54,0,-1,13.3,4.3,43160,83,5,2.8
2022,9,21,11:10,UTC,7,1023,-,54,0,-1,12.6,3.4,46170,89,6.2,3.9
2022,9,21,11:20,UTC,7,1023,-,53,0,-1,12.6,3.2,50000,95,5.2,3
2022,9,21,11:30,UTC,8,1023,-,52,0,-1,12.7,2.9,50000,119,4,2.5
2022,9,21,11:40,UTC,8,1023,-,56,0,-1,12.6,3.9,50000,107,3.9,1.9
2022,9,21,11:50,UTC,7,1023,-,54,0,-1,12.6,3.4,50000,50,4.9,3
2022,9,21,12:00,UTC,8,1023.1,0,54,0,-1,12.5,3.6,50000,51,3.9,2.5
2022,9,21,12:10,UTC,8,1023.1,-,55,0,-1,12.7,4,50000,40,2.9,1.6
2022,9,21,12:20,UTC,7,1023.1,-,53,0,-1,12.7,3.4,49520,29,2.9,1.8
2022,9,21,12:30,UTC,7,1023.1,-,53,0,-1,12.7,3.3,49030,46,2.3,1.1
2022,9,21,12:40,UTC,8,1023.1,-,54,0,-1,12.7,3.5,50000,130,3,1.5
2022,9,21,12:50,UTC,7,1023.2,-,56,0,-1,12.6,4,50000,83,3.4,1.9
2022,9,21,13:00,UTC,8,1023.1,0,54,0,-1,12.6,3.4,50000,50,4,2.2
2022,9,21,13:10,UTC,7,1023.1,-,55,0,-1,12.6,3.8,50000,38,3.8,2.5
2022,9,21,13:20,UTC,7,1023.1,-,54,0,-1,12.6,3.4,50000,9,2.3,1.5
2022,9,21,13:30,UTC,7,1023.1,-,56,0,-1,12.6,4.1,50000,18,2.5,1.4
2022,9,21,13:40,UTC,7,1023.1,-,57,0,-1,12.7,4.5,50000,1,2.8,1.6
2022,9,21,13:50,UTC,7,1023,-,55,0,-1,12.8,4,50000,22,3.1,1.7
2022,9,21,14:00,UTC,7,1023.1,0,56,0,-1,12.5,4.1,50000,13,3.5,2.1
2022,9,21,14:10,UTC,8,1023.1,-,57,0,-1,12.3,4.1,50000,18,4.7,2.2
2022,9,21,14:20,UTC,8,1023.1,-,56,0,-1,12.5,3.9,50000,41,3.1,1.6
2022,9,21,14:30,UTC,7,1023.1,-,57,0,-1,12.3,3.9,50000,46,3.7,2.1
2022,9,21,14:40,UTC,7,1023.1,-,58,0,-1,12.2,4.2,50000,24,3.1,2
2022,9,21,14:50,UTC,7,1023.2,-,59,0,-1,12,4.2,50000,22,3.1,2
2022,9,21,15:00,UTC,7,1023.2,0,61,0,-1,12,4.6,50000,30,3,2
2022,9,21,15:10,UTC,8,1023.2,-,58,0,-1,12,4,50000,31,4.6,3.1
2022,9,21,15:20,UTC,8,1023.3,-,59,0,-1,11.8,4,50000,26,4.4,2.8
2022,9,21,15:30,UTC,8,1023.2,-,59,0,-1,11.7,4,50000,33,4.3,2.8
2022,9,21,15:40,UTC,8,1023.3,-,59,0,-1,11.7,3.9,50000,34,5.8,3.5
2022,9,21,15:50,UTC,7,1023.3,-,59,0,-1,11.6,3.9,50000,36,5.9,4
2022,9,21,16:00,UTC,7,1023.5,0,60,0,-1,11.4,4,50000,40,5,3.3
2022,9,21,16:10,UTC,8,1023.5,-,61,0,-1,11.3,4.1,50000,44,5.1,3
2022,9,21,16:20,UTC,8,1023.7,-,63,0,-1,11.1,4.3,50000,52,5,2.8
2022,9,21,16:30,UTC,8,1023.7,-,65,0,-1,10.9,4.5,50000,50,5,2.7
2022,9,21,16:40,UTC,8,1023.8,-,64,0,-1,10.9,4.4,50000,51,4.2,2.5
2022,9,21,16:50,UTC,7,1023.9,-,64,0,-1,10.9,4.4,50000,52,4.5,2.2
2022,9,21,17:00,UTC,7,1023.9,0,64,0,-1,10.8,4.3,50000,55,4.6,3.1
2022,9,21,17:10,UTC,8,1024,-,65,0,-1,10.7,4.5,50000,63,4.4,3.4
2022,9,21,17:20,UTC,8,1024.1,-,65,0,-1,10.8,4.3,50000,59,4.7,3.3
2022,9,21,17:30,UTC,8,1024.1,-,65,0,-1,10.7,4.4,50000,54,4.3,2.4
2022,9,21,17:40,UTC,8,1024.2,-,69,0,-1,10.3,4.8,50000,50,3.3,1.8
2022,9,21,17:50,UTC,7,1024.3,-,68,0,-1,10.2,4.6,50000,53,3.7,2.1
2022,9,21,18:00,UTC,7,1024.3,0,68,0,-1,10.3,4.5,50000,69,6,3.5
2022,9,21,18:10,UTC,8,1024.3,-,67,0,-1,10.2,4.4,50000,71,5.2,3.6
2022,9,21,18:20,UTC,8,1024.3,-,68,0,-1,10,4.4,50000,63,5.9,3.4
2022,9,21,18:30,UTC,8,1024.4,-,68,0,-1,9.9,4.2,50000,61,6.4,4.4
2022,9,21,18:40,UTC,8,1024.4,-,67,0,-1,9.7,4,50000,62,6.3,4.8
2022,9,21,18:50,UTC,7,1024.5,-,68,0,-1,9.6,4,50000,53,5.9,3.6
2022,9,21,19:00,UTC,7,1024.5,0,69,0,-1,9.5,4.1,50000,48,5.4,3.7
2022,9,21,19:10,UTC,7,1024.5,-,70,0,-1,9.3,4.1,50000,49,6.3,3.5
2022,9,21,19:20,UTC,7,1024.5,-,71,0,-1,9.1,4.1,50000,56,5.5,3.3
2022,9,21,19:30,UTC,7,1024.5,-,70,0,-1,9,3.9,50000,59,5.2,2.9
2022,9,21,19:40,UTC,3,1024.6,-,71,0,-1,8.8,3.8,50000,64,4.8,3.2
2022,9,21,19:50,UTC,1,1024.6,-,72,0,-1,8.5,3.9,50000,80,5.1,3.3
2022,9,21,20:00,UTC,0,1024.6,0,74,0,-1,8.2,4,50000,88,4.1,2.9
2022,9,21,20:10,UTC,0,1024.6,-,78,0,-1,7.5,3.9,50000,78,4.2,2.9
2022,9,21,20:20,UTC,0,1024.6,-,77,0,-1,7.6,3.9,50000,83,5,3.3
2022,9,21,20:30,UTC,0,1024.6,-,77,0,-1,7.6,3.8,50000,87,5.3,3.8
2022,9,21,20:40,UTC,0,1024.6,-,79,0,-1,7.2,3.8,50000,102,4.5,3.2
2022,9,21,20:50,UTC,0,1024.6,-,79,0,-1,7.3,4,50000,106,5,3
2022,9,21,21:00,UTC,0,1024.6,0,78,0,-1,7.5,3.9,50000,89,5,3.3
2022,9,21,21:10,UTC,0,1024.6,-,78,0,-1,7.2,3.7,50000,82,5.2,3.6
2022,9,21,21:20,UTC,0,1024.6,-,79,0,-1,7,3.7,50000,82,5.3,3.7
2022,9,21,21:30,UTC,0,1024.6,-,79,0,-1,7,3.7,50000,86,5.3,3.8
2022,9,21,21:40,UTC,0,1024.6,-,80,0,-1,6.7,3.6,50000,93,4.7,3.4
2022,9,21,21:50,UTC,0,1024.6,-,83,0,-1,6.4,3.7,50000,98,5.3,3.4
2022,9,21,22:00,UTC,0,1024.6,0,81,0,-1,6.6,3.6,50000,88,5.1,3.8
2022,9,21,22:10,UTC,0,1024.6,-,80,0,-1,6.6,3.4,50000,83,5.2,3.8
2022,9,21,22:20,UTC,0,1024.6,-,80,0,-1,6.5,3.3,50000,93,4.9,3.7
2022,9,21,22:30,UTC,0,1024.7,-,82,0,-1,6.2,3.4,50000,108,5.1,3.1
2022,9,21,22:40,UTC,0,1024.6,-,81,0,-1,6.4,3.5,50000,98,6,4.4
2022,9,21,22:50,UTC,0,1024.6,-,81,0,-1,6.4,3.4,50000,92,5.6,4
2022,9,21,23:00,UTC,0,1024.7,0,81,0,-1,6.3,3.2,50000,97,4.9,3.4
2022,9,21,23:10,UTC,0,1024.6,-,81,0,-1,6.4,3.3,50000,103,5.2,3.9
2022,9,21,23:20,UTC,0,1024.6,-,82,0,-1,6.2,3.4,50000,94,5.6,4
2022,9,21,23:30,UTC,0,1024.6,-,83,0,-1,5.9,3.3,50000,92,5,3.5
2022,9,21,23:40,UTC,1,1024.7,-,85,0,-1,5.6,3.3,50000,73,4.1,3.2
2022,9,21,23:50,UTC,5,1024.7,-,83,0,-1,6,3.4,50000,68,4.1,3
2022,9,22,00:00,UTC,7,1024.7,0,88,0,-1,5.5,3.6,50000,67,3.9,2.8
2022,9,22,00:10,UTC,7,1024.7,-,85,0,-1,5.8,3.4,50000,70,4.3,3.4
2022,9,22,00:20,UTC,7,1024.6,-,82,0,-1,6.1,3.3,50000,73,4.4,3.4
2022,9,22,00:30,UTC,7,1024.6,-,81,0,-1,6.3,3.2,50000,67,4.8,3.7
2022,9,22,00:40,UTC,7,1024.6,-,87,0,-1,5.4,3.5,50000,66,4.8,3.5
2022,9,22,00:50,UTC,7,1024.5,-,85,0,-1,5.7,3.5,50000,64,4.6,3.3
2022,9,22,01:00,UTC,7,1024.4,0,87,0,-1,5.1,3.2,50000,62,4.7,3.2
2022,9,22,01:10,UTC,5,1024.4,-,92,0,-1,4.8,3.6,50000,63,4.6,3.1
2022,9,22,01:20,UTC,7,1024.4,-,87,0,-1,5.5,3.6,50000,59,5.1,3.4
2022,9,22,01:30,UTC,7,1024.4,-,90,0,-1,5.1,3.5,50000,55,4.1,2.7
2022,9,22,01:40,UTC,7,1024.4,-,93,0,-1,4.7,3.7,50000,52,4.8,2.5
2022,9,22,01:50,UTC,7,1024.4,-,92,0,-1,4.9,3.6,50000,54,3.7,1.8
2022,9,22,02:00,UTC,5,1024.2,0,90,0,-1,4.8,3.4,50000,68,4.2,2.7
2022,9,22,02:10,UTC,5,1024.3,-,92,0,-1,4.6,3.4,50000,80,3.6,2.7
2022,9,22,02:20,UTC,5,1024.2,-,93,0,-1,4.6,3.6,50000,75,2.8,1.9
2022,9,22,02:30,UTC,5,1024.2,-,92,0,-1,4.6,3.4,50000,60,2.3,1.7
2022,9,22,02:40,UTC,5,1024.2,-,90,0,-1,4.9,3.4,50000,54,2.9,1.9
2022,9,22,02:50,UTC,5,1024.2,-,90,0,-1,5,3.5,50000,63,2.7,2.2
2022,9,22,03:00,UTC,5,1024.2,0,86,0,-1,5.5,3.3,50000,70,3.5,2.6
2022,9,22,03:10,UTC,5,1024.1,-,89,0,-1,4.9,3.2,50000,79,3.9,2.8
2022,9,22,03:20,UTC,5,1024.1,-,91,0,-1,4.7,3.4,50000,85,3.9,3
2022,9,22,03:30,UTC,5,1024.1,-,92,0,-1,4.6,3.4,50000,72,3.7,2.6
2022,9,22,03:40,UTC,5,1024.1,-,94,0,-1,4.2,3.4,50000,72,3.5,2.4
2022,9,22,03:50,UTC,5,1024.1,-,93,0,-1,4.4,3.4,50000,79,3.7,2.7
2022,9,22,04:00,UTC,5,1024,0,91,0,-1,4.8,3.4,50000,81,4.2,3
2022,9,22,04:10,UTC,5,1024,-,92,0,-1,4.6,3.3,50000,72,4,2.7
2022,9,22,04:20,UTC,5,1024,-,92,0,-1,4.7,3.5,50000,70,3.7,2.8
2022,9,22,04:30,UTC,5,1024,-,91,0,-1,4.8,3.3,50000,72,3.7,3
2022,9,22,04:40,UTC,7,1024,-,91,0,-1,4.7,3.4,50000,68,3.8,2.6
2022,9,22,04:50,UTC,5,1024,-,91,0,-1,4.9,3.6,50000,71,3.4,2.9
2022,9,22,05:00,UTC,5,1023.9,0,90,0,-1,5.2,3.7,50000,66,3.4,2.5
2022,9,22,05:10,UTC,5,1023.9,-,82,0,-1,6.2,3.2,50000,53,3.8,2.8
2022,9,22,05:20,UTC,5,1024,-,87,0,-1,5.7,3.7,50000,40,3.4,2.4
2022,9,22,05:30,UTC,5,1024,-,87,0,-1,5.9,3.9,50000,70,3.2,1.4
2022,9,22,05:40,UTC,5,1023.9,-,83,0,-1,6.5,3.9,49780,28,2.3,1.5
2022,9,22,05:50,UTC,5,1023.9,-,76,0,-1,7.7,3.7,50000,40,2.9,1.9
2022,9,22,06:00,UTC,5,1023.9,0,72,0,-1,7.8,3.1,50000,50,3,2
2022,9,22,06:10,UTC,3,1023.9,-,73,0,-1,7.8,3.3,50000,41,3.4,2.2
2022,9,22,06:20,UTC,5,1023.9,-,71,0,-1,8.3,3.3,41330,44,3.8,2.7
2022,9,22,06:30,UTC,5,1023.9,-,70,0,-1,8.4,3.3,50000,39,2.8,1.8
2022,9,22,06:40,UTC,5,1023.8,-,72,0,-1,8.3,3.5,50000,57,4,2.8
2022,9,22,06:50,UTC,3,1023.8,-,72,0,-1,8.6,3.8,42650,57,4.7,3.1
2022,9,22,07:00,UTC,1,1023.7,0,69,0,-1,9.1,3.7,41660,62,4.4,2.9
2022,9,22,07:10,UTC,0,1023.7,-,66,0,-1,9.2,3.2,47190,62,4.5,2.8
2022,9,22,07:20,UTC,3,1023.7,-,65,0,-1,9.3,3,50000,73,4.6,2.6
2022,9,22,07:30,UTC,5,1023.7,-,63,0,-1,9.4,2.8,48130,92,5.1,3.3
2022,9,22,07:40,UTC,5,1023.7,-,63,0,-1,9.9,3.1,45410,93,4.7,2.8
2022,9,22,07:50,UTC,3,1023.7,-,59,0,-1,10.6,2.9,47650,98,4.1,1.7
2022,9,22,08:00,UTC,1,1023.6,0,60,0,-1,10.6,3,43920,111,4.1,2.1
2022,9,22,08:10,UTC,0,1023.7,-,56,0,-1,11.1,2.8,46280,118,4.3,2.9
2022,9,22,08:20,UTC,1,1023.7,-,56,0,-1,10.8,2.4,49190,98,5.2,3.2
2022,9,22,08:30,UTC,5,1023.6,-,58,0,-1,10.6,2.7,50000,120,3.2,2.3
2022,9,22,08:40,UTC,5,1023.5,-,55,0,-1,11.1,2.5,44690,100,4.8,3
2022,9,22,08:50,UTC,3,1023.5,-,55,0,-1,11.1,2.4,48650,111,4.5,2.7
2022,9,22,09:00,UTC,5,1023.4,0,59,0,-1,11,3.3,50000,126,3.5,2.1
2022,9,22,09:10,UTC,5,1023.4,-,57,0,-1,10.9,2.6,50000,136,3.7,2.2
2022,9,22,09:20,UTC,7,1023.4,-,57,0,-1,11.4,3.3,49970,147,3.5,2.5
2022,9,22,09:30,UTC,8,1023.4,-,56,0,-1,11.4,2.8,50000,120,3.7,1.9
2022,9,22,09:40,UTC,7,1023.3,-,59,0,-1,11.2,3.6,50000,105,3.7,2.2
2022,9,22,09:50,UTC,7,1023.4,-,56,0,-1,11.7,3.2,42920,126,3.7,2.2
2022,9,22,10:00,UTC,7,1023.3,0,57,0,-1,11.8,3.4,48860,134,3.5,2.1
2022,9,22,10:10,UTC,7,1023.3,-,57,0,-1,11.7,3.5,45530,135,3.6,2.2
2022,9,22,10:20,UTC,7,1023.3,-,58,0,-1,11.2,3.2,50000,128,3,1.5
2022,9,22,10:30,UTC,7,1023.2,-,58,0,-1,11.3,3.2,50000,89,3.4,1.8
2022,9,22,10:40,UTC,7,1023,-,58,0,-1,11.5,3.4,50000,117,3.4,2.1
2022,9,22,10:50,UTC,5,1023,-,58,0,-1,11.3,3.3,50000,87,4,1.8
2022,9,22,11:00,UTC,5,1022.9,0,57,0,-1,11.6,3.4,44820,92,3.7,1.8
2022,9,22,11:10,UTC,5,1022.8,-,60,0,-1,11.2,3.8,50000,202,3.6,1.6
2022,9,22,11:20,UTC,1,1022.7,-,61,0,-1,11,3.7,50000,287,4.5,2.8
2022,9,22,11:30,UTC,1,1022.7,-,61,0,-1,10.9,3.6,50000,286,3,1.6
2022,9,22,11:40,UTC,1,1022.6,-,63,0,-1,11.1,4.4,50000,224,2.7,1.3
2022,9,22,11:50,UTC,0,1022.3,-,59,0,-1,12.7,4.9,43890,197,3.3,2.2
2022,9,22,12:00,UTC,3,1022.3,0,54,0,-1,13.2,4.1,40000,201,3.5,2
2022,9,22,12:10,UTC,5,1022.2,-,55,0,-1,12.4,3.7,46880,171,3.5,1.8
2022,9,22,12:20,UTC,5,1022.1,-,59,0,-1,12.2,4.5,50000,175,4.2,2.6
2022,9,22,12:30,UTC,3,1022,-,57,0,-1,12.7,4.4,45950,147,5.6,2.8
2022,9,22,12:40,UTC,5,1022,-,57,0,-1,12.7,4.4,43500,196,4.8,2.3
2022,9,22,12:50,UTC,5,1021.9,-,58,0,-1,13.3,5.2,46620,257,5.9,3.4
2022,9,22,13:00,UTC,5,1021.8,0,56,0,-1,13,4.4,45570,244,5.5,3.5
2022,9,22,13:10,UTC,3,1021.7,-,55,0,-1,13.3,4.5,50000,241,5.7,3.6
2022,9,22,13:20,UTC,1,1021.7,-,57,0,-1,12.9,4.6,50000,252,6,4
2022,9,22,13:30,UTC,1,1021.6,-,59,0,-1,12.7,4.9,47240,251,6.2,4.3
2022,9,22,13:40,UTC,0,1021.6,-,59,0,-1,12.7,4.8,50000,242,6.6,3.9
2022,9,22,13:50,UTC,0,1021.6,-,59,0,-1,12.3,4.5,45990,248,5.9,3.8
2022,9,22,14:00,UTC,1,1021.5,0,62,0,-1,11.9,4.7,49320,261,6.9,4.4
2022,9,22,14:10,UTC,0,1021.4,-,63,0,-1,11.7,5,50000,246,6,4.2
2022,9,22,14:20,UTC,0,1021.4,-,64,0,-1,11.4,4.9,50000,238,6.4,4.3
2022,9,22,14:30,UTC,0,1021.3,-,65,0,-1,11.4,5.1,50000,248,6.3,4.5
2022,9,22,14:40,UTC,0,1021.3,-,66,0,-1,11.1,5,50000,244,7.2,4.3
2022,9,22,14:50,UTC,0,1021.3,-,68,0,-1,10.9,5.2,50000,244,5.4,3.3
2022,9,22,15:00,UTC,0,1021.2,0,68,0,-1,10.6,5,50000,241,5.3,3.4
2022,9,22,15:10,UTC,0,1021.1,-,69,0,-1,10.5,5.1,50000,236,5.1,3.5
2022,9,22,15:20,UTC,0,1021.1,-,70,0,-1,10.4,5.1,50000,237,5.6,3.2
2022,9,22,15:30,UTC,0,1021.1,-,70,0,-1,10.3,5.1,50000,249,6.2,3.4
2022,9,22,15:40,UTC,0,1021.1,-,72,0,-1,10,5.3,50000,228,4.2,2.6
2022,9,22,15:50,UTC,0,1021.1,-,73,0,-1,9.8,5.3,50000,228,5.5,3.7
2022,9,22,16:00,UTC,0,1021.1,0,74,0,-1,9.5,5.2,50000,223,4.6,3.4
2022,9,22,16:10,UTC,0,1021,-,74,0,-1,9.5,5.2,50000,228,4.7,3
2022,9,22,16:20,UTC,1,1021.1,-,75,0,-1,9.4,5.2,50000,235,5.2,3.3
2022,9,22,16:30,UTC,1,1021.1,-,77,0,-1,9.1,5.2,50000,237,4.6,3
2022,9,22,16:40,UTC,1,1021,-,78,0,-1,9,5.3,50000,236,4.8,3.1
2022,9,22,16:50,UTC,1,1021.1,-,78,0,-1,8.9,5.4,50000,235,4.4,2.8
2022,9,22,17:00,UTC,0,1021.1,0,79,0,-1,8.9,5.4,50000,238,4.4,2.7
2022,9,22,17:10,UTC,1,1021,-,80,0,-1,8.8,5.5,50000,246,4.1,2.2
2022,9,22,17:20,UTC,3,1021,-,81,0,-1,8.6,5.6,50000,254,4.5,3.1
2022,9,22,17:30,UTC,3,1021,-,82,0,-1,8.6,5.8,50000,254,4.3,3.3
2022,9,22,17:40,UTC,3,1020.9,-,83,0,-1,8.4,5.7,50000,254,4.4,3.4
2022,9,22,17:50,UTC,1,1020.9,-,86,0,-1,8.1,5.8,50000,253,4.2,3
2022,9,22,18:00,UTC,0,1020.9,0,86,0,-1,8.1,5.9,50000,238,3.2,2
2022,9,22,18:10,UTC,0,1020.9,-,87,0,-1,7.8,5.7,50000,247,3.1,1.8
2022,9,22,18:20,UTC,1,1020.9,-,89,0,-1,7.8,6.2,50000,253,3.5,2.1
2022,9,22,18:30,UTC,3,1020.9,-,90,0,-1,7.8,6.2,50000,251,2.8,1.8
2022,9,22,18:40,UTC,5,1020.9,-,89,0,-1,7.9,6.2,50000,254,3.2,1.8
2022,9,22,18:50,UTC,7,1020.9,-,91,0,-1,7.7,6.3,50000,253,4.5,2.5
2022,9,22,19:00,UTC,8,1020.9,0,89,0,-1,8.2,6.5,50000,251,4.7,3.3
2022,9,22,19:10,UTC,7,1020.8,-,87,0,-1,8.5,6.5,50000,248,4.1,2.9
2022,9,22,19:20,UTC,7,1020.8,-,86,0,-1,8.8,6.6,50000,256,4.6,3.3
2022,9,22,19:30,UTC,7,1020.8,-,86,0,-1,8.8,6.6,50000,259,4.1,3.3
2022,9,22,19:40,UTC,7,1020.7,-,87,0,-1,8.6,6.6,50000,257,3.7,2.5
2022,9,22,19:50,UTC,7,1020.7,-,88,0,-1,8.3,6.5,50000,244,3.1,1.6
2022,9,22,20:00,UTC,7,1020.7,0,89,0,-1,8.3,6.6,48760,203,1.4,0.9
2022,9,22,20:10,UTC,7,1020.7,-,88,0,-1,8.5,6.6,50000,180,1.1,0.8
2022,9,22,20:20,UTC,5,1020.6,-,89,0,-1,8.1,6.3,49990,199,1.5,1.1
2022,9,22,20:30,UTC,5,1020.5,-,94,0,-1,7.5,6.5,50000,249,2.4,1.6
2022,9,22,20:40,UTC,5,1020.6,-,95,0,-1,7.5,6.8,50000,242,3,1.9
2022,9,22,20:50,UTC,7,1020.5,-,92,0,-1,8.2,7,50000,203,1.7,1.3
2022,9,22,21:00,UTC,7,1020.5,0,90,0,-1,8.4,6.9,50000,201,1.5,1.2
2022,9,22,21:10,UTC,7,1020.5,-,88,0,-1,8.7,6.9,50000,228,1.4,0.8
2022,9,22,21:20,UTC,7,1020.5,-,91,0,-1,8.3,6.8,50000,250,1.2,0.7
2022,9,22,21:30,UTC,7,1020.4,-,93,0,-1,7.8,6.7,49160,248,1.6,0.7
2022,9,22,21:40,UTC,8,1020.4,-,95,0,-1,7.6,6.9,47920,293,2,0.8
2022,9,22,21:50,UTC,5,1020.2,-,96,0,-1,7.4,6.8,43100,294,2,0.8
2022,9,22,22:00,UTC,7,1020.2,0,96,0,-1,7.2,6.6,43490,300,1.2,0.9
2022,9,22,22:10,UTC,7,1020.1,-,97,0,-1,7.4,6.9,48310,297,1.4,1
2022,9,22,22:20,UTC,8,1020.1,-,97,0,-1,7.5,7.1,50000,287,1.7,1.2
2022,9,22,22:30,UTC,8,1020,-,97,0,-1,7.7,7.2,50000,306,1.5,1.1
2022,9,22,22:40,UTC,8,1020.1,-,95,0,-1,7.9,7.1,47270,61,1.7,1
2022,9,22,22:50,UTC,8,1020,-,95,0,-1,7.8,7,49360,45,1.2,1
2022,9,22,23:00,UTC,8,1020,0,96,0,-1,7.6,7,50000,39,1.5,1.2
2022,9,22,23:10,UTC,7,1019.9,-,97,0,-1,7.4,6.9,50000,28,2,1.5
2022,9,22,23:20,UTC,7,1019.8,-,97,0,-1,7.3,7,50000,4,1.5,1.1
2022,9,22,23:30,UTC,7,1019.7,-,96,0,-1,7.6,7,50000,8,1.5,1.2
2022,9,22,23:40,UTC,7,1019.6,-,95,0,-1,7.7,6.9,50000,45,1.7,1.1
2022,9,22,23:50,UTC,8,1019.6,-,92,0,-1,8.1,6.9,50000,63,2.4,1.8
2022,9,23,00:00,UTC,8,1019.5,0,90,0,-1,8.2,6.6,50000,73,2.7,2.3
2022,9,23,00:10,UTC,7,1019.5,-,91,0,-1,8,6.6,50000,81,2.9,2
2022,9,23,00:20,UTC,8,1019.4,-,94,0,-1,7.4,6.6,49270,78,2,1.6
2022,9,23,00:30,UTC,8,1019.3,-,95,0,-1,7.4,6.6,48030,88,2.6,1.8
2022,9,23,00:40,UTC,8,1019.2,-,93,0,-1,7.8,6.8,49500,86,2.9,2.4
2022,9,23,00:50,UTC,7,1019.1,-,95,0,-1,7.5,6.8,50000,77,2.7,2.3
2022,9,23,01:00,UTC,7,1019.2,0,96,0,-1,7.4,6.8,45420,80,2.8,1.8
2022,9,23,01:10,UTC,7,1019.2,-,96,0,-1,7.5,6.8,50000,100,2.5,1.8
2022,9,23,01:20,UTC,7,1019.2,-,96,0,-1,7.2,6.7,42780,104,1.8,1.3
2022,9,23,01:30,UTC,7,1019.1,-,97,0,-1,7.2,6.9,40770,90,2.4,1.2
2022,9,23,01:40,UTC,7,1019.1,-,97,0,-1,7.3,6.8,47120,75,2.5,1.1
2022,9,23,01:50,UTC,7,1019.1,-,96,0,-1,7.3,6.8,46240,8,1.2,0.7
2022,9,23,02:00,UTC,7,1019.1,0,97,0,-1,7.3,6.8,47870,268,1.5,0.8
2022,9,23,02:10,UTC,7,1019,-,95,0,-1,7.6,6.9,50000,177,0.9,0.6
2022,9,23,02:20,UTC,7,1018.9,-,95,0,-1,7.6,6.8,46420,167,1.2,0.8
2022,9,23,02:30,UTC,8,1018.8,-,96,0,-1,7.5,6.9,43390,177,1.4,1.1
2022,9,23,02:40,UTC,8,1018.8,-,96,0,-1,7.7,7.1,45070,182,1.1,0.9
2022,9,23,02:50,UTC,7,1018.8,-,95,0,-1,7.7,7,50000,153,0.8,0.6
2022,9,23,03:00,UTC,7,1018.8,0,95,0,-1,7.6,6.9,46090,106,0.8,0.4
2022,9,23,03:10,UTC,7,1018.8,-,96,0,-1,7.5,6.9,45000,78,1,0.7
2022,9,23,03:20,UTC,7,1018.8,-,97,0,-1,7.3,6.8,41670,63,1.2,0.7
2022,9,23,03:30,UTC,7,1018.8,-,98,0,-1,7.2,6.8,41280,35,1.6,1.2
2022,9,23,03:40,UTC,7,1018.8,-,97,0,-1,7.3,6.9,36190,55,2.1,1.4
2022,9,23,03:50,UTC,7,1018.8,-,95,0,-1,7.7,6.9,43640,71,2.2,1.6
2022,9,23,04:00,UTC,8,1018.9,0,92,0,-1,7.7,6.6,46820,73,3.1,2
2022,9,23,04:10,UTC,7,1018.8,-,96,0,-1,7.2,6.6,27140,58,2.2,1.1
2022,9,23,04:20,UTC,7,1018.8,-,97,0,-1,7,6.6,28450,60,1.7,1.3
2022,9,23,04:30,UTC,5,1018.8,-,98,0,-1,6.8,6.5,25270,59,2.1,1.6
2022,9,23,04:40,UTC,5,1018.8,-,98,0,-1,6.9,6.6,31090,52,2.4,1.8
2022,9,23,04:50,UTC,5,1018.8,-,97,0,-1,6.9,6.5,32610,42,2.8,2.3
2022,9,23,05:00,UTC,7,1018.8,0,97,0,-1,6.8,6.4,31670,37,2.9,2.6
2022,9,23,05:10,UTC,3,1018.8,-,98,0,-1,6.6,6.3,34050,43,2.7,2.3
2022,9,23,05:20,UTC,1,1018.8,-,98,0,-1,6.5,6.2,26460,33,2.5,2.2
2022,9,23,05:30,UTC,1,1018.8,-,98,0,-1,6.5,6.2,25960,43,2.7,2
2022,9,23,05:40,UTC,0,1018.8,-,99,0,-1,6.8,6.6,27610,40,2.7,2.1
2022,9,23,05:50,UTC,0,1018.8,-,97,0,-1,7.5,7,36770,25,2.5,1.8
2022,9,23,06:00,UTC,0,1018.8,0,87,0,-1,8.5,6.5,34850,42,2.4,1.5
2022,9,23,06:10,UTC,0,1018.8,-,82,0,-1,9.3,6.4,31260,70,2.6,1.5
2022,9,23,06:20,UTC,0,1018.8,-,83,0,-1,9.2,6.4,37330,65,2.7,1.4
2022,9,23,06:30,UTC,0,1018.7,-,81,0,-1,9.7,6.6,35070,75,1.4,0.7
2022,9,23,06:40,UTC,0,1018.7,-,80,0,-1,10.1,6.8,38880,75,1.4,0.9
2022,9,23,06:50,UTC,0,1018.7,-,79,0,-1,10.6,7,38190,89,1.3,0.7
2022,9,23,07:00,UTC,0,1018.7,0,76,0,-1,11.1,7.1,39980,117,1.6,0.5
2022,9,23,07:10,UTC,0,1018.7,-,75,0,-1,11.4,7.1,33010,128,2.1,1.2
2022,9,23,07:20,UTC,0,1018.8,-,73,0,-1,11.5,6.7,36230,125,2.2,1.1
2022,9,23,07:30,UTC,1,1018.8,-,68,0,-1,12,6.3,36660,117,2.3,1.2
2022,9,23,07:40,UTC,1,1018.8,-,66,0,-1,12,5.9,46120,114,2.9,1.6
2022,9,23,07:50,UTC,3,1018.7,-,66,0,-1,12,6,43730,134,2.5,1.6
2022,9,23,08:00,UTC,3,1018.6,0,66,0,-1,12,5.8,42870,123,2.1,1.4
2022,9,23,08:10,UTC,1,1018.6,-,66,0,-1,12.2,6.1,48020,116,2.5,1.6
2022,9,23,08:20,UTC,5,1018.6,-,70,0,-1,12.1,6.8,47750,102,3.1,1.9
2022,9,23,08:30,UTC,5,1018.6,-,70,0,-1,12.4,7.2,45180,114,3.9,2.1
2022,9,23,08:40,UTC,7,1018.6,-,70,0,-1,12.3,7,50000,113,3.9,2.3
2022,9,23,08:50,UTC,7,1018.6,-,70,0,-1,12.3,7.1,47210,123,3.8,2.1
2022,9,23,09:00,UTC,7,1018.6,0,68,0,-1,12.7,6.9,43460,118,3.3,2.6
2022,9,23,09:10,UTC,7,1018.5,-,66,0,-1,12.5,6.4,47310,126,3.5,1.7
2022,9,23,09:20,UTC,7,1018.5,-,70,0,-1,12.9,7.5,47370,126,3,2.1
2022,9,23,09:30,UTC,8,1018.5,-,69,0,-1,13.1,7.5,43120,123,3,2
2022,9,23,09:40,UTC,7,1018.4,-,68,0,-1,13,7.2,47800,135,2.8,1.6
2022,9,23,09:50,UTC,7,1018.3,-,65,0,-1,13,6.5,37540,128,2.6,1.5
2022,9,23,10:00,UTC,7,1018.3,0,67,0,-1,13,7.1,44760,127,3.8,2.6
2022,9,23,10:10,UTC,7,1018.4,-,66,0,-1,13.1,6.9,39420,146,4,2.6
2022,9,23,10:20,UTC,7,1018.4,-,68,0,-1,13,7.3,39890,151,4,2.8
2022,9,23,10:30,UTC,7,1018.4,-,67,0,-1,13.2,7.4,36190,158,3.5,2.5
2022,9,23,10:40,UTC,7,1018.3,-,69,0,-1,13.3,7.7,45850,160,4.2,2.6
2022,9,23,10:50,UTC,7,1018.3,-,71,0,-1,12.9,7.7,50000,169,3.6,2.4
2022,9,23,11:00,UTC,7,1018.2,0,72,0,-1,13.2,8.3,47750,176,3.3,1.9
2022,9,23,11:10,UTC,7,1018.2,-,71,0,-1,12.9,7.8,43840,163,4.4,3.2
2022,9,23,11:20,UTC,7,1018.2,-,72,0,-1,13.2,8.3,50000,194,3.8,2.2
2022,9,23,11:30,UTC,7,1018.1,-,67,0,-1,12.9,7,37750,180,3.6,2.1
2022,9,23,11:40,UTC,7,1018.2,-,64,0,-1,13,6.4,34590,160,3.2,2
2022,9,23,11:50,UTC,7,1018.1,-,63,0,-1,13.1,6.3,45420,183,3.1,1.9
2022,9,23,12:00,UTC,7,1018.2,0,69,0,-1,13.4,7.8,41700,175,3.3,2.1
2022,9,23,12:10,UTC,7,1018.1,-,67,0,-1,13.4,7.4,47020,161,4.1,2.6
2022,9,23,12:20,UTC,7,1018,-,66,0,-1,13.5,7.3,49250,165,3.4,2.1
2022,9,23,12:30,UTC,7,1018,-,63,0,-1,13.8,6.9,47330,168,4,2.4
2022,9,23,12:40,UTC,7,1018,-,65,0,-1,13.5,7.1,44900,156,3.8,2.5
2022,9,23,12:50,UTC,7,1017.9,-,64,0,-1,13.5,7,50000,161,4,2.4
2022,9,23,13:00,UTC,7,1017.9,0,66,0,-1,13.3,7.1,50000,180,4.4,2.8
2022,9,23,13:10,UTC,7,1017.8,-,70,0,-1,13.4,8,50000,168,3.8,2.4
2022,9,23,13:20,UTC,7,1017.8,-,70,0,-1,13.3,8,50000,170,3.4,2.1
2022,9,23,13:30,UTC,7,1017.8,-,69,0,-1,13.3,7.7,50000,168,4.1,2.3
2022,9,23,13:40,UTC,7,1017.7,-,71,0,-1,13,7.9,50000,189,4.2,2.2
2022,9,23,13:50,UTC,7,1017.7,-,72,0,-1,12.9,8,50000,234,3.9,2.5
2022,9,23,14:00,UTC,7,1017.8,0,73,0,-1,12.7,7.9,50000,229,4.3,2.5
2022,9,23,14:10,UTC,7,1017.7,-,74,0,-1,12.4,7.9,50000,232,4.4,2.8
2022,9,23,14:20,UTC,7,1017.7,-,72,0,-1,12.4,7.5,50000,221,4.6,2.8
2022,9,23,14:30,UTC,8,1017.6,-,75,0,-1,12.5,8.1,50000,239,2.9,1.5
2022,9,23,14:40,UTC,7,1017.6,-,74,0,-1,12.5,8,50000,218,3.6,2.2
2022,9,23,14:50,UTC,7,1017.6,-,74,0,-1,12.3,7.9,50000,221,4.9,2.5
2022,9,23,15:00,UTC,7,1017.6,0,75,0,-1,12.2,7.8,50000,223,4.5,2.6
2022,9,23,15:10,UTC,8,1017.7,-,75,0,-1,12.1,7.8,50000,212,3.8,2.3
2022,9,23,15:20,UTC,7,1017.7,-,73,0,-1,12.1,7.4,50000,208,4.4,2.9
2022,9,23,15:30,UTC,7,1017.7,-,72,0,-1,12,7.1,50000,203,4.2,2.8
2022,9,23,15:40,UTC,7,1017.8,-,72,0,-1,12,7.1,50000,201,4.3,3.1
2022,9,23,15:50,UTC,7,1017.8,-,73,0,-1,11.9,7.1,50000,197,3.8,2.4
2022,9,23,16:00,UTC,7,1017.8,0,73,0,-1,11.8,7,50000,187,3.9,2.7
2022,9,23,16:10,UTC,8,1017.8,-,72,0,-1,11.9,6.9,50000,178,4.2,2.9
2022,9,23,16:20,UTC,7,1017.8,-,71,0,-1,11.7,6.7,50000,174,4.4,2.9
2022,9,23,16:30,UTC,7,1017.9,-,74,0,-1,11.7,7.2,50000,180,4.9,3.4
2022,9,23,16:40,UTC,7,1017.9,-,76,0,-1,11.5,7.4,50000,177,4.8,3
2022,9,23,16:50,UTC,8,1017.8,-,75,0,-1,11.5,7.1,50000,177,5,3
2022,9,23,17:00,UTC,8,1017.8,0,76,0,-1,11.3,7.2,50000,179,3.9,2.2
2022,9,23,17:10,UTC,8,1017.8,-,75,0,-1,11.3,7,50000,178,4.3,2.9
2022,9,23,17:20,UTC,7,1017.8,-,76,0,-1,11.1,7.1,50000,171,3.4,2.1
2022,9,23,17:30,UTC,7,1017.8,-,76,0,-1,11.1,6.9,50000,175,3.4,2.6
2022,9,23,17:40,UTC,7,1017.8,-,76,0,-1,11,7,43990,167,3.3,2.3
2022,9,23,17:50,UTC,8,1017.8,-,76,0,-1,10.9,6.8,50000,156,3.6,2.5
2022,9,23,18:00,UTC,7,1017.8,0,74,0,-1,11,6.6,50000,156,3.6,2.5
2022,9,23,18:10,UTC,7,1017.8,-,77,0,-1,10.8,6.9,50000,147,2.5,1.7
2022,9,23,18:20,UTC,7,1017.9,-,78,0,-1,10.7,7,50000,142,2.4,1.8
2022,9,23,18:30,UTC,7,1017.9,-,78,0,-1,10.8,7,50000,138,3.1,2
2022,9,23,18:40,UTC,7,1017.9,-,78,0,-1,10.7,7.1,48210,136,2.6,2.3
2022,9,23,18:50,UTC,8,1017.9,-,77,0,-1,10.8,7,50000,139,3,2.6
2022,9,23,19:00,UTC,8,1017.9,0,78,0,-1,10.8,7.1,50000,139,3.2,2.5
2022,9,23,19:10,UTC,8,1017.8,-,79,0,-1,10.7,7.2,50000,137,3.3,2.4
2022,9,23,19:20,UTC,7,1017.9,-,80,0,-1,10.5,7.3,50000,138,2.9,2.2
2022,9,23,19:30,UTC,8,1017.9,-,82,0,-1,10.4,7.4,50000,137,3,2.4
2022,9,23,19:40,UTC,7,1017.9,-,82,0,-1,10.4,7.4,50000,135,3,2.5
2022,9,23,19:50,UTC,7,1017.9,-,79,0,-1,10.4,7,50000,131,2.9,2.2
2022,9,23,20:00,UTC,7,1017.8,0,78,0,-1,10.5,6.8,50000,129,2.6,1.8
2022,9,23,20:10,UTC,7,1017.8,-,78,0,-1,10.5,6.7,50000,130,2.3,1.9
2022,9,23,20:20,UTC,7,1017.8,-,78,0,-1,10.4,6.8,50000,131,2.6,2.1
2022,9,23,20:30,UTC,8,1017.8,-,78,0,-1,10.3,6.7,50000,131,2.4,2.2
2022,9,23,20:40,UTC,8,1017.7,-,79,0,-1,10.2,6.7,50000,123,2.5,2.2
2022,9,23,20:50,UTC,8,1017.7,-,79,0,-1,10.1,6.6,50000,137,2.5,2.1
2022,9,23,21:00,UTC,7,1017.7,0,80,0,-1,9.9,6.6,50000,141,2.5,2.1
2022,9,23,21:10,UTC,8,1017.7,-,79,0,-1,10,6.6,50000,142,2.4,2
2022,9,23,21:20,UTC,7,1017.7,-,79,0,-1,10.1,6.6,50000,145,2.5,2.1
2022,9,23,21:30,UTC,8,1017.7,-,81,0,-1,9.9,6.8,50000,148,2.7,2.1
2022,9,23,21:40,UTC,8,1017.7,-,85,0,-1,9.5,7.1,50000,146,2.3,1.9
2022,9,23,21:50,UTC,8,1017.7,-,85,0,-1,9.5,7.1,50000,146,2.2,1.8
2022,9,23,22:00,UTC,8,1017.7,0,88,0,-1,9.1,7.3,50000,137,1.8,1.4
2022,9,23,22:10,UTC,8,1017.7,-,89,0,-1,9.1,7.4,50000,138,1.8,1.4
2022,9,23,22:20,UTC,7,1017.7,-,89,0,-1,9.2,7.4,50000,146,2.1,1.5
2022,9,23,22:30,UTC,8,1017.7,-,90,0,-1,9.1,7.5,50000,152,2,1.5
2022,9,23,22:40,UTC,8,1017.7,-,87,0,-1,9.4,7.4,50000,111,2,1.1
2022,9,23,22:50,UTC,8,1017.7,-,87,0,-1,9.5,7.5,50000,97,2.3,1.4
2022,9,23,23:00,UTC,8,1017.8,0,83,0,-1,9.7,7.1,50000,67,2.7,2.2
2022,9,23,23:10,UTC,7,1017.8,-,87,0,-1,9.4,7.4,50000,65,2.5,1.6
2022,9,23,23:20,UTC,7,1017.8,-,90,0,-1,9,7.4,50000,59,2.5,1.5
2022,9,23,23:30,UTC,8,1017.7,-,88,0,-1,9.2,7.3,30510,50,2.3,1.5
2022,9,23,23:40,UTC,8,1017.8,-,90,0,-1,8.9,7.4,39730,41,2.6,1.6
2022,9,23,23:50,UTC,8,1017.7,-,93,0,-1,8.8,7.8,48870,67,2.9,1.6
2022,9,24,00:00,UTC,7,1017.7,0,93,0,-1,8.9,7.8,50000,78,4.3,2.3
2022,9,24,00:10,UTC,7,1017.7,-,94,0,-1,8.4,7.6,42220,69,2.2,1.5
2022,9,24,00:20,UTC,7,1017.6,-,96,0,-1,8.5,7.8,42060,56,2.8,1.8
2022,9,24,00:30,UTC,8,1017.6,-,95,0,-1,8.5,7.8,43540,59,2.6,1.8
2022,9,24,00:40,UTC,8,1017.6,-,96,0,-1,8.4,7.8,41560,62,3.3,2
2022,9,24,00:50,UTC,8,1017.5,-,97,0,-1,8.8,8.3,36350,66,3.9,2.6
2022,9,24,01:00,UTC,8,1017.5,0,95,0,-1,9,8.2,49220,66,3.5,2.8
2022,9,24,01:10,UTC,8,1017.4,-,94,0,-1,9.2,8.2,44590,69,3.3,2.7
2022,9,24,01:20,UTC,7,1017.4,-,94,0,-1,9.1,8.2,37240,75,5,2.9
2022,9,24,01:30,UTC,8,1017.4,-,94,0,-1,9.2,8.3,42160,79,5.2,3
2022,9,24,01:40,UTC,7,1017.3,-,94,0,-1,9.2,8.3,45290,75,4.1,2.4
2022,9,24,01:50,UTC,7,1017.3,-,94,0,-1,9.1,8.3,43200,77,4,2.7
2022,9,24,02:00,UTC,8,1017.3,0,94,0,-1,9.1,8.2,45740,82,4.3,2.9
2022,9,24,02:10,UTC,8,1017.3,-,94,0,-1,9.1,8.2,39300,84,4.5,2.6
2022,9,24,02:20,UTC,7,1017.1,-,94,0,-1,9.2,8.2,41510,87,4.2,2.7
2022,9,24,02:30,UTC,7,1017.2,-,93,0,-1,9.2,8.1,50000,77,3.5,2.3
2022,9,24,02:40,UTC,8,1017.2,-,93,0,-1,9.2,8.1,50000,81,3.4,2.5
2022,9,24,02:50,UTC,8,1017.2,-,92,0,-1,9.3,8,50000,81,4.5,2.9
2022,9,24,03:00,UTC,8,1017.1,0,93,0,-1,9.2,8.1,50000,83,4.5,3
2022,9,24,03:10,UTC,8,1017.1,-,93,0,-1,9.2,8.1,48140,87,4.5,2.9
2022,9,24,03:20,UTC,7,1017.1,-,93,0,-1,9.1,8.1,50000,92,4.5,3
2022,9,24,03:30,UTC,7,1017.1,-,94,0,-1,9.1,8.1,50000,101,3.7,2.6
2022,9,24,03:40,UTC,8,1017.1,-,94,0,-1,9,8,50000,96,3.9,2.8
2022,9,24,03:50,UTC,7,1017,-,94,0,-1,8.9,7.9,47780,94,4.2,3
2022,9,24,04:00,UTC,7,1017,0,93,0,-1,8.8,7.8,50000,101,4.5,2.5
2022,9,24,04:10,UTC,8,1017,-,92,0,-1,9,7.8,50000,97,4,2.5
2022,9,24,04:20,UTC,7,1017,-,93,0,-1,9,7.8,50000,103,4.6,2.5
2022,9,24,04:30,UTC,7,1017,-,93,0,-1,9,7.9,50000,110,3.9,2.4
2022,9,24,04:40,UTC,8,1016.9,-,93,0,-1,9.1,8.1,50000,112,3.6,2.3
2022,9,24,04:50,UTC,8,1016.9,-,94,0,-1,9.2,8.2,45470,92,3.9,2
2022,9,24,05:00,UTC,8,1016.8,0,94,0,-1,9.2,8.3,43350,78,3.4,2.1
2022,9,24,05:10,UTC,8,1016.8,-,93,0,-1,9.4,8.3,45080,60,3.3,2.1
2022,9,24,05:20,UTC,7,1016.9,-,92,0,-1,9.4,8.3,50000,67,4.5,2.7
2022,9,24,05:30,UTC,7,1016.9,-,93,0,-1,9.4,8.3,50000,76,4.5,2.8
2022,9,24,05:40,UTC,5,1016.9,-,92,0,-1,9.5,8.3,50000,80,4.2,2.7
2022,9,24,05:50,UTC,3,1016.9,-,91,0,-1,9.6,8.2,48590,60,3.1,1.9
2022,9,24,06:00,UTC,5,1016.8,0,90,0,-1,9.7,8.1,50000,62,3.1,2.4
2022,9,24,06:10,UTC,3,1016.8,-,89,0,-1,9.8,8.1,48460,65,3.2,2.2
2022,9,24,06:20,UTC,5,1016.8,-,88,0,-1,10.1,8.2,50000,69,3.4,2.5
2022,9,24,06:30,UTC,5,1016.9,-,88,0,-1,10.2,8.2,49640,66,3.6,2.3
2022,9,24,06:40,UTC,7,1016.9,-,85,0,-1,10.3,8,50000,69,3.4,2.3
2022,9,24,06:50,UTC,5,1016.9,-,83,0,-1,10.7,7.9,47700,75,3.9,2.1
2022,9,24,07:00,UTC,5,1016.9,0,82,0,-1,10.9,7.9,49910,77,4.6,2.7
2022,9,24,07:10,UTC,5,1016.9,-,79,0,-1,11.3,7.8,50000,74,4.9,2.7
2022,9,24,07:20,UTC,7,1017,-,79,0,-1,11.1,7.6,50000,67,5.6,3.3
2022,9,24,07:30,UTC,5,1017,-,80,0,-1,11.1,7.7,45750,64,4.6,3.2
2022,9,24,07:40,UTC,5,1017.1,-,81,0,-1,10.9,7.7,50000,76,4.3,2.5
2022,9,24,07:50,UTC,3,1017.1,-,80,0,-1,11.5,8.2,34040,68,3.6,2.3
2022,9,24,08:00,UTC,1,1017.1,0,73,0,-1,12.2,7.6,44380,90,3.3,1.8
2022,9,24,08:10,UTC,1,1017.1,-,69,0,-1,12.3,6.7,37340,93,4,2.4
2022,9,24,08:20,UTC,1,1017.1,-,70,0,-1,12.5,7.3,37810,122,3.6,2
2022,9,24,08:30,UTC,1,1017,-,67,0,-1,12.7,6.7,38920,108,4.6,2.9
2022,9,24,08:40,UTC,1,1017,-,64,0,-1,12.5,5.9,42460,91,6.6,2.8
2022,9,24,08:50,UTC,3,1017.1,-,65,0,-1,12.5,6.1,46060,109,4.9,2.6
2022,9,24,09:00,UTC,5,1017,0,67,0,-1,12.2,6.3,50000,99,3.9,2.3
2022,9,24,09:10,UTC,5,1016.9,-,65,0,-1,12.4,6,50000,94,4,2
2022,9,24,09:20,UTC,5,1016.8,-,63,0,-1,13,6.1,45040,93,4.2,2.2
2022,9,24,09:30,UTC,5,1016.7,-,62,0,-1,12.7,5.5,49660,72,3.6,2.2
2022,9,24,09:40,UTC,5,1016.8,-,62,0,-1,13.2,6.1,50000,118,4.1,1.8
2022,9,24,09:50,UTC,7,1016.8,-,61,0,-1,12.8,5.4,50000,73,4,2.2
2022,9,24,10:00,UTC,7,1016.7,0,64,0,-1,12.9,6.3,50000,100,4.5,2.4
2022,9,24,10:10,UTC,7,1016.8,-,65,0,-1,12.9,6.5,50000,127,5.1,2.8
2022,9,24,10:20,UTC,7,1016.7,-,66,0,-1,12.8,6.6,49170,130,3.7,2.2
2022,9,24,10:30,UTC,7,1016.6,-,66,0,-1,12.7,6.5,50000,107,4,2.2
2022,9,24,10:40,UTC,7,1016.6,-,67,0,-1,12.7,6.7,50000,113,3.7,2.1
2022,9,24,10:50,UTC,7,1016.6,-,66,0,-1,12.7,6.5,50000,115,3.7,2.1
2022,9,24,11:00,UTC,7,1016.6,0,66,0,-1,12.7,6.5,50000,90,3.4,1.3
2022,9,24,11:10,UTC,7,1016.6,-,67,0,-1,12.9,6.9,50000,123,4.2,2.2
2022,9,24,11:20,UTC,7,1016.5,-,68,0,-1,13,7.1,50000,125,3.4,2
2022,9,24,11:30,UTC,7,1016.5,-,69,0,-1,12.9,7.2,50000,125,4.3,2
2022,9,24,11:40,UTC,7,1016.5,-,67,0,-1,12.8,6.9,50000,119,3.9,2.6
2022,9,24,11:50,UTC,7,1016.4,-,69,0,-1,12.7,7.1,50000,128,4.1,2.3
2022,9,24,12:00,UTC,7,1016.4,0,71,0,-1,12.7,7.5,50000,135,4.8,3
2022,9,24,12:10,UTC,7,1016.4,-,76,0,-1,12.3,8.1,50000,128,5.9,3.5
2022,9,24,12:20,UTC,7,1016.4,-,79,0,-1,11.9,8.3,50000,118,5.1,3.6
2022,9,24,12:30,UTC,7,1016.4,-,78,0,-1,11.8,8.1,50000,112,4.7,3.1
2022,9,24,12:40,UTC,7,1016.3,-,78,0,-1,11.9,8.2,50000,128,3.4,2.3
2022,9,24,12:50,UTC,7,1016.3,-,77,0,-1,11.9,7.9,50000,127,3.3,2.3
2022,9,24,13:00,UTC,7,1016.2,0,77,0,-1,11.8,8,49820,120,3.3,2.3
2022,9,24,13:10,UTC,7,1016.1,-,76,0,-1,11.9,7.8,50000,132,3.1,2.3
2022,9,24,13:20,UTC,7,1016.1,-,76,0,-1,11.9,7.9,50000,125,3,1.9
2022,9,24,13:30,UTC,7,1016,-,76,0,-1,11.8,7.6,50000,129,1.8,1.3
2022,9,24,13:40,UTC,8,1016,-,74,0,-1,11.9,7.4,50000,137,2,1.3
2022,9,24,13:50,UTC,8,1016,-,74,0,-1,11.8,7.4,50000,130,1.6,0.8
2022,9,24,14:00,UTC,8,1015.9,0,74,0,-1,11.8,7.3,50000,158,1.5,1.1
2022,9,24,14:10,UTC,8,1015.9,-,74,0,-1,11.9,7.3,50000,150,1.9,0.7
2022,9,24,14:20,UTC,8,1015.8,-,73,0,-1,11.8,7.2,50000,89,3.2,1.3
2022,9,24,14:30,UTC,7,1015.8,-,72,0,-1,11.9,7,50000,112,1.3,0.7
2022,9,24,14:40,UTC,8,1015.8,-,74,0,-1,11.8,7.3,50000,122,2,1
2022,9,24,14:50,UTC,8,1015.7,-,75,0,-1,11.7,7.4,50000,109,2,1
2022,9,24,15:00,UTC,8,1015.8,0,76,0,-1,11.7,7.7,50000,113,1.7,1.3
2022,9,24,15:10,UTC,8,1015.8,-,76,0,-1,11.7,7.6,50000,113,1.9,1.1
2022,9,24,15:20,UTC,8,1015.8,-,76,0,-1,11.6,7.6,50000,110,2,1.4
2022,9,24,15:30,UTC,7,1015.7,-,77,0,-1,11.6,7.7,50000,87,3.8,2.1
2022,9,24,15:40,UTC,8,1015.7,-,78,0,-1,11.3,7.6,50000,85,4.1,2.6
2022,9,24,15:50,UTC,8,1015.7,-,79,0,-1,11.2,7.6,50000,90,3.9,2.9
2022,9,24,16:00,UTC,8,1015.7,0,78,0,-1,11.2,7.5,50000,87,3.8,2.3
2022,9,24,16:10,UTC,8,1015.7,-,78,0,-1,11.2,7.5,50000,91,3.3,2
2022,9,24,16:20,UTC,8,1015.8,-,79,0,-1,11.1,7.6,50000,90,3.2,2.2
2022,9,24,16:30,UTC,7,1015.7,-,77,0,-1,11.1,7.3,50000,75,2.3,1.5
2022,9,24,16:40,UTC,8,1015.6,-,82,0,-1,10.7,7.8,50000,70,2.2,1.2
2022,9,24,16:50,UTC,8,1015.5,-,86,0,-1,10.2,8,50000,66,1,0.6
2022,9,24,17:00,UTC,8,1015.5,0,87,0,-1,10,8,50000,349,1.2,0.7
2022,9,24,17:10,UTC,8,1015.5,-,86,0,-1,10,7.7,50000,324,1.5,1.4
2022,9,24,17:20,UTC,8,1015.6,-,85,0,-1,10.1,7.8,50000,351,1.6,1.1
2022,9,24,17:30,UTC,7,1015.6,-,86,0,-1,10.2,7.9,45460,347,1.8,1.4
2022,9,24,17:40,UTC,8,1015.5,-,86,0,-1,10.2,7.9,50000,335,1.9,1.4
2022,9,24,17:50,UTC,8,1015.6,-,84,0,-1,10.5,7.9,50000,313,2.8,1.4
2022,9,24,18:00,UTC,8,1015.5,0,82,0,-1,10.6,7.7,50000,21,2.4,1.6
2022,9,24,18:10,UTC,8,1015.5,-,86,0,-1,10,7.8,50000,29,2.2,1.9
2022,9,24,18:20,UTC,8,1015.4,-,88,0,-1,9.8,7.9,50000,19,2,1.4
2022,9,24,18:30,UTC,7,1015.4,-,88,0,-1,9.7,7.7,50000,13,2.5,1.9
2022,9,24,18:40,UTC,7,1015.4,-,88,0,-1,9.6,7.6,48880,3,2.7,2.2
2022,9,24,18:50,UTC,7,1015.5,-,85,0,-1,9.9,7.6,48150,19,3.1,2.4
2022,9,24,19:00,UTC,8,1015.5,0,86,0,-1,9.8,7.6,50000,11,2.9,2
2022,9,24,19:10,UTC,8,1015.5,-,88,0,-1,9.7,7.7,50000,11,2.7,1.8
2022,9,24,19:20,UTC,8,1015.4,-,88,0,-1,9.7,7.8,50000,18,3.1,2.3
2022,9,24,19:30,UTC,7,1015.3,-,87,0,-1,9.9,7.8,50000,21,3.3,2.5
2022,9,24,19:40,UTC,8,1015.3,-,87,0,-1,9.8,7.7,50000,24,3,2.5
2022,9,24,19:50,UTC,8,1015.3,-,87,0,-1,9.8,7.7,50000,27,2.7,2.2
2022,9,24,20:00,UTC,8,1015.3,0,88,0,-1,9.8,7.8,50000,16,2.7,2
2022,9,24,20:10,UTC,8,1015.3,-,88,0,-1,9.7,7.8,44800,13,3.5,2.2
2022,9,24,20:20,UTC,8,1015.2,-,88,0,-1,9.6,7.7,41710,14,3.3,2.4
2022,9,24,20:30,UTC,7,1015.1,-,86,0,-1,9.7,7.6,50000,22,3.8,2.8
2022,9,24,20:40,UTC,8,1015.1,-,85,0,-1,9.7,7.4,50000,30,3.9,3
2022,9,24,20:50,UTC,8,1015,-,84,0,-1,9.8,7.2,50000,41,3.6,2.7
2022,9,24,21:00,UTC,8,1015,0,87,0,-1,9.4,7.4,49180,37,3.2,2.4
2022,9,24,21:10,UTC,7,1015,-,87,0,-1,9.3,7.3,50000,31,3.1,2.5
2022,9,24,21:20,UTC,7,1015,-,86,0,-1,9.4,7.1,50000,24,3.3,2.7
2022,9,24,21:30,UTC,7,1015,-,86,0,-1,9.2,7,50000,17,3.4,2.9
2022,9,24,21:40,UTC,7,1014.9,-,86,0,-1,9.2,6.9,50000,21,3.7,2.9
2022,9,24,21:50,UTC,7,1014.9,-,86,0,-1,9.1,6.9,50000,27,3.8,3
2022,9,24,22:00,UTC,7,1014.9,0,87,0,-1,8.9,6.9,50000,22,3.7,2.8
2022,9,24,22:10,UTC,7,1014.8,-,90,0,-1,8.5,7,50000,13,3.2,2.6
2022,9,24,22:20,UTC,7,1014.8,-,91,0,-1,8.3,6.9,50000,15,3.6,2.7
2022,9,24,22:30,UTC,7,1014.8,-,91,0,-1,8.3,6.9,50000,12,3.6,2.8
2022,9,24,22:40,UTC,7,1014.7,-,92,0,-1,8,6.8,50000,14,3.7,3.1
2022,9,24,22:50,UTC,5,1014.7,-,92,0,-1,7.8,6.6,50000,15,3.8,3.2
2022,9,24,23:00,UTC,1,1014.7,0,94,0,-1,7.5,6.6,49920,12,3.8,3
2022,9,24,23:10,UTC,1,1014.7,-,95,0,-1,7.3,6.5,50000,3,3.7,2.9
2022,9,24,23:20,UTC,3,1014.6,-,96,0,-1,7.1,6.4,50000,4,3.7,3
2022,9,24,23:30,UTC,5,1014.6,-,96,0,-1,7,6.4,47670,2,3.6,3
2022,9,24,23:40,UTC,7,1014.6,-,97,0,-1,7.1,6.6,46320,4,3.4,2.8
2022,9,24,23:50,UTC,7,1014.5,-,96,0,-1,7.1,6.5,48660,5,3.2,2.5
2022,9,25,00:00,UTC,7,1014.5,0,96,0,-1,7.1,6.5,50000,4,3.1,2.4
2022,9,25,00:10,UTC,8,1014.5,-,96,0,-1,7.2,6.7,48750,5,3,2.3
2022,9,25,00:20,UTC,7,1014.4,-,94,0,-1,7.6,6.7,50000,13,3.7,2.6
2022,9,25,00:30,UTC,7,1014.4,-,94,0,-1,7.3,6.5,50000,4,3.7,2.4
2022,9,25,00:40,UTC,7,1014.4,-,95,0,-1,7.2,6.5,50000,4,3.5,2.5
2022,9,25,00:50,UTC,8,1014.4,-,95,0,-1,7.3,6.6,47460,360,3.4,2.6
2022,9,25,01:00,UTC,7,1014.3,0,94,0,-1,7.4,6.4,50000,3,3.8,2.6
2022,9,25,01:10,UTC,7,1014.3,-,95,0,-1,7.1,6.4,48210,357,3.5,2.6
2022,9,25,01:20,UTC,7,1014.2,-,96,0,-1,7,6.4,50000,352,3.5,2.7
2022,9,25,01:30,UTC,7,1014.2,-,96,0,-1,6.9,6.3,50000,351,3.7,2.7
2022,9,25,01:40,UTC,5,1014.2,-,97,0,-1,6.7,6.3,49130,342,3.3,2.3
2022,9,25,01:50,UTC,1,1014.1,-,97,0,-1,6.6,6.1,49630,351,3.8,2.8
2022,9,25,02:00,UTC,1,1014.1,0,98,0,-1,6.4,6.1,47360,345,3.3,2.3
2022,9,25,02:10,UTC,1,1014.1,-,98,0,-1,6.4,6.1,47570,347,3.5,2.4
2022,9,25,02:20,UTC,3,1014.1,-,98,0,-1,6.3,6.1,48000,348,3.5,2.4
2022,9,25,02:30,UTC,5,1014,-,98,0,-1,6.2,6,46260,348,3.4,2.2
2022,9,25,02:40,UTC,7,1014,-,99,0,-1,6.2,6,37290,349,3.6,2.3
2022,9,25,02:50,UTC,8,1014,-,99,0,-1,6.1,5.9,37830,351,3.6,2.6
2022,9,25,03:00,UTC,8,1013.9,0,99,0,-1,6.1,6,42300,358,3.6,3
2022,9,25,03:10,UTC,7,1013.9,-,99,0,-1,6.6,6.5,45840,27,4,2.7
2022,9,25,03:20,UTC,7,1013.8,-,98,0,-1,6.7,6.3,50000,31,3.7,2.7
2022,9,25,03:30,UTC,7,1013.7,-,96,0,-1,6.6,6.1,43770,14,3.9,2.7
2022,9,25,03:40,UTC,7,1013.7,-,97,0,-1,6.3,5.9,39760,5,3.7,2.5
2022,9,25,03:50,UTC,7,1013.6,-,98,0,-1,6.2,5.9,36330,358,3.8,2.7
2022,9,25,04:00,UTC,7,1013.5,0,98,0,-1,6.3,6,45390,6,4,2.8
2022,9,25,04:10,UTC,7,1013.5,-,97,0,-1,6.7,6.2,50000,7,4,2.8
2022,9,25,04:20,UTC,7,1013.4,-,96,0,-1,6.6,6,47000,6,3.7,2.5
2022,9,25,04:30,UTC,7,1013.4,-,96,0,-1,6.4,5.8,44480,6,3.7,2.6
2022,9,25,04:40,UTC,5,1013.4,-,96,0,-1,6.5,6,49950,2,4,2.3
2022,9,25,04:50,UTC,5,1013.4,-,96,0,-1,6.6,6.1,50000,1,3.9,2.4
2022,9,25,05:00,UTC,5,1013.3,0,95,0,-1,7.1,6.4,50000,3,3.8,2.4
2022,9,25,05:10,UTC,7,1013.3,-,91,0,-1,7.5,6.2,50000,11,3.7,2.4
2022,9,25,05:20,UTC,7,1013.3,-,90,0,-1,7.6,6.2,50000,12,3.9,2.3
2022,9,25,05:30,UTC,7,1013.2,-,90,0,-1,7.7,6.2,50000,3,3.9,2.2
2022,9,25,05:40,UTC,5,1013.1,-,89,0,-1,7.8,6.2,50000,6,3.7,2.3
2022,9,25,05:50,UTC,3,1013,-,89,0,-1,7.9,6.2,50000,6,4,2.2
2022,9,25,06:00,UTC,1,1013,0,87,0,-1,8.2,6.2,50000,2,3.2,1.9
2022,9,25,06:10,UTC,1,1012.9,-,86,0,-1,8.4,6.1,50000,4,3.6,2.3
2022,9,25,06:20,UTC,1,1012.8,-,83,0,-1,8.6,5.9,50000,7,4.7,2.7
2022,9,25,06:30,UTC,1,1012.7,-,83,0,-1,8.7,6,50000,5,4.5,2.6
2022,9,25,06:40,UTC,1,1012.6,-,81,0,-1,8.8,5.8,50000,358,4.2,2.4
2022,9,25,06:50,UTC,1,1012.7,-,79,0,-1,9,5.6,50000,357,4,2.5
2022,9,25,07:00,UTC,1,1012.7,0,78,0,-1,9.3,5.7,49190,4,4.5,2.4
2022,9,25,07:10,UTC,1,1012.6,-,76,0,-1,9.5,5.3,50000,11,5.5,2.9
2022,9,25,07:20,UTC,1,1012.6,-,76,0,-1,9.9,5.8,45410,3,5,2.5
2022,9,25,07:30,UTC,1,1012.6,-,73,0,-1,10.1,5.5,47470,8,5.3,2.8
2022,9,25,07:40,UTC,1,1012.5,-,72,0,-1,10.3,5.4,50000,18,5.4,3.1
2022,9,25,07:50,UTC,1,1012.5,-,70,0,-1,10.1,4.9,48250,25,7.3,4.4
2022,9,25,08:00,UTC,0,1012.5,0,72,0,-1,10.1,5.2,42910,28,7.3,4.3
2022,9,25,08:10,UTC,1,1012.4,-,72,0,-1,10.2,5.4,50000,19,5.9,3.5
2022,9,25,08:20,UTC,3,1012.4,-,70,0,-1,10.3,5.1,50000,24,5.9,4.2
2022,9,25,08:30,UTC,3,1012.3,-,70,0,-1,10.6,5.2,48000,35,6.2,3.5
2022,9,25,08:40,UTC,5,1012.2,-,66,0,-1,10.6,4.5,47300,28,6.4,4.1
2022,9,25,08:50,UTC,1,1012.2,-,64,0,-1,10.7,4.2,50000,30,6.7,4.1
2022,9,25,09:00,UTC,1,1012.1,0,61,0,-1,10.8,3.6,44240,32,5.2,3
2022,9,25,09:10,UTC,1,1012,-,58,0,-1,10.9,3,45540,24,6.9,3.9
2022,9,25,09:20,UTC,1,1011.9,-,58,0,-1,11.2,3.2,48270,18,7,4.3
2022,9,25,09:30,UTC,1,1011.8,-,58,0,-1,11.1,3.2,40470,33,6.8,4.2
2022,9,25,09:40,UTC,1,1011.7,-,58,0,-1,11.4,3.5,48440,22,6.2,2.9
2022,9,25,09:50,UTC,1,1011.6,-,57,0,-1,11.6,3.2,38120,13,7.4,3.8
2022,9,25,10:00,UTC,1,1011.5,0,57,0,-1,11.5,3.3,36170,5,7.3,4.3
2022,9,25,10:10,UTC,1,1011.5,-,55,0,-1,11.7,2.9,48550,6,7.3,4.6
2022,9,25,10:20,UTC,1,1011.4,-,56,0,-1,11.6,3.1,50000,21,7.2,5.1
2022,9,25,10:30,UTC,1,1011.2,-,55,0,-1,11.8,3.2,43860,18,7.5,3.9
2022,9,25,10:40,UTC,1,1011.1,-,56,0,-1,11.8,3.2,50000,33,6.7,4.3
2022,9,25,10:50,UTC,0,1011,-,55,0,-1,12,3.2,45780,8,9.1,4.3
2022,9,25,11:00,UTC,0,1010.9,0,55,0,-1,12,3.3,50000,359,8.1,4.3
2022,9,25,11:10,UTC,0,1010.8,-,53,0,-1,12.4,3.1,46700,4,7,3.7
2022,9,25,11:20,UTC,1,1010.7,-,53,0,-1,12.3,2.9,50000,5,6.7,4
2022,9,25,11:30,UTC,3,1010.6,-,51,0,-1,12.5,2.7,41820,360,8.9,5.2
2022,9,25,11:40,UTC,1,1010.5,-,51,0,-1,12.5,2.5,41870,14,7.3,4.2
2022,9,25,11:50,UTC,1,1010.4,-,51,0,-1,12.7,2.9,43670,21,7.9,4.1
2022,9,25,12:00,UTC,1,1010.3,0,50,0,-1,12.7,2.5,47470,13,7.9,4.3
2022,9,25,12:10,UTC,1,1010.3,-,52,0,-1,12.6,3,40060,5,6.9,4.2
2022,9,25,12:20,UTC,1,1010.4,-,52,0,-1,12.5,3,47310,7,6.9,4.2
2022,9,25,12:30,UTC,1,1010.4,-,53,0,-1,12.1,2.9,50000,22,9.1,4.5
2022,9,25,12:40,UTC,3,1010.4,-,54,0,-1,11.8,2.8,50000,19,8.7,5
2022,9,25,12:50,UTC,3,1010.5,-,55,0,-1,11.7,3.1,50000,7,8.4,4.3
2022,9,25,13:00,UTC,1,1010.4,0,56,0,-1,11.8,3.4,48480,353,6,3.8
2022,9,25,13:10,UTC,1,1010.4,-,57,0,-1,12.1,3.9,50000,352,6.3,3.9
2022,9,25,13:20,UTC,1,1010.3,-,58,0,-1,12,3.9,50000,1,6.7,4.2
2022,9,25,13:30,UTC,1,1010.3,-,57,0,-1,12.4,4.2,49630,355,5.8,3.7
2022,9,25,13:40,UTC,3,1010.1,-,54,0,-1,12.5,3.4,44610,9,6.9,3
2022,9,25,13:50,UTC,5,1010.1,-,53,0,-1,12.1,2.8,50000,19,6.1,4.4
2022,9,25,14:00,UTC,5,1010.2,0,53,0,-1,11.9,2.6,50000,39,7,4.3
2022,9,25,14:10,UTC,3,1010.1,-,54,0,-1,11.7,2.8,50000,36,5.7,3.4
2022,9,25,14:20,UTC,1,1010,-,55,0,-1,11.7,2.8,48450,48,6.1,3.6
2022,9,25,14:30,UTC,1,1010,-,54,0,-1,11.5,2.5,50000,47,6.9,3.9
2022,9,25,14:40,UTC,3,1009.9,-,56,0,-1,11.3,2.8,50000,32,5.3,3
2022,9,25,14:50,UTC,3,1009.9,-,55,0,-1,11.4,2.7,50000,27,5.5,3.5
2022,9,25,15:00,UTC,3,1009.9,0,55,0,-1,11.3,2.7,50000,20,5.5,4
2022,9,25,15:10,UTC,3,1009.8,-,57,0,-1,11.3,3,50000,32,4.9,2.7
2022,9,25,15:20,UTC,3,1009.8,-,56,0,-1,11.4,2.9,50000,21,5.3,2.9
2022,9,25,15:30,UTC,3,1009.7,-,56,0,-1,11.3,2.9,50000,23,5.1,2.7
2022,9,25,15:40,UTC,5,1009.7,-,56,0,-1,11.2,2.7,50000,50,5.6,2.7
2022,9,25,15:50,UTC,5,1009.7,-,56,0,-1,10.9,2.5,50000,60,6,4
2022,9,25,16:00,UTC,5,1009.7,0,57,0,-1,10.7,2.6,50000,61,4.8,3.2
2022,9,25,16:10,UTC,5,1009.6,-,58,0,-1,10.5,2.6,50000,56,5,2.9
2022,9,25,16:20,UTC,3,1009.5,-,59,0,-1,10.2,2.6,50000,56,4.4,2.8
2022,9,25,16:30,UTC,3,1009.5,-,60,0,-1,10,2.7,50000,61,3.8,2.9
2022,9,25,16:40,UTC,5,1009.6,-,63,0,-1,9.5,2.8,50000,66,3.7,2.6
2022,9,25,16:50,UTC,5,1009.5,-,67,0,-1,8.9,3.2,50000,67,3.5,2.5
2022,9,25,17:00,UTC,7,1009.5,0,70,0,-1,8.3,3.2,50000,69,3.2,2.5
2022,9,25,17:10,UTC,7,1009.5,-,73,0,-1,8.2,3.5,50000,68,2.8,2.3
2022,9,25,17:20,UTC,7,1009.4,-,72,0,-1,8.2,3.5,50000,67,2.6,2
2022,9,25,17:30,UTC,7,1009.3,-,73,0,-1,7.9,3.4,50000,71,2.8,2.3
2022,9,25,17:40,UTC,7,1009.3,-,75,0,-1,7.7,3.6,50000,68,2.6,2
2022,9,25,17:50,UTC,7,1009.3,-,75,0,-1,7.5,3.4,50000,62,3,2.3
2022,9,25,18:00,UTC,5,1009.2,0,77,0,-1,7.3,3.5,50000,68,2.9,2.3
2022,9,25,18:10,UTC,5,1009.1,-,78,0,-1,7.2,3.5,50000,47,3.1,2.2
2022,9,25,18:20,UTC,7,1009.1,-,80,0,-1,6.8,3.5,50000,65,3.2,2.1
2022,9,25,18:30,UTC,7,1009,-,81,0,-1,6.7,3.7,50000,81,4,2.3
2022,9,25,18:40,UTC,7,1009,-,82,0,-1,6.6,3.8,50000,74,2.9,1.9
2022,9,25,18:50,UTC,7,1008.9,-,83,0,-1,6.4,3.7,50000,80,3.5,2.1
2022,9,25,19:00,UTC,7,1009,0,84,0,-1,6.5,4,50000,77,3.1,1.9
2022,9,25,19:10,UTC,7,1008.9,-,84,0,-1,6.4,3.8,50000,79,3.2,2
2022,9,25,19:20,UTC,7,1008.9,-,85,0,-1,6.4,4.1,50000,78,3.1,2
2022,9,25,19:30,UTC,7,1008.9,-,85,0,-1,6.3,3.9,50000,74,2.4,2
2022,9,25,19:40,UTC,7,1008.8,-,85,0,-1,6.1,3.9,50000,76,3,1.8
2022,9,25,19:50,UTC,7,1008.8,-,88,0,-1,6,4.2,50000,78,2.2,1.6
2022,9,25,20:00,UTC,7,1008.8,0,88,0,-1,5.9,4,50000,70,2,1.6
2022,9,25,20:10,UTC,7,1008.7,-,88,0,-1,6.1,4.3,46490,69,2.6,1.8
2022,9,25,20:20,UTC,7,1008.6,-,88,0,-1,5.9,4.1,50000,52,2.7,2.1
2022,9,25,20:30,UTC,7,1008.7,-,91,0,-1,5.5,4.1,50000,52,2.9,2.2
2022,9,25,20:40,UTC,7,1008.6,-,89,0,-1,6.1,4.4,50000,49,3.3,2.6
2022,9,25,20:50,UTC,7,1008.6,-,87,0,-1,6.3,4.4,50000,55,3.8,2.9
2022,9,25,21:00,UTC,7,1008.5,0,85,0,-1,6.7,4.4,50000,67,4.1,3
2022,9,25,21:10,UTC,7,1008.5,-,81,0,-1,7.2,4.2,50000,77,4.5,3.1
2022,9,25,21:20,UTC,7,1008.5,-,82,0,-1,7.1,4.3,50000,78,4.1,2.6
2022,9,25,21:30,UTC,7,1008.4,-,84,0,-1,7,4.4,50000,69,3.4,2.8
2022,9,25,21:40,UTC,7,1008.3,-,83,0,-1,7.2,4.5,50000,75,3.5,2.6
2022,9,25,21:50,UTC,7,1008.3,-,84,0,-1,7,4.6,50000,81,4.2,2.8
2022,9,25,22:00,UTC,7,1008.2,0,85,0,-1,7.2,4.8,50000,82,4.5,3.1
2022,9,25,22:10,UTC,7,1008.1,-,85,0,-1,7.3,4.9,50000,81,4.2,2.8
2022,9,25,22:20,UTC,7,1008.1,-,85,0,-1,7.4,5,50000,80,4.2,2.7
2022,9,25,22:30,UTC,7,1008,-,86,0,-1,7.1,4.9,50000,83,3.8,2.3
2022,9,25,22:40,UTC,7,1008,-,89,0,-1,6.6,4.9,50000,80,3.5,2.5
2022,9,25,22:50,UTC,7,1008,-,88,0,-1,7.1,5.3,50000,73,4.2,2.7
2022,9,25,23:00,UTC,7,1007.9,0,86,0,-1,7.4,5.2,50000,77,4.5,2.9
2022,9,25,23:10,UTC,7,1007.8,-,86,0,-1,7.4,5.2,50000,80,3.8,2.4
2022,9,25,23:20,UTC,8,1007.7,-,85,0,-1,7.6,5.2,50000,78,3.3,2.3
2022,9,25,23:30,UTC,8,1007.7,-,85,0,-1,7.6,5.2,50000,78,3.7,2.3
2022,9,25,23:40,UTC,7,1007.6,-,86,0,-1,7.3,5.2,50000,87,4.3,3
2022,9,25,23:50,UTC,7,1007.6,-,87,0,-1,7.4,5.3,50000,85,4.6,3.2
2022,9,26,00:00,UTC,8,1007.6,0,86,0,-1,7.5,5.2,50000,82,4.9,3.1
2022,9,26,00:10,UTC,7,1007.6,-,86,0,-1,7.5,5.3,50000,84,5.2,3.5
2022,9,26,00:20,UTC,7,1007.5,-,86,0,-1,7.5,5.4,50000,92,5.4,3.5
2022,9,26,00:30,UTC,7,1007.4,-,87,0,-1,7.5,5.5,50000,98,5.3,3.3
2022,9,26,00:40,UTC,7,1007.4,-,87,0,-1,7.6,5.6,50000,95,5.5,3.7
2022,9,26,00:50,UTC,7,1007.4,-,87,0,-1,7.6,5.7,50000,92,5.3,3.2
2022,9,26,01:00,UTC,7,1007.4,0,87,0,-1,7.8,5.8,50000,98,4.5,3
2022,9,26,01:10,UTC,8,1007.3,-,87,0,-1,7.8,5.8,50000,94,4.9,3.1
2022,9,26,01:20,UTC,8,1007.3,-,87,0,-1,7.8,5.7,50000,88,5.4,3.8
2022,9,26,01:30,UTC,8,1007.3,-,87,0,-1,7.9,5.9,50000,99,5.6,3.9
2022,9,26,01:40,UTC,7,1007.2,-,88,0,-1,7.8,5.9,50000,94,5.2,3.7
2022,9,26,01:50,UTC,7,1007.2,-,89,0,-1,7.9,6.1,50000,88,4.5,2.6
2022,9,26,02:00,UTC,7,1007.1,0,88,0,-1,7.9,6.1,50000,83,4.7,2.9
2022,9,26,02:10,UTC,8,1007.1,-,89,0,-1,7.9,6.2,50000,88,5.4,4
2022,9,26,02:20,UTC,8,1007.1,-,88,0,-1,8,6.2,50000,89,5.9,2.9
2022,9,26,02:30,UTC,8,1007.1,-,88,0,-1,8.1,6.3,50000,91,4.8,2.3
2022,9,26,02:40,UTC,7,1007.1,-,88,0,-1,8.1,6.3,50000,83,4.8,3.2
2022,9,26,02:50,UTC,7,1007.1,-,88,0,-1,8.1,6.2,50000,64,4.9,2.3
2022,9,26,03:00,UTC,8,1007,0,88,0,-1,8.2,6.4,50000,75,3.6,2
2022,9,26,03:10,UTC,7,1006.9,-,89,0,-1,8,6.3,50000,74,4.2,2.4
2022,9,26,03:20,UTC,7,1006.9,-,89,0,-1,7.9,6.2,50000,63,3.7,3
2022,9,26,03:30,UTC,7,1006.9,-,90,0,-1,7.6,6.1,50000,64,3.9,3.1
2022,9,26,03:40,UTC,5,1006.9,-,93,0,-1,7.5,6.4,50000,70,3.5,2.9
2022,9,26,03:50,UTC,7,1006.8,-,93,0,-1,7.5,6.3,50000,76,3.4,2.5
2022,9,26,04:00,UTC,5,1006.8,0,93,0,-1,7.5,6.4,50000,92,3.7,2.4
2022,9,26,04:10,UTC,7,1006.9,-,94,0,-1,7.4,6.5,50000,79,3.1,2.3
2022,9,26,04:20,UTC,7,1006.8,-,94,0,-1,6.9,6,50000,68,2.8,1.9
2022,9,26,04:30,UTC,7,1006.9,-,96,0,-1,6.8,6.1,49400,73,3.1,1.6
2022,9,26,04:40,UTC,5,1006.8,-,94,0,-1,7.4,6.5,45300,66,2.8,2
2022,9,26,04:50,UTC,3,1006.8,-,93,0,-1,7.3,6.3,47760,72,2.7,2.3
2022,9,26,05:00,UTC,3,1006.9,0,94,0,-1,6.5,5.7,39850,66,3,2
2022,9,26,05:10,UTC,1,1006.9,-,97,0,-1,6.4,5.9,36240,73,3.1,2
2022,9,26,05:20,UTC,3,1007,-,98,0,-1,6.8,6.4,31280,68,2.4,1.9
2022,9,26,05:30,UTC,3,1007,-,95,0,-1,7.7,7,33440,72,3.3,2
2022,9,26,05:40,UTC,5,1007,-,92,0,-1,8,6.7,32860,86,3.6,2.2
2022,9,26,05:50,UTC,5,1006.9,-,92,0,-1,8.1,6.8,23810,89,3.3,1.6
2022,9,26,06:00,UTC,5,1006.8,0,92,0,-1,8.1,6.9,33220,95,3.1,1.5
2022,9,26,06:10,UTC,3,1006.9,-,93,0,-1,8.3,7.2,33250,74,2.9,2
2022,9,26,06:20,UTC,5,1006.9,-,93,0,-1,8.4,7.2,32090,86,4.2,2.9
2022,9,26,06:30,UTC,5,1006.9,-,92,0,-1,8.5,7.3,44850,100,4.1,2.5
2022,9,26,06:40,UTC,5,1007,-,92,0,-1,8.7,7.4,37220,114,3.8,2.3
2022,9,26,06:50,UTC,5,1007,-,92,0,-1,9.2,8,34590,123,3.3,1.8
2022,9,26,07:00,UTC,5,1007,0,89,0,-1,9.6,8,37160,121,2.9,2
2022,9,26,07:10,UTC,7,1007.1,-,88,0,-1,10.1,8.2,41550,136,3.9,2.7
2022,9,26,07:20,UTC,7,1007.1,-,87,0,-1,10.2,8.1,43120,143,3.5,2.1
2022,9,26,07:30,UTC,7,1007.1,-,83,0,-1,10.8,8,45680,177,6.5,3.5
2022,9,26,07:40,UTC,8,1007.2,-,82,0,-1,11,8,50000,170,5.3,3.7
2022,9,26,07:50,UTC,7,1007.2,-,78,0,-1,11.3,7.5,45720,161,5.3,3.3
2022,9,26,08:00,UTC,8,1007.3,0,77,0,-1,11.4,7.4,50000,165,6.9,4.1
2022,9,26,08:10,UTC,8,1007.4,-,77,0,-1,11.5,7.6,50000,175,6.1,3.9
2022,9,26,08:20,UTC,8,1007.4,-,77,0,-1,11.7,7.7,50000,174,6.6,4
2022,9,26,08:30,UTC,7,1007.3,-,75,0,-1,11.5,7.3,50000,170,8,5
2022,9,26,08:40,UTC,7,1007.3,-,71,0,-1,12,6.9,43130,178,7.5,4.9
2022,9,26,08:50,UTC,7,1007.4,-,72,0,-1,11.7,6.8,50000,180,7.6,4.8
2022,9,26,09:00,UTC,8,1007.4,0,70,0,-1,11.9,6.7,47980,187,7.1,4.8
2022,9,26,09:10,UTC,7,1007.4,-,70,0,-1,11.7,6.4,50000,182,6.1,3.7
2022,9,26,09:20,UTC,7,1007.5,-,71,0,-1,12,6.9,50000,159,5.6,3.5
2022,9,26,09:30,UTC,8,1007.5,-,72,0,-1,11.8,7,50000,164,7.2,4.8
2022,9,26,09:40,UTC,7,1007.5,-,73,0,-1,11.7,7.1,47170,168,5.7,3.9
2022,9,26,09:50,UTC,7,1007.6,-,73,0,-1,11.6,6.9,50000,159,7,4.5
2022,9,26,10:00,UTC,8,1007.6,0,74,0,-1,11.5,7,49730,159,7.5,4.6
2022,9,26,10:10,UTC,8,1007.5,-,74,0,-1,11.4,6.9,48500,158,6.7,4.5
2022,9,26,10:20,UTC,8,1007.6,-,72,0,-1,11.4,6.6,43100,156,7.2,4.4
2022,9,26,10:30,UTC,8,1007.6,-,73,0,-1,11.5,6.8,47310,163,6.6,4.2
2022,9,26,10:40,UTC,8,1007.7,-,72,0,-1,11.5,6.6,50000,164,7.8,5.1
2022,9,26,10:50,UTC,7,1007.7,-,72,0,-1,11.6,6.8,46490,161,6.7,3.9
2022,9,26,11:00,UTC,8,1007.8,0,73,0,-1,11.6,6.9,48250,149,8.1,5.6
2022,9,26,11:10,UTC,7,1007.8,-,73,0,-1,11.6,6.8,50000,157,7.8,4.7
2022,9,26,11:20,UTC,7,1007.8,-,72,0,-1,11.5,6.5,50000,147,8.3,6.2
2022,9,26,11:30,UTC,8,1007.8,-,72,0,-1,11.6,6.7,50000,153,7.9,5.3
2022,9,26,11:40,UTC,8,1007.8,-,70,0,-1,11.7,6.4,50000,150,7.7,5.1
2022,9,26,11:50,UTC,7,1007.8,-,66,0,-1,12.5,6.3,39830,143,6.4,4.5
2022,9,26,12:00,UTC,7,1007.8,0,63,0,-1,12.7,5.8,38510,147,7.8,5.6
2022,9,26,12:10,UTC,8,1007.8,-,63,0,-1,12.6,5.7,50000,157,7.6,4.9
2022,9,26,12:20,UTC,7,1007.8,-,57,0,-1,13.5,5,40570,154,6.9,4.8
2022,9,26,12:30,UTC,5,1007.8,-,59,0,-1,12.7,4.8,49970,151,7.4,5
2022,9,26,12:40,UTC,5,1007.9,-,60,0,-1,12.5,5,50000,149,8.6,6.2
2022,9,26,12:50,UTC,5,1007.8,-,61,0,-1,12.8,5.4,49550,142,8.8,5.2
2022,9,26,13:00,UTC,7,1007.8,0,61,0,-1,12.4,5.1,50000,140,7.1,4.8
2022,9,26,13:10,UTC,7,1007.8,-,63,0,-1,12.5,5.6,50000,134,7.9,5.8
2022,9,26,13:20,UTC,7,1007.8,-,63,0,-1,12.2,5.3,50000,132,8.2,5.2
2022,9,26,13:30,UTC,3,1007.8,-,62,0,-1,12.7,5.6,49870,142,7.5,5
2022,9,26,13:40,UTC,1,1007.8,-,60,0,-1,12.7,5.2,45710,140,9.2,6
2022,9,26,13:50,UTC,0,1007.8,-,63,0,-1,12.3,5.6,50000,142,7.6,5.5
2022,9,26,14:00,UTC,0,1007.8,0,65,0,-1,11.9,5.6,50000,130,7.1,4.4
2022,9,26,14:10,UTC,0,1007.8,-,66,0,-1,11.8,5.7,50000,136,6.7,4.6
2022,9,26,14:20,UTC,0,1007.9,-,68,0,-1,11.8,6,50000,145,8.4,5.1
2022,9,26,14:30,UTC,0,1007.9,-,68,0,-1,12,6.2,50000,138,7.9,4.8
2022,9,26,14:40,UTC,0,1008,-,68,0,-1,12,6.3,50000,142,8.7,5.9
2022,9,26,14:50,UTC,1,1008,-,70,0,-1,11.6,6.4,50000,144,7.2,5.2
2022,9,26,15:00,UTC,1,1008.1,0,71,0,-1,11.7,6.6,50000,136,7.8,5.3
2022,9,26,15:10,UTC,1,1008.1,-,72,0,-1,11.6,6.7,50000,131,6.5,4.4
2022,9,26,15:20,UTC,1,1008,-,73,0,-1,11.4,6.8,50000,133,7.7,4.8
2022,9,26,15:30,UTC,3,1008,-,74,0,-1,11.4,6.9,50000,126,7.9,4.3
2022,9,26,15:40,UTC,5,1007.9,-,74,0,-1,11.5,6.9,50000,118,6.6,4.6
2022,9,26,15:50,UTC,5,1008,-,74,0,-1,11.4,7,50000,119,7.1,5.1
2022,9,26,16:00,UTC,5,1008,0,74,0,-1,11.5,7.1,50000,121,8.4,5.5
2022,9,26,16:10,UTC,5,1008,-,75,0,-1,11.6,7.3,50000,121,7.9,5.4
2022,9,26,16:20,UTC,7,1008.1,-,75,0,-1,11.6,7.4,50000,121,8.1,5.1
2022,9,26,16:30,UTC,8,1008.2,-,75,0,-1,11.7,7.3,50000,125,9.2,5.9
2022,9,26,16:40,UTC,8,1008.2,-,76,0,-1,11.7,7.6,50000,125,9,5.5
2022,9,26,16:50,UTC,7,1008.3,-,76,0,-1,11.8,7.7,50000,124,8.1,5.1
2022,9,26,17:00,UTC,7,1008.2,0,77,0,-1,11.7,7.9,50000,128,8.5,5.5
2022,9,26,17:10,UTC,7,1008.3,-,78,0,-1,11.7,8,50000,129,8.2,5
2022,9,26,17:20,UTC,7,1008.3,-,78,0,-1,11.8,8.1,50000,132,8.5,5.4
2022,9,26,17:30,UTC,7,1008.3,-,79,0,-1,11.7,8.2,50000,134,8.4,5.6
2022,9,26,17:40,UTC,7,1008.4,-,79,0,-1,11.8,8.2,50000,132,9.2,5.8
2022,9,26,17:50,UTC,7,1008.5,-,79,0,-1,11.9,8.3,50000,133,9.5,6
2022,9,26,18:00,UTC,7,1008.5,0,80,0,-1,11.8,8.5,50000,132,8.6,4.9
2022,9,26,18:10,UTC,8,1008.5,-,80,0,-1,11.9,8.6,50000,133,8.6,5.2
2022,9,26,18:20,UTC,7,1008.4,-,81,0,-1,11.9,8.7,50000,134,8.1,5.1
2022,9,26,18:30,UTC,8,1008.4,-,80,0,-1,11.9,8.6,50000,140,9,5.3
2022,9,26,18:40,UTC,7,1008.5,-,78,0,-1,11.9,8.3,50000,141,7.8,5.2
2022,9,26,18:50,UTC,7,1008.5,-,74,0,-1,11.9,7.4,50000,146,8.5,6
2022,9,26,19:00,UTC,7,1008.6,0,73,0,-1,11.9,7.3,50000,151,7,4.7
2022,9,26,19:10,UTC,8,1008.6,-,73,0,-1,11.9,7.2,50000,150,8.6,4.7
2022,9,26,19:20,UTC,7,1008.6,-,74,0,-1,11.6,7.2,50000,151,5.9,3.6
2022,9,26,19:30,UTC,7,1008.6,-,75,0,-1,11.7,7.4,50000,151,6.3,3.9
2022,9,26,19:40,UTC,5,1008.6,-,76,0,-1,11.6,7.5,50000,148,6.7,4.7
2022,9,26,19:50,UTC,7,1008.7,-,75,0,-1,11.5,7.3,50000,149,7.8,4.8
2022,9,26,20:00,UTC,7,1008.7,0,74,0,-1,11.4,7,50000,148,6.6,4.5
2022,9,26,20:10,UTC,7,1008.8,-,76,0,-1,11.4,7.4,50000,148,6.9,4.6
2022,9,26,20:20,UTC,7,1008.8,-,76,0,-1,11.4,7.3,50000,153,6.8,4.1
2022,9,26,20:30,UTC,7,1008.8,-,77,0,-1,11.4,7.4,50000,149,5.9,4.3
2022,9,26,20:40,UTC,7,1008.8,-,78,0,-1,11.2,7.5,50000,146,6.7,4.5
2022,9,26,20:50,UTC,7,1008.8,-,78,0,-1,11.2,7.5,50000,145,7.2,5.1
2022,9,26,21:00,UTC,7,1008.9,0,78,0,-1,11.1,7.4,50000,141,6,4.2
2022,9,26,21:10,UTC,7,1009,-,79,0,-1,10.9,7.4,50000,139,6.2,3.9
2022,9,26,21:20,UTC,7,1009,-,80,0,-1,10.8,7.5,50000,139,5.9,4.1
2022,9,26,21:30,UTC,5,1009,-,81,0,-1,10.7,7.5,50000,138,6.2,4.3
2022,9,26,21:40,UTC,7,1009,-,82,0,-1,10.5,7.6,50000,140,6.1,4.4
2022,9,26,21:50,UTC,7,1009.1,-,83,0,-1,10.4,7.5,50000,142,6.4,4.3
2022,9,26,22:00,UTC,5,1009,0,84,0,-1,10.1,7.5,50000,146,6.2,4.1
2022,9,26,22:10,UTC,5,1009,-,83,0,-1,10.3,7.6,50000,142,7.2,5
2022,9,26,22:20,UTC,5,1009,-,84,0,-1,10.2,7.6,50000,144,7.4,5.1
2022,9,26,22:30,UTC,5,1009,-,84,0,-1,10.1,7.5,50000,143,6.6,4.4
2022,9,26,22:40,UTC,7,1009,-,84,0,-1,10.1,7.5,50000,145,7.3,5.3
2022,9,26,22:50,UTC,7,1008.9,-,84,0,-1,10,7.3,50000,150,6.7,4.7
2022,9,26,23:00,UTC,7,1008.9,0,83,0,-1,9.9,7.2,50000,148,7.4,5
2022,9,26,23:10,UTC,7,1008.9,-,83,0,-1,9.9,7.2,50000,142,6.4,4.5
2022,9,26,23:20,UTC,7,1008.9,-,82,0,-1,9.9,7.1,50000,141,6.2,4.6
2022,9,26,23:30,UTC,5,1008.8,-,83,0,-1,10,7.2,50000,142,6.3,4.5
2022,9,26,23:40,UTC,3,1008.8,-,83,0,-1,9.9,7.1,50000,132,6,4
2022,9,26,23:50,UTC,1,1008.7,-,83,0,-1,9.9,7.2,50000,138,6.1,4.3
2022,9,27,00:00,UTC,0,1008.7,0,83,0,-1,9.9,7.1,50000,137,6.4,3.9
2022,9,27,00:10,UTC,0,1008.7,-,84,0,-1,9.7,7.2,50000,130,4.8,3.7
2022,9,27,00:20,UTC,0,1008.7,-,83,0,-1,9.8,7.2,50000,133,5,3.9
2022,9,27,00:30,UTC,0,1008.6,-,84,0,-1,9.7,7.2,50000,115,4.6,3.5
2022,9,27,00:40,UTC,0,1008.6,-,85,0,-1,9.6,7.1,50000,102,4.9,3.3
2022,9,27,00:50,UTC,0,1008.6,-,85,0,-1,9.5,7.2,50000,103,5.8,3.7
2022,9,27,01:00,UTC,0,1008.6,0,86,0,-1,9.6,7.4,50000,116,6.2,4.1
2022,9,27,01:10,UTC,0,1008.6,-,87,0,-1,9.5,7.5,50000,117,5.3,3.5
2022,9,27,01:20,UTC,0,1008.6,-,86,0,-1,9.8,7.6,50000,119,6.4,4.4
2022,9,27,01:30,UTC,0,1008.6,-,86,0,-1,10,7.8,50000,120,6.3,4.4
2022,9,27,01:40,UTC,0,1008.6,-,86,0,-1,10,7.8,50000,120,6.1,4.4
2022,9,27,01:50,UTC,1,1008.6,-,87,0,-1,9.9,7.9,50000,127,5.6,3.6
2022,9,27,02:00,UTC,1,1008.5,0,88,0,-1,10,8,50000,118,5.8,4.1
2022,9,27,02:10,UTC,1,1008.5,-,87,0,-1,10,7.9,50000,122,6.5,4.6
2022,9,27,02:20,UTC,5,1008.6,-,87,0,-1,10.2,8.1,50000,118,6.6,4
2022,9,27,02:30,UTC,3,1008.5,-,88,0,-1,10,8.2,50000,116,5.6,4.2
2022,9,27,02:40,UTC,1,1008.6,-,89,0,-1,10.1,8.3,50000,121,6.5,4.6
2022,9,27,02:50,UTC,1,1008.6,-,89,0,-1,10.2,8.4,50000,116,5.9,4.5
2022,9,27,03:00,UTC,1,1008.6,0,88,0,-1,10.2,8.3,50000,121,5.9,4.3
2022,9,27,03:10,UTC,3,1008.6,-,88,0,-1,10.3,8.4,50000,117,7.1,4.5
2022,9,27,03:20,UTC,3,1008.7,-,88,0,-1,10.2,8.4,50000,117,7,4.7
2022,9,27,03:30,UTC,1,1008.6,-,89,0,-1,10.1,8.5,50000,118,6.1,4.4
2022,9,27,03:40,UTC,1,1008.6,-,89,0,-1,10.2,8.5,50000,119,6.8,4.6
2022,9,27,03:50,UTC,1,1008.7,-,90,0,-1,9.9,8.3,50000,121,6.7,4.8
2022,9,27,04:00,UTC,1,1008.8,0,90,0,-1,10.1,8.4,50000,123,6.4,4.4
2022,9,27,04:10,UTC,0,1008.8,-,89,0,-1,10.1,8.4,50000,122,6.6,4.3
2022,9,27,04:20,UTC,1,1008.8,-,90,0,-1,10.1,8.6,50000,121,7,4.9
2022,9,27,04:30,UTC,1,1008.7,-,90,0,-1,10.2,8.6,50000,119,7.4,4.9
2022,9,27,04:40,UTC,1,1008.8,-,90,0,-1,10.2,8.6,50000,118,7.8,5.2
2022,9,27,04:50,UTC,3,1008.8,-,89,0,-1,10.3,8.6,50000,121,7.5,5.4
2022,9,27,05:00,UTC,5,1008.8,0,88,0,-1,10.3,8.5,50000,120,7.3,5
2022,9,27,05:10,UTC,7,1008.8,-,88,0,-1,10.6,8.6,50000,122,7,5
2022,9,27,05:20,UTC,7,1008.8,-,86,0,-1,10.8,8.6,50000,126,7.7,5.4
2022,9,27,05:30,UTC,7,1008.8,-,85,0,-1,11.2,8.8,50000,132,7,4.3
2022,9,27,05:40,UTC,7,1008.9,-,85,0,-1,11.4,8.9,50000,132,9.8,4.8
2022,9,27,05:50,UTC,3,1008.9,-,84,0,-1,11.5,8.8,50000,130,9.1,6.3
2022,9,27,06:00,UTC,3,1009,0,82,0,-1,11.5,8.6,50000,129,8.5,5.5
2022,9,27,06:10,UTC,5,1009,-,82,0,-1,11.6,8.6,50000,135,9.3,5.2
2022,9,27,06:20,UTC,7,1009.2,-,83,0,-1,11.6,8.8,50000,133,9.6,6.3
2022,9,27,06:30,UTC,7,1009.3,-,82,0,-1,11.6,8.6,49210,129,8.9,5.9
2022,9,27,06:40,UTC,8,1009.3,-,83,0,-1,11.6,8.7,50000,125,8.9,5.7
2022,9,27,06:50,UTC,8,1009.4,-,80,0,-1,11.6,8.3,50000,125,10.4,7
2022,9,27,07:00,UTC,7,1009.5,0,81,0,-1,11.6,8.5,50000,127,9,6.3
2022,9,27,07:10,UTC,8,1009.6,-,81,0,-1,11.6,8.5,50000,125,10.7,6.8
2022,9,27,07:20,UTC,8,1009.7,-,81,0,-1,11.6,8.4,50000,125,9,5.4
2022,9,27,07:30,UTC,8,1009.7,-,80,0,-1,11.6,8.2,50000,125,9.6,6.4
2022,9,27,07:40,UTC,7,1009.8,-,80,0,-1,11.7,8.2,50000,125,8.7,5.7
2022,9,27,07:50,UTC,7,1009.9,-,77,0,-1,11.6,7.6,50000,124,10.2,6.3
2022,9,27,08:00,UTC,7,1010,0,77,0,-1,11.7,7.9,49170,130,10,5.7
2022,9,27,08:10,UTC,7,1010,-,75,0,-1,11.8,7.6,50000,127,9,5.3
2022,9,27,08:20,UTC,8,1010,-,74,0,-1,11.8,7.3,50000,126,8.6,5.8
2022,9,27,08:30,UTC,7,1010,-,72,0,-1,12,7,50000,123,8,5.2
2022,9,27,08:40,UTC,7,1010.1,-,72,0,-1,12.1,7.1,49470,130,11,6.8
2022,9,27,08:50,UTC,7,1010.1,-,70,0,-1,12.3,7,46580,132,9.5,6.3
2022,9,27,09:00,UTC,7,1010.1,0,69,0,-1,12.4,6.8,50000,125,10,7.5
2022,9,27,09:10,UTC,7,1010,-,67,0,-1,12.9,7,39390,124,10.3,7
2022,9,27,09:20,UTC,5,1010,-,65,0,-1,13,6.5,34840,131,10,6.7
2022,9,27,09:30,UTC,1,1010,-,65,0,-1,13.2,6.6,37610,128,10.8,7.5
2022,9,27,09:40,UTC,1,1010,-,65,0,-1,13.2,6.8,40390,130,10.3,6.8
2022,9,27,09:50,UTC,0,1010,-,66,0,-1,13.3,7.1,44540,131,11,8
2022,9,27,10:00,UTC,0,1010,0,64,0,-1,13.5,6.8,41010,131,10.5,7
2022,9,27,10:10,UTC,1,1010.1,-,65,0,-1,13.2,6.8,41490,132,7.9,5.1
2022,9,27,10:20,UTC,1,1010.2,-,67,0,-1,13.2,7.1,37360,122,10.2,6.8
2022,9,27,10:30,UTC,1,1010.2,-,66,0,-1,13.4,7.1,47490,130,11.1,6
2022,9,27,10:40,UTC,1,1010.2,-,65,0,-1,13.5,7.1,34440,119,9.2,5.8
2022,9,27,10:50,UTC,0,1010.2,-,65,0,-1,13.1,6.6,43810,120,11.2,7.2
2022,9,27,11:00,UTC,0,1010.2,0,64,0,-1,12.8,6.1,39850,116,10.8,7.1
2022,9,27,11:10,UTC,0,1010.2,-,64,0,-1,13.2,6.5,43700,119,9.9,6.3
2022,9,27,11:20,UTC,0,1010.2,-,63,0,-1,13.1,6.2,48950,117,10.3,6.8
2022,9,27,11:30,UTC,0,1010.2,-,65,0,-1,12.8,6.5,42940,113,9.4,6.1
2022,9,27,11:40,UTC,0,1010.2,-,63,0,-1,13.2,6.3,50000,126,10.3,6.6
2022,9,27,11:50,UTC,0,1010.2,-,63,0,-1,13.2,6.3,50000,122,10.5,6.3
2022,9,27,12:00,UTC,0,1010.2,0,62,0,-1,12.9,5.8,40380,118,11.1,7.2
2022,9,27,12:10,UTC,0,1010.2,-,65,0,-1,13.3,6.7,44410,118,8.7,5.5
2022,9,27,12:20,UTC,0,1010.2,-,64,0,-1,13.1,6.5,47220,124,9.2,6.3
2022,9,27,12:30,UTC,0,1010.2,-,65,0,-1,13.1,6.7,40980,117,9,5.7
2022,9,27,12:40,UTC,0,1010.2,-,65,0,-1,13,6.5,42120,107,10.5,5.9
2022,9,27,12:50,UTC,0,1010.2,-,65,0,-1,12.8,6.3,44150,109,10.9,7.2
2022,9,27,13:00,UTC,0,1010.2,0,66,0,-1,12.9,6.6,50000,118,10.7,6.6
2022,9,27,13:10,UTC,1,1010.1,-,66,0,-1,12.6,6.4,49240,120,11.3,7.6
2022,9,27,13:20,UTC,1,1010.1,-,66,0,-1,12.9,6.8,50000,119,9.6,6.2
2022,9,27,13:30,UTC,0,1010.1,-,66,0,-1,12.6,6.3,42520,114,10.9,6.4
2022,9,27,13:40,UTC,0,1010.2,-,62,0,-1,12.5,5.5,46630,118,11.5,7.4
2022,9,27,13:50,UTC,0,1010.2,-,63,0,-1,12.4,5.5,50000,109,11.1,6.9
2022,9,27,14:00,UTC,0,1010.2,0,65,0,-1,12.3,5.9,50000,105,11.5,7.2
2022,9,27,14:10,UTC,0,1010.2,-,65,0,-1,12.3,5.9,50000,110,10.9,6.3
2022,9,27,14:20,UTC,0,1010.3,-,65,0,-1,12.2,5.8,50000,111,10.4,6.9
2022,9,27,14:30,UTC,0,1010.3,-,66,0,-1,11.9,5.8,50000,109,12.4,6.9
2022,9,27,14:40,UTC,0,1010.4,-,67,0,-1,11.9,5.9,50000,106,10.7,6.8
2022,9,27,14:50,UTC,0,1010.4,-,67,0,-1,11.7,5.8,50000,106,12.2,6.9
2022,9,27,15:00,UTC,0,1010.4,0,68,0,-1,11.7,5.9,50000,103,10.4,6.2
2022,9,27,15:10,UTC,0,1010.5,-,68,0,-1,11.6,6,50000,103,10.7,7.3
2022,9,27,15:20,UTC,0,1010.5,-,70,0,-1,11.4,6.1,50000,107,10.3,7.2
2022,9,27,15:30,UTC,0,1010.6,-,69,0,-1,11.3,5.8,50000,100,10.6,7
2022,9,27,15:40,UTC,0,1010.6,-,69,0,-1,11.3,5.8,50000,106,9.6,5.4
2022,9,27,15:50,UTC,0,1010.6,-,70,0,-1,11.2,5.9,50000,107,10.5,6.4
2022,9,27,16:00,UTC,0,1010.7,0,71,0,-1,11,5.9,50000,100,10.7,6
2022,9,27,16:10,UTC,1,1010.7,-,72,0,-1,10.8,5.9,50000,95,8.6,5.6
2022,9,27,16:20,UTC,1,1010.7,-,72,0,-1,10.6,5.8,50000,94,7.8,5.4
2022,9,27,16:30,UTC,0,1010.7,-,73,0,-1,10.3,5.8,50000,94,7.3,5
2022,9,27,16:40,UTC,0,1010.7,-,74,0,-1,10.2,5.7,50000,96,7.4,4.9
2022,9,27,16:50,UTC,0,1010.7,-,74,0,-1,10.2,5.7,50000,96,9.9,5
2022,9,27,17:00,UTC,0,1010.7,0,73,0,-1,10.3,5.6,50000,96,7.4,5.1
2022,9,27,17:10,UTC,0,1010.8,-,73,0,-1,10.2,5.6,50000,93,7.6,4.3
2022,9,27,17:20,UTC,1,1010.9,-,74,0,-1,10,5.6,50000,86,6.8,4.7
2022,9,27,17:30,UTC,1,1011,-,75,0,-1,9.8,5.6,50000,82,7,5
2022,9,27,17:40,UTC,1,1011,-,75,0,-1,9.7,5.5,50000,89,6.9,4.8
2022,9,27,17:50,UTC,1,1011,-,75,0,-1,9.8,5.6,50000,92,7.1,4.5
2022,9,27,18:00,UTC,1,1011,0,75,0,-1,9.9,5.7,50000,100,8.2,4.7
2022,9,27,18:10,UTC,3,1011.1,-,74,0,-1,10.2,5.7,50000,107,7.9,4.6
2022,9,27,18:20,UTC,3,1011.1,-,74,0,-1,10.6,6.1,50000,118,9.3,5.3
2022,9,27,18:30,UTC,3,1011,-,70,0,-1,11.3,6.1,50000,118,11,7
2022,9,27,18:40,UTC,3,1011,-,70,0,-1,11.2,5.9,50000,120,10.5,6.7
2022,9,27,18:50,UTC,1,1011.1,-,70,0,-1,11.3,5.9,50000,125,11,7.2
2022,9,27,19:00,UTC,3,1011.1,0,70,0,-1,11.2,5.9,50000,122,9.3,6.6
2022,9,27,19:10,UTC,1,1011.1,-,69,0,-1,11.3,5.8,50000,123,10.2,7
2022,9,27,19:20,UTC,1,1011,-,70,0,-1,11.1,5.9,50000,125,9.8,5.8
2022,9,27,19:30,UTC,1,1011,-,69,0,-1,11.3,5.8,50000,122,10.9,7.1
2022,9,27,19:40,UTC,1,1011,-,70,0,-1,11.3,5.9,50000,120,9.4,5.5
2022,9,27,19:50,UTC,3,1011,-,70,0,-1,10.9,5.6,50000,114,9.9,5
2022,9,27,20:00,UTC,5,1011,0,73,0,-1,10.1,5.5,50000,85,6.5,4.2
2022,9,27,20:10,UTC,3,1010.9,-,73,0,-1,9.9,5.4,50000,87,7.7,4.8
2022,9,27,20:20,UTC,5,1011,-,74,0,-1,9.8,5.3,50000,83,7.8,5.1
2022,9,27,20:30,UTC,5,1011,-,75,0,-1,9.6,5.3,50000,81,7,4.8
2022,9,27,20:40,UTC,5,1011,-,75,0,-1,9.4,5.2,50000,83,6.7,4.1
2022,9,27,20:50,UTC,3,1011.1,-,77,0,-1,9.1,5.2,50000,69,6.2,3.5
2022,9,27,21:00,UTC,3,1011.2,0,81,0,-1,8.4,5.3,50000,72,5.2,3
2022,9,27,21:10,UTC,5,1011.2,-,80,0,-1,8.6,5.3,50000,72,5.1,3.3
2022,9,27,21:20,UTC,3,1011.2,-,80,0,-1,8.4,5.2,50000,67,5.2,3.7
2022,9,27,21:30,UTC,5,1011.2,-,80,0,-1,8.5,5.3,50000,70,5.4,3.8
2022,9,27,21:40,UTC,3,1011.2,-,81,0,-1,8.3,5.3,50000,66,4.7,3.2
2022,9,27,21:50,UTC,5,1011.2,-,83,0,-1,8.2,5.4,50000,68,4.9,3.1
2022,9,27,22:00,UTC,5,1011.1,0,82,0,-1,8.3,5.4,50000,69,5.8,3.4
2022,9,27,22:10,UTC,5,1011.2,-,85,0,-1,7.4,5.1,50000,66,4.5,2.7
2022,9,27,22:20,UTC,3,1011.2,-,90,0,-1,7.2,5.6,50000,59,4.7,2.2
2022,9,27,22:30,UTC,5,1011.2,-,89,0,-1,7.4,5.6,50000,67,3.2,1.7
2022,9,27,22:40,UTC,5,1011.1,-,85,0,-1,8,5.7,50000,69,4.4,2.9
2022,9,27,22:50,UTC,7,1011.1,-,84,0,-1,8.3,5.7,50000,73,4.6,3
2022,9,27,23:00,UTC,7,1011.1,0,85,0,-1,7.9,5.5,50000,69,4.1,2.7
2022,9,27,23:10,UTC,5,1011,-,88,0,-1,7.3,5.5,50000,74,4.7,3
2022,9,27,23:20,UTC,3,1011,-,90,0,-1,7.3,5.8,50000,77,5,3.2
2022,9,27,23:30,UTC,3,1010.9,-,90,0,-1,7.3,5.8,50000,70,5,3.2
2022,9,27,23:40,UTC,5,1010.9,-,89,0,-1,7.5,5.8,50000,61,5.1,2.7
2022,9,27,23:50,UTC,3,1010.8,-,89,0,-1,7.3,5.6,50000,65,4.6,3.1
2022,9,28,00:00,UTC,5,1010.8,0,88,0,-1,7.7,5.8,50000,66,5.2,3.4
2022,9,28,00:10,UTC,3,1010.7,-,87,0,-1,7.6,5.6,50000,64,5.2,3
2022,9,28,00:20,UTC,3,1010.7,-,90,0,-1,7.1,5.6,50000,61,4.8,2.8
2022,9,28,00:30,UTC,5,1010.6,-,89,0,-1,7.2,5.6,50000,64,3.9,2.4
2022,9,28,00:40,UTC,5,1010.7,-,87,0,-1,7.4,5.5,50000,66,4.1,2.8
2022,9,28,00:50,UTC,7,1010.6,-,86,0,-1,7.6,5.5,50000,64,5.1,3.2
2022,9,28,01:00,UTC,7,1010.6,0,86,0,-1,7.8,5.5,50000,65,5.1,3.3
2022,9,28,01:10,UTC,7,1010.6,-,85,0,-1,7.9,5.6,50000,61,4.7,3.1
2022,9,28,01:20,UTC,8,1010.5,-,85,0,-1,8,5.7,50000,59,4.7,2.7
2022,9,28,01:30,UTC,7,1010.5,-,86,0,-1,8,5.8,50000,56,4,2.3
2022,9,28,01:40,UTC,7,1010.4,-,87,0,-1,8,5.9,50000,58,4.2,2.5
2022,9,28,01:50,UTC,8,1010.4,-,87,0,-1,8,6,50000,56,4.5,2.3
2022,9,28,02:00,UTC,8,1010.4,0,89,0,-1,8.1,6.4,50000,69,5,2.8
2022,9,28,02:10,UTC,7,1010.3,-,90,0,-1,8.2,6.7,49110,70,5.4,2.9
2022,9,28,02:20,UTC,7,1010.3,-,90,0,-1,8.5,6.9,49660,75,6.2,3.3
2022,9,28,02:30,UTC,7,1010.3,-,90,0,-1,8.6,7.1,42960,75,6.9,3.9
2022,9,28,02:40,UTC,7,1010.2,-,90,0,-1,8.6,7.1,39470,72,7.3,3.9
2022,9,28,02:50,UTC,8,1010.2,-,90,0,-1,8.7,7.1,38190,66,6.5,4.4
2022,9,28,03:00,UTC,8,1010.2,0,90,0,-1,8.7,7.1,34980,67,7.7,4.9
2022,9,28,03:10,UTC,7,1010.1,-,91,0,-1,8.7,7.2,36310,68,7,4.7
2022,9,28,03:20,UTC,7,1010.1,-,91,0,-1,8.7,7.2,36350,69,6.6,4.4
2022,9,28,03:30,UTC,7,1010.1,-,91,0,-1,8.6,7.2,28090,67,6.5,4
2022,9,28,03:40,UTC,7,1010.1,-,92,0,-1,8.6,7.3,27060,64,6.6,4.3
2022,9,28,03:50,UTC,7,1010.1,-,93,0,-1,8.5,7.4,24650,68,6.3,4.3
2022,9,28,04:00,UTC,7,1010.1,0,94,0,-1,8.5,7.6,17490,70,6.8,4
2022,9,28,04:10,UTC,7,1010,-,95,0,-1,8.5,7.7,17040,69,8.3,5.2
2022,9,28,04:20,UTC,7,1009.9,-,95,0,-1,8.5,7.8,13440,66,7,4.2
2022,9,28,04:30,UTC,7,1009.9,-,96,0,-1,8.5,7.9,14080,67,6.9,4.5
2022,9,28,04:40,UTC,7,1009.9,-,96,0,-1,8.5,7.9,15270,69,7.8,4.9
2022,9,28,04:50,UTC,7,1009.9,-,96,0,-1,8.6,8,15340,68,7.6,4.8
2022,9,28,05:00,UTC,7,1009.9,0,97,0,-1,8.6,8.1,14690,68,7.2,4.3
2022,9,28,05:10,UTC,7,1009.8,-,97,0.3,-1,8.5,8.1,9050,67,7.9,4.7
2022,9,28,05:20,UTC,7,1009.8,-,98,1.3,-1,8.5,8.2,8470,63,7.8,5
2022,9,28,05:30,UTC,7,1009.7,-,98,0.3,-1,8.6,8.2,14620,64,7.3,4.9
2022,9,28,05:40,UTC,7,1009.7,-,97,0,-1,8.8,8.4,17200,71,8.7,4.7
2022,9,28,05:50,UTC,7,1009.7,-,97,0,-1,8.8,8.4,15190,76,6.8,4.1
2022,9,28,06:00,UTC,7,1009.6,0.3,97,0,-1,9,8.6,19520,78,9,5.8
2022,9,28,06:10,UTC,7,1009.7,-,96,0,-1,9.2,8.5,22450,79,9.6,6.2
2022,9,28,06:20,UTC,7,1009.6,-,96,0,-1,9.1,8.5,22070,80,10.2,6
2022,9,28,06:30,UTC,7,1009.7,-,96,0,-1,9.3,8.6,22560,78,9,6.3
2022,9,28,06:40,UTC,7,1009.8,-,95,0,-1,9.3,8.5,28410,78,9.4,6.5
2022,9,28,06:50,UTC,7,1009.8,-,93,0,-1,9.7,8.6,27610,79,10.2,6.1
2022,9,28,07:00,UTC,7,1009.8,0,94,0,-1,9.5,8.5,25970,80,9.2,6.1
2022,9,28,07:10,UTC,7,1009.7,-,91,0,-1,9.5,8.2,16820,79,10.2,7
2022,9,28,07:20,UTC,7,1009.7,-,85,0,-1,9.8,7.4,39240,84,9.1,5.7
2022,9,28,07:30,UTC,7,1009.7,-,84,0,-1,9.7,7.2,49860,84,9.7,6.1
2022,9,28,07:40,UTC,7,1009.7,-,83,0,-1,9.8,7,45130,81,9,5.8
2022,9,28,07:50,UTC,7,1009.7,-,83,0,-1,9.8,7,50000,82,9,5.5
2022,9,28,08:00,UTC,7,1009.7,0,82,0,-1,9.9,6.9,50000,81,8.3,5.3
2022,9,28,08:10,UTC,7,1009.6,-,80,0,-1,10.6,7.3,43480,81,9.2,5.3
2022,9,28,08:20,UTC,7,1009.6,-,80,0,-1,10.3,7,50000,80,9.9,5.7
2022,9,28,08:30,UTC,7,1009.6,-,79,0,-1,10.6,7.2,44720,82,10.6,6.2
2022,9,28,08:40,UTC,7,1009.6,-,80,0,-1,10.3,7,50000,86,10.2,6
2022,9,28,08:50,UTC,7,1009.5,-,81,0,-1,10.4,7.4,45920,83,7.8,4.4
2022,9,28,09:00,UTC,7,1009.5,0,81,0,-1,10.6,7.4,40360,84,8.9,5.5
2022,9,28,09:10,UTC,5,1009.4,-,81,0,-1,10.6,7.5,50000,86,8.8,5.7
2022,9,28,09:20,UTC,3,1009.5,-,77,0,-1,11.3,7.4,42130,93,8.9,6
2022,9,28,09:30,UTC,1,1009.5,-,76,0,-1,11.3,7.3,50000,98,8.8,5.8
2022,9,28,09:40,UTC,3,1009.5,-,77,0,-1,11.7,7.9,46820,98,8.6,4.9
2022,9,28,09:50,UTC,5,1009.5,-,79,0,-1,11,7.5,50000,85,9.3,5.6
2022,9,28,10:00,UTC,7,1009.4,0,79,0,-1,11,7.4,44360,80,9.5,5.6
2022,9,28,10:10,UTC,7,1009.4,-,79,0,-1,10.9,7.3,50000,81,9.2,5.4
2022,9,28,10:20,UTC,7,1009.4,-,81,0,-1,10.9,7.8,41040,84,8.5,5.6
2022,9,28,10:30,UTC,7,1009.3,-,84,0,-1,10.5,8,46660,73,8.5,5.1
2022,9,28,10:40,UTC,7,1009.3,-,84,0,-1,10.5,7.9,42080,72,8.1,4.6
2022,9,28,10:50,UTC,7,1009.2,-,84,0,-1,10.9,8.3,30030,75,7.5,4.7
2022,9,28,11:00,UTC,7,1009.1,0,82,0,-1,11.2,8.3,49210,88,7.6,4.3
2022,9,28,11:10,UTC,7,1009.1,-,80,0,-1,11.4,8.1,40030,93,8.9,5
2022,9,28,11:20,UTC,7,1009,-,69,0,-1,11.9,6.3,42360,112,10.2,6
2022,9,28,11:30,UTC,7,1008.8,-,68,0,-1,12.2,6.5,40890,110,10.6,6.8
2022,9,28,11:40,UTC,5,1008.7,-,69,0,-1,12.9,7.3,47870,105,8.1,5.2
2022,9,28,11:50,UTC,7,1008.7,-,71,0,-1,12.6,7.5,40400,91,9.2,4.9
2022,9,28,12:00,UTC,7,1008.6,0,73,0,-1,12.5,7.7,42160,95,9.6,5.6
2022,9,28,12:10,UTC,5,1008.6,-,71,0,-1,12.3,7.2,41480,94,9,5.5
2022,9,28,12:20,UTC,5,1008.5,-,73,0,-1,12.4,7.8,47010,97,7.9,4.3
2022,9,28,12:30,UTC,7,1008.5,-,77,0,-1,11.4,7.6,26010,87,11.1,6.6
2022,9,28,12:40,UTC,7,1008.4,-,86,1.8,-1,10.9,8.6,11570,81,9.5,5.5
2022,9,28,12:50,UTC,7,1008.5,-,82,0,-1,10.9,8.1,46470,90,8.5,4.8
2022,9,28,13:00,UTC,7,1008.4,0.3,82,0,-1,10.9,8.1,47560,89,8.5,5
2022,9,28,13:10,UTC,3,1008.4,-,82,0,-1,11.3,8.3,49780,96,7.5,5
2022,9,28,13:20,UTC,5,1008.3,-,74,0,-1,11.7,7.1,50000,99,8.2,5.1
2022,9,28,13:30,UTC,5,1008.2,-,74,0,-1,12.1,7.5,50000,101,8.3,5
2022,9,28,13:40,UTC,5,1008.1,-,73,0,-1,11.6,6.9,50000,112,7.5,5.1
2022,9,28,13:50,UTC,5,1008,-,72,0,-1,11.7,6.8,50000,115,8.3,5.1
2022,9,28,14:00,UTC,5,1008.1,0,73,0,-1,11.8,7.1,50000,118,8.8,5.5
2022,9,28,14:10,UTC,7,1008.2,-,81,2,-1,10,6.9,7670,79,12.4,6.2
2022,9,28,14:20,UTC,7,1008.2,-,86,2,-1,9.5,7.2,17390,65,7.5,4.7
2022,9,28,14:30,UTC,7,1008.2,-,87,0,-1,9.4,7.4,50000,68,6.7,3.8
2022,9,28,14:40,UTC,7,1008.2,-,85,0,-1,9.3,6.9,50000,70,5.6,3.8
2022,9,28,14:50,UTC,7,1008.1,-,85,0,-1,9.3,6.9,50000,69,7.2,3.9
2022,9,28,15:00,UTC,7,1008.1,0.7,85,0,-1,9.3,7,50000,69,7.8,4.6
2022,9,28,15:10,UTC,7,1008.1,-,85,0,-1,9.3,6.9,50000,72,8.4,5.1
2022,9,28,15:20,UTC,7,1008.1,-,85,0,-1,9.3,6.9,50000,69,8.5,5.6
2022,9,28,15:30,UTC,7,1008,-,85,0,-1,9.2,6.7,50000,65,7.5,5.3
2022,9,28,15:40,UTC,3,1008,-,87,0,-1,8.9,6.8,50000,64,6.8,5
2022,9,28,15:50,UTC,1,1007.9,-,88,0,-1,8.9,7,50000,60,7.6,5.1
2022,9,28,16:00,UTC,1,1007.9,0,89,0,-1,8.9,7.1,50000,60,7.2,4.9
2022,9,28,16:10,UTC,0,1007.8,-,89,0,-1,8.7,7.1,50000,56,6.7,4.5
2022,9,28,16:20,UTC,1,1007.8,-,90,0,-1,8.7,7.1,50000,54,6.5,3.9
2022,9,28,16:30,UTC,3,1007.8,-,90,0,-1,8.6,7.2,50000,58,6,4
2022,9,28,16:40,UTC,5,1007.8,-,91,0,-1,8.6,7.2,50000,58,7.5,4.3
2022,9,28,16:50,UTC,7,1007.8,-,91,0,-1,8.6,7.3,29940,63,7.4,5.2
2022,9,28,17:00,UTC,7,1007.8,0,92,0,-1,8.6,7.4,40020,64,7.9,5
2022,9,28,17:10,UTC,7,1007.7,-,93,0,-1,8.6,7.4,47460,67,9.4,5.3
2022,9,28,17:20,UTC,7,1007.7,-,93,0,-1,8.6,7.4,19270,74,7.5,4.4
2022,9,28,17:30,UTC,8,1007.7,-,94,0.7,-1,8.5,7.6,13770,70,7.7,4.8
2022,9,28,17:40,UTC,8,1007.7,-,95,0.9,-1,8.5,7.7,15590,70,6.9,4.2
2022,9,28,17:50,UTC,7,1007.6,-,95,0.1,-1,8.5,7.7,21980,66,7.6,4.7
2022,9,28,18:00,UTC,7,1007.6,0.3,94,0.4,-1,8.5,7.6,34070,66,8.2,4.6
2022,9,28,18:10,UTC,7,1007.6,-,94,0.1,-1,8.5,7.6,40510,68,7.7,4.9
2022,9,28,18:20,UTC,7,1007.5,-,94,0,-1,8.5,7.6,35020,69,7.8,4.6
2022,9,28,18:30,UTC,7,1007.5,-,94,0,-1,8.4,7.5,50000,65,7.5,4.7
2022,9,28,18:40,UTC,7,1007.4,-,93,0,-1,8.4,7.4,50000,68,8.7,4.8
2022,9,28,18:50,UTC,7,1007.4,-,93,0,-1,8.3,7.3,50000,65,8,5.2
2022,9,28,19:00,UTC,7,1007.4,0,93,0,-1,8.3,7.2,38420,63,9.3,5.7
2022,9,28,19:10,UTC,7,1007.3,-,93,0,-1,8.2,7.1,39350,63,7.9,5.5
2022,9,28,19:20,UTC,7,1007.3,-,93,0,-1,8.2,7.1,50000,65,6.9,5.2
2022,9,28,19:30,UTC,8,1007.2,-,93,0,-1,8.2,7.2,50000,64,6.7,4.6
2022,9,28,19:40,UTC,7,1007.2,-,93,0,-1,8.1,7.1,50000,69,7.4,4.9
2022,9,28,19:50,UTC,7,1007.2,-,93,0,-1,8.2,7.2,50000,66,7.9,5.2
2022,9,28,20:00,UTC,8,1007.2,0,93,0,-1,8.2,7.2,50000,66,8.7,4.6
2022,9,28,20:10,UTC,8,1007.2,-,93,0,-1,8.2,7.2,50000,69,7.8,4.5
2022,9,28,20:20,UTC,7,1007.1,-,93,0,-1,8.3,7.1,47160,71,8.5,4.6
2022,9,28,20:30,UTC,8,1007,-,93,0,-1,8.3,7.2,39390,68,7.7,4.7
2022,9,28,20:40,UTC,8,1007.1,-,92,0,-1,8.2,7.1,46830,73,8.6,5
2022,9,28,20:50,UTC,8,1007.1,-,92,0,-1,8.3,7.1,50000,77,7.9,5.1
2022,9,28,21:00,UTC,8,1007,0,91,0,-1,8.3,6.9,50000,70,7.4,5.3
2022,9,28,21:10,UTC,7,1006.9,-,91,0,-1,8.3,6.8,50000,67,8.3,5
2022,9,28,21:20,UTC,7,1006.9,-,90,0,-1,8.2,6.7,50000,70,9.2,5.5
2022,9,28,21:30,UTC,7,1006.9,-,91,0,-1,8.2,6.7,50000,69,8.9,5.4
2022,9,28,21:40,UTC,7,1006.8,-,91,0,-1,8.1,6.7,50000,69,8.9,6
2022,9,28,21:50,UTC,7,1006.7,-,91,0,-1,8.1,6.7,50000,69,8.5,5.5
2022,9,28,22:00,UTC,8,1006.6,0,91,0,-1,8.1,6.7,50000,66,7.9,4.9
2022,9,28,22:10,UTC,8,1006.6,-,90,0,-1,8,6.5,50000,61,7.7,4.4
2022,9,28,22:20,UTC,7,1006.6,-,89,0,-1,8.1,6.4,50000,62,7.4,4.4
2022,9,28,22:30,UTC,8,1006.5,-,90,0,-1,7.9,6.4,50000,63,8.2,4.6
2022,9,28,22:40,UTC,7,1006.5,-,90,0,-1,7.9,6.3,50000,59,7.7,4.6
2022,9,28,22:50,UTC,7,1006.4,-,90,0,-1,7.9,6.3,50000,62,7.8,5.2
2022,9,28,23:00,UTC,7,1006.4,0,90,0,-1,7.8,6.2,50000,62,8.6,4.8
2022,9,28,23:10,UTC,7,1006.3,-,90,0,-1,7.7,6.2,50000,63,7.3,4.4
2022,9,28,23:20,UTC,7,1006.2,-,90,0,-1,7.7,6.2,50000,57,6.5,3.8
2022,9,28,23:30,UTC,7,1006.1,-,91,0,-1,7.6,6.2,50000,55,7.1,4.2
2022,9,28,23:40,UTC,7,1006,-,91,0,-1,7.6,6.1,50000,58,7.5,4.4
2022,9,28,23:50,UTC,7,1005.9,-,91,0,-1,7.5,6.2,50000,62,7,4.2
2022,9,29,00:00,UTC,7,1005.8,0,91,0,-1,7.5,6.1,50000,57,6.5,3.9
2022,9,29,00:10,UTC,7,1005.8,-,91,0,-1,7.5,6.1,50000,59,7.7,4.2
2022,9,29,00:20,UTC,7,1005.7,-,91,0,-1,7.5,6.1,50000,61,7.7,4.8
2022,9,29,00:30,UTC,7,1005.6,-,91,0,-1,7.4,6.1,44820,62,7.9,4.5
2022,9,29,00:40,UTC,7,1005.6,-,91,0,-1,7.5,6.1,50000,59,7.1,4.9
2022,9,29,00:50,UTC,7,1005.5,-,92,0,-1,7.5,6.2,38710,55,6.6,3.8
2022,9,29,01:00,UTC,7,1005.4,0,92,0,-1,7.5,6.3,50000,52,6.1,3.5
2022,9,29,01:10,UTC,7,1005.3,-,92,0,-1,7.5,6.3,46110,52,6.6,3.7
2022,9,29,01:20,UTC,7,1005.3,-,93,0,-1,7.6,6.4,31430,55,6.5,4
2022,9,29,01:30,UTC,7,1005.1,-,93,0,-1,7.6,6.5,36500,51,7.1,4.2
2022,9,29,01:40,UTC,7,1005.1,-,93,0,-1,7.6,6.5,32780,54,8.5,4.9
2022,9,29,01:50,UTC,7,1005,-,93,0,-1,7.6,6.6,26930,55,8.6,4.6
2022,9,29,02:00,UTC,7,1005,0,94,0,-1,7.5,6.6,27660,55,7.3,4.3
2022,9,29,02:10,UTC,8,1004.9,-,94,0.3,-1,7.4,6.6,22290,58,6.2,3.9
2022,9,29,02:20,UTC,7,1004.8,-,95,0.1,-1,7.4,6.6,17600,56,6,3.6
2022,9,29,02:30,UTC,8,1004.7,-,96,0.5,-1,7.3,6.7,16380,52,6.5,3.6
2022,9,29,02:40,UTC,8,1004.7,-,95,0.4,-1,7.3,6.6,17210,50,6.5,3.9
2022,9,29,02:50,UTC,8,1004.6,-,95,0.3,-1,7.3,6.6,20480,49,7,3.7
2022,9,29,03:00,UTC,8,1004.5,0.3,96,0.3,-1,7.2,6.6,19390,47,5.6,3.1
2022,9,29,03:10,UTC,8,1004.5,-,96,0.1,-1,7.2,6.6,19410,44,5.1,3.3
2022,9,29,03:20,UTC,7,1004.4,-,96,0.7,-1,7.2,6.6,19070,42,6.7,3.7
2022,9,29,03:30,UTC,7,1004.3,-,96,0.3,-1,7.1,6.6,16940,40,5.9,4
2022,9,29,03:40,UTC,7,1004.3,-,97,0.3,-1,7.1,6.6,17470,43,5.5,3.5
2022,9,29,03:50,UTC,8,1004.1,-,97,0.4,-1,7.1,6.6,15250,42,5.4,3.7
2022,9,29,04:00,UTC,7,1004,0.3,97,0.2,-1,7.1,6.6,13940,36,6,4
2022,9,29,04:10,UTC,7,1004,-,96,0.7,-1,7.1,6.6,23950,37,6.1,3.3
2022,9,29,04:20,UTC,7,1003.9,-,96,0.4,-1,7.1,6.5,31740,38,6.1,3.6
2022,9,29,04:30,UTC,7,1003.8,-,95,0.5,-1,7.1,6.4,30110,40,5.9,3.8
2022,9,29,04:40,UTC,7,1003.7,-,96,1,-1,7.1,6.4,21680,41,6.5,4.1
2022,9,29,04:50,UTC,8,1003.7,-,96,1.2,-1,7,6.4,16190,47,6,3.9
2022,9,29,05:00,UTC,8,1003.6,0.8,96,1.1,-1,7,6.4,16600,49,6.2,4.1
2022,9,29,05:10,UTC,8,1003.6,-,97,1,-1,7,6.5,21020,52,6.7,3.5
2022,9,29,05:20,UTC,7,1003.5,-,96,0.5,-1,6.9,6.3,27830,61,6.8,4.3
2022,9,29,05:30,UTC,7,1003.5,-,96,0.4,-1,6.9,6.3,38060,63,5.1,3.7
2022,9,29,05:40,UTC,7,1003.4,-,96,0.2,-1,6.8,6.2,34110,68,6.9,4.3
2022,9,29,05:50,UTC,8,1003.4,-,95,0,-1,6.7,5.9,30950,70,7.8,4.1
2022,9,29,06:00,UTC,8,1003.5,0.5,94,0.8,-1,6.5,5.5,21810,75,7.7,4.7
2022,9,29,06:10,UTC,8,1003.4,-,94,0.3,-1,6.3,5.4,20750,68,6.9,4.3
2022,9,29,06:20,UTC,7,1003.4,-,94,0.2,-1,6.3,5.4,25890,63,6.7,4.1
2022,9,29,06:30,UTC,7,1003.4,-,93,0.4,-1,6.3,5.2,24730,57,7.8,4.1
2022,9,29,06:40,UTC,8,1003.4,-,92,0.1,-1,6.2,5,27790,60,7.5,4.8
2022,9,29,06:50,UTC,7,1003.3,-,93,0.4,-1,6.2,5.2,25910,54,6.6,4
2022,9,29,07:00,UTC,7,1003.3,0.3,94,0.1,-1,6.2,5.3,24310,52,5.7,3.3
2022,9,29,07:10,UTC,8,1003.2,-,95,0.4,-1,6.2,5.4,24980,53,5.9,3.1
2022,9,29,07:20,UTC,7,1003.2,-,95,0.1,-1,6.2,5.4,23470,54,7.7,3.6
2022,9,29,07:30,UTC,7,1003.2,-,95,0.4,-1,6.2,5.6,20060,55,6.4,3.9
2022,9,29,07:40,UTC,8,1003.2,-,95,0.8,-1,6.2,5.6,22610,57,6.8,3.6
2022,9,29,07:50,UTC,8,1003.2,-,95,0.4,-1,6.3,5.6,18830,54,6.6,4.2
2022,9,29,08:00,UTC,8,1003.2,0.5,96,0.5,-1,6.3,5.8,17450,52,5.1,3.1
2022,9,29,08:10,UTC,8,1003.2,-,96,0.2,-1,6.4,5.9,19080,47,6.3,3.2
2022,9,29,08:20,UTC,7,1003.1,-,97,0.6,-1,6.5,6.1,30950,48,6.2,3.3
2022,9,29,08:30,UTC,7,1003.1,-,96,0.5,-1,6.5,6,20860,49,6.7,3.7
2022,9,29,08:40,UTC,8,1003,-,96,0.4,-1,6.6,6,16670,43,5.9,3.7
2022,9,29,08:50,UTC,8,1003,-,96,0.8,-1,6.7,6.1,21770,51,6.6,3.6
2022,9,29,09:00,UTC,7,1002.9,0.5,96,0.4,-1,6.8,6.2,30900,47,5.9,3.1
2022,9,29,09:10,UTC,8,1002.8,-,96,0.4,-1,6.9,6.3,26990,47,6.2,3.7
2022,9,29,09:20,UTC,7,1002.9,-,96,1,-1,6.9,6.3,22370,53,6,3.3
2022,9,29,09:30,UTC,7,1002.8,-,95,0.7,-1,7,6.3,14080,55,6.9,4
2022,9,29,09:40,UTC,8,1002.8,-,96,1.7,-1,7.1,6.4,13240,50,7,3.5
2022,9,29,09:50,UTC,8,1002.8,-,97,1,-1,7.3,6.8,13510,52,6.1,3.5
2022,9,29,10:00,UTC,8,1002.8,1,96,1,-1,7.4,6.9,12600,50,6.4,3.7
2022,9,29,10:10,UTC,8,1002.8,-,96,0.7,-1,7.4,6.9,13790,52,5.2,2.9
2022,9,29,10:20,UTC,7,1002.8,-,96,0.8,-1,7.4,6.8,11640,57,6.4,4
2022,9,29,10:30,UTC,7,1002.8,-,97,0.7,-1,7.3,6.8,14520,55,6.9,3.9
2022,9,29,10:40,UTC,7,1002.7,-,96,0.4,-1,7.3,6.8,18120,57,5.9,3.9
2022,9,29,10:50,UTC,7,1002.7,-,96,1,-1,7.5,6.9,12120,56,6.5,3.5
2022,9,29,11:00,UTC,8,1002.7,0.7,97,1,-1,7.4,6.9,13540,57,6.1,3.9
2022,9,29,11:10,UTC,8,1002.7,-,97,0.7,-1,7.5,7.1,10080,57,7.2,4.3
2022,9,29,11:20,UTC,7,1002.6,-,97,0.7,-1,7.7,7.2,10250,57,6.6,4
2022,9,29,11:30,UTC,7,1002.6,-,97,0.4,-1,7.7,7.2,13970,59,6.6,4.5
2022,9,29,11:40,UTC,7,1002.5,-,97,0.5,-1,7.7,7.3,9610,60,6.5,4.3
2022,9,29,11:50,UTC,7,1002.5,-,97,2.5,-1,7.8,7.4,7270,62,6.7,4.4
2022,9,29,12:00,UTC,8,1002.5,1,97,1.4,-1,7.9,7.5,12890,60,6.4,4.2
2022,9,29,12:10,UTC,8,1002.5,-,98,0.4,-1,7.9,7.5,17670,66,6.6,4.1
2022,9,29,12:20,UTC,7,1002.5,-,98,0.5,-1,7.8,7.5,12010,66,6.6,4.2
2022,9,29,12:30,UTC,7,1002.5,-,98,0.8,-1,7.8,7.5,30830,75,7.1,3.9
2022,9,29,12:40,UTC,7,1002.5,-,97,0.5,-1,7.9,7.5,11400,73,6.7,4
2022,9,29,12:50,UTC,7,1002.4,-,98,2,-1,7.9,7.5,10080,71,5.4,3.7
2022,9,29,13:00,UTC,7,1002.4,0.9,98,1.3,-1,7.9,7.7,15610,72,6.7,4.4
2022,9,29,13:10,UTC,7,1002.4,-,98,0.6,-1,8,7.7,16230,76,6.9,4
2022,9,29,13:20,UTC,7,1002.4,-,98,0.3,-1,8.1,7.7,9900,71,6.9,4.5
2022,9,29,13:30,UTC,7,1002.4,-,98,1.9,-1,8,7.7,12570,73,5,3.5
2022,9,29,13:40,UTC,7,1002.5,-,98,1.3,-1,8,7.8,15870,79,6.1,3.6
2022,9,29,13:50,UTC,8,1002.6,-,99,0.7,-1,8.2,8,12380,94,4.7,2.7
2022,9,29,14:00,UTC,7,1002.5,1,99,1.2,-1,8.3,8.1,16370,93,4.5,2.9
2022,9,29,14:10,UTC,8,1002.5,-,99,1.3,-1,8.3,8.3,12490,120,3.9,2.3
2022,9,29,14:20,UTC,8,1002.5,-,98,0.8,-1,8.4,8.1,16170,93,4.1,2.5
2022,9,29,14:30,UTC,7,1002.6,-,99,0.7,-1,8.3,8.1,17770,76,3.8,2.4
2022,9,29,14:40,UTC,8,1002.6,-,99,1.1,-1,8.3,8.1,12570,100,3.1,1.9
2022,9,29,14:50,UTC,8,1002.6,-,99,1.3,-1,8.3,8.2,16450,99,3.1,1.8
2022,9,29,15:00,UTC,8,1002.7,0.9,99,0.1,-1,8.3,8.1,22790,98,4.1,2
2022,9,29,15:10,UTC,8,1002.8,-,99,0,-1,8.3,8.1,24570,93,3.4,2.1
2022,9,29,15:20,UTC,8,1002.8,-,99,0.3,-1,8.3,8.1,23030,127,3.8,2.4
2022,9,29,15:30,UTC,7,1002.9,-,99,0,-1,8.3,8.1,41880,118,3.7,2
2022,9,29,15:40,UTC,8,1002.9,-,96,0,-1,8.3,7.7,50000,128,4.9,3.2
2022,9,29,15:50,UTC,7,1003,-,94,0,-1,8,7.1,50000,122,4.4,3
2022,9,29,16:00,UTC,5,1003,0.1,93,0,-1,7.9,6.9,50000,120,4.3,3.3
2022,9,29,16:10,UTC,5,1003,-,94,0,-1,7.7,6.8,50000,110,4.5,2.9
2022,9,29,16:20,UTC,3,1003.1,-,94,0,-1,7.7,6.8,50000,84,5.3,3.5
2022,9,29,16:30,UTC,5,1003.2,-,95,0,-1,7.7,6.9,50000,81,4.8,3.1
2022,9,29,16:40,UTC,5,1003.2,-,95,0,-1,7.6,6.8,50000,81,4.6,3.3
2022,9,29,16:50,UTC,7,1003.2,-,94,0,-1,7.8,6.9,50000,80,4.8,3.6
2022,9,29,17:00,UTC,3,1003.2,0,95,0,-1,7.8,7,50000,81,5.3,3.9
2022,9,29,17:10,UTC,5,1003.2,-,96,0,-1,7.6,7.1,50000,80,4.6,3.5
2022,9,29,17:20,UTC,5,1003.3,-,97,0,-1,7.6,7.1,50000,72,4.1,3.2
2022,9,29,17:30,UTC,7,1003.3,-,98,0,-1,7.4,7.2,39790,67,3.9,3
2022,9,29,17:40,UTC,7,1003.3,-,99,0,-1,7.4,7.2,30080,65,4.2,2.8
2022,9,29,17:50,UTC,7,1003.3,-,99,0,-1,7.4,7.3,35040,77,4.5,3.1
2022,9,29,18:00,UTC,7,1003.3,0,98,0,-1,7.6,7.3,46070,80,4.6,3.5
2022,9,29,18:10,UTC,5,1003.3,-,99,0,-1,7.4,7.2,41790,83,5,3.5
2022,9,29,18:20,UTC,7,1003.4,-,98,0,-1,7.4,7.2,42420,75,4.3,3.5
2022,9,29,18:30,UTC,7,1003.4,-,99,0,-1,7.4,7.2,41720,72,4.6,3.6
2022,9,29,18:40,UTC,7,1003.5,-,99,0,-1,7.4,7.3,37520,83,5.1,3.5
2022,9,29,18:50,UTC,7,1003.6,-,100,0,-1,7.4,7.4,43310,95,4.6,3.5
2022,9,29,19:00,UTC,7,1003.6,0,100,0,-1,7.4,7.3,28220,355,2.5,1.6
2022,9,29,19:10,UTC,7,1003.6,-,100,0,-1,7.4,7.4,35480,23,2.7,1.6
2022,9,29,19:20,UTC,7,1003.6,-,100,0,-1,7.4,7.4,27440,38,2.4,1.7
2022,9,29,19:30,UTC,7,1003.6,-,99,0,-1,7.6,7.4,41380,52,3.5,1.8
2022,9,29,19:40,UTC,8,1003.7,-,99,0,-1,7.5,7.4,31780,24,3.9,2.4
2022,9,29,19:50,UTC,8,1003.7,-,100,0,-1,7.5,7.5,23500,339,3.5,2.7
2022,9,29,20:00,UTC,8,1003.8,0,100,0,-1,7.5,7.5,33210,17,3.5,3
2022,9,29,20:10,UTC,7,1003.9,-,99,0.8,-1,7.7,7.5,12900,56,3.6,2.5
2022,9,29,20:20,UTC,7,1003.9,-,99,0.2,-1,7.5,7.4,31970,40,3.6,2.7
2022,9,29,20:30,UTC,7,1003.9,-,99,0,-1,7.5,7.4,26520,41,3.3,2.6
2022,9,29,20:40,UTC,8,1003.9,-,100,0,-1,7.5,7.4,28330,51,3.1,2.3
2022,9,29,20:50,UTC,8,1003.9,-,100,0,-1,7.5,7.4,25110,49,3.4,2.4
2022,9,29,21:00,UTC,8,1003.9,0.2,100,0,-1,7.4,7.4,23650,49,3.8,2.4
2022,9,29,21:10,UTC,8,1003.9,-,100,0,-1,7.4,7.4,18410,48,3.1,2.2
2022,9,29,21:20,UTC,7,1004.1,-,100,0,-1,7.3,7.3,6780,313,5.1,2.4
2022,9,29,21:30,UTC,7,1004.1,-,100,0,-1,7.4,7.4,14990,8,2.9,2.1
2022,9,29,21:40,UTC,8,1004.1,-,100,0,-1,7.3,7.3,11390,18,3.4,2.8
2022,9,29,21:50,UTC,7,1004.1,-,100,6.7,-1,7.2,7.2,3550,17,3.4,2.5
2022,9,29,22:00,UTC,7,1004.1,3.2,100,12.6,-1,7.1,7.1,2140,26,4.4,3.6
2022,9,29,22:10,UTC,7,1004.2,-,100,4.2,-1,7.1,7.1,5980,65,4,2.3
2022,9,29,22:20,UTC,8,1004.2,-,100,0.2,-1,7.2,7.2,14800,52,3.1,2
2022,9,29,22:30,UTC,7,1004.3,-,100,0,-1,7.1,7.1,9050,53,2.9,1.8
2022,9,29,22:40,UTC,7,1004.4,-,100,0,-1,7.2,7.2,15890,59,3.3,2.2
2022,9,29,22:50,UTC,7,1004.4,-,100,0,-1,7.1,7.1,10350,45,3.5,2.2
2022,9,29,23:00,UTC,8,1004.4,0.7,100,0,-1,7.1,7.1,15540,37,3.4,2.6
2022,9,29,23:10,UTC,8,1004.4,-,100,0,-1,7,7,15380,40,2.7,2
2022,9,29,23:20,UTC,8,1004.4,-,100,0,-1,7,7,11940,75,3.6,2.2
2022,9,29,23:30,UTC,7,1004.5,-,100,0,-1,7.1,7.1,17220,47,3.7,2.5
2022,9,29,23:40,UTC,7,1004.5,-,100,0,-1,7,7,10620,56,3.2,1.5
2022,9,29,23:50,UTC,8,1004.5,-,100,0,-1,7,7,9770,49,2.6,1.4
2022,9,30,00:00,UTC,8,1004.5,0,100,0,-1,6.9,6.9,9540,43,2.3,1.6
2022,9,30,00:10,UTC,8,1004.6,-,100,0,-1,7,7,11620,55,2.2,1.5
2022,9,30,00:20,UTC,8,1004.6,-,100,0,-1,7,7,13400,54,2.7,1.6
2022,9,30,00:30,UTC,7,1004.6,-,100,0,-1,6.9,6.9,15050,56,3.2,2.2
2022,9,30,00:40,UTC,7,1004.6,-,100,0,-1,7,7,15070,60,3.1,2.2
2022,9,30,00:50,UTC,8,1004.6,-,100,0,-1,7,7,14870,57,2.9,2
2022,9,30,01:00,UTC,8,1004.6,0,100,0,-1,7,7,18180,60,2.9,2.3
2022,9,30,01:10,UTC,8,1004.6,-,100,0,-1,7,7,17490,60,2.9,2.3
2022,9,30,01:20,UTC,8,1004.6,-,100,0,-1,7,7,13650,47,2.2,1.4
2022,9,30,01:30,UTC,7,1004.7,-,100,0,-1,6.9,6.9,10300,34,2.1,1.4
2022,9,30,01:40,UTC,7,1004.7,-,100,0,-1,6.9,6.9,10590,43,1.8,1.3
2022,9,30,01:50,UTC,8,1004.7,-,100,0,-1,6.9,6.9,9650,59,1.7,1.2
2022,9,30,02:00,UTC,8,1004.7,0,100,0,-1,6.7,6.7,5570,53,1.4,0.9
2022,9,30,02:10,UTC,8,1004.7,-,100,0,-1,7,7,9460,52,1.9,1.3
2022,9,30,02:20,UTC,7,1004.7,-,100,0,-1,6.6,6.6,6450,53,1.7,1
2022,9,30,02:30,UTC,7,1004.8,-,100,0,-1,6.5,6.5,5490,65,2.1,1.1
2022,9,30,02:40,UTC,7,1004.8,-,100,0,-1,6.8,6.8,11670,71,2.4,1.9
2022,9,30,02:50,UTC,7,1004.8,-,100,0,-1,6.8,6.8,16620,86,4.1,2.2
2022,9,30,03:00,UTC,5,1004.8,0,100,0,-1,6.3,6.3,8660,78,3.9,2.2
2022,9,30,03:10,UTC,3,1004.9,-,100,0,-1,6.3,6.3,10090,65,2.6,2
2022,9,30,03:20,UTC,3,1004.8,-,100,0,-1,6.6,6.6,15030,66,2.8,2.3
2022,9,30,03:30,UTC,1,1004.9,-,100,0,-1,6.5,6.5,13070,73,3.3,2.5
2022,9,30,03:40,UTC,1,1005,-,100,0,-1,6.1,6.1,5990,64,3,2.2
2022,9,30,03:50,UTC,5,1005.1,-,100,0,-1,6.4,6.4,10220,53,2.8,1.9
2022,9,30,04:00,UTC,7,1005.3,0.2,100,1,-1,6.1,6.1,4000,74,2.7,1.2
2022,9,30,04:10,UTC,7,1005.2,-,100,5.4,-1,6.6,6.6,2940,65,2.5,1.7
2022,9,30,04:20,UTC,7,1005.2,-,100,4.4,-1,6.6,6.6,6190,32,3.3,2.5
2022,9,30,04:30,UTC,7,1005.3,-,100,1.9,-1,6.7,6.7,7490,76,3,2.2
2022,9,30,04:40,UTC,7,1005.3,-,100,4.7,-1,6.9,6.9,3800,59,3.3,2.4
2022,9,30,04:50,UTC,8,1005.4,-,100,4.4,-1,6.8,6.8,3800,71,3.1,1.7
2022,9,30,05:00,UTC,8,1005.4,3.7,100,1.4,-1,6.8,6.8,6070,59,3.3,1.6
2022,9,30,05:10,UTC,7,1005.5,-,100,0,-1,6.9,6.9,23050,63,3.3,2.2
2022,9,30,05:20,UTC,7,1005.6,-,100,0,-1,6.9,6.9,12060,55,3,2
2022,9,30,05:30,UTC,7,1005.8,-,100,0.3,-1,6.9,6.9,4970,133,2,1.1
2022,9,30,05:40,UTC,7,1005.8,-,100,1.5,-1,7,7,4250,130,1.5,0.9
2022,9,30,05:50,UTC,8,1005.8,-,100,1.8,-1,7.4,7.4,6260,168,1.2,0.8
2022,9,30,06:00,UTC,8,1005.8,0.9,100,1.8,-1,7.7,7.7,8520,351,1.2,0.7
2022,9,30,06:10,UTC,7,1005.8,-,100,0.2,-1,7.9,7.9,14350,21,1.7,1.4
2022,9,30,06:20,UTC,7,1005.9,-,100,0,-1,8.2,8.2,25030,23,1.7,0.8
2022,9,30,06:30,UTC,7,1006,-,99,0,-1,8.1,8,41290,23,1.6,1.1
2022,9,30,06:40,UTC,7,1006.1,-,98,0,-1,8.3,8.1,45900,39,1.6,1.1
2022,9,30,06:50,UTC,7,1006.2,-,96,0,-1,8.3,7.8,39660,73,1.6,1.1
2022,9,30,07:00,UTC,8,1006.2,0,96,0,-1,8.3,7.7,48040,92,2.6,1.5
2022,9,30,07:10,UTC,8,1006.3,-,96,0,-1,8.3,7.7,19640,99,3.3,1.7
2022,9,30,07:20,UTC,8,1006.3,-,96,0.9,-1,8.3,7.7,12180,88,3.5,2.1
2022,9,30,07:30,UTC,7,1006.5,-,96,0.4,-1,8.3,7.7,14500,90,3.5,1.6
2022,9,30,07:40,UTC,7,1006.6,-,97,1,-1,8.4,7.9,13550,124,2.3,1.5
2022,9,30,07:50,UTC,8,1006.8,-,98,1.1,-1,8.5,8.2,14050,123,2.4,1.8
2022,9,30,08:00,UTC,8,1006.8,0.6,95,0.1,-1,8.4,7.6,25710,113,3.2,2.1
2022,9,30,08:10,UTC,8,1006.9,-,93,0,-1,8.5,7.4,39080,103,4.1,1.7
2022,9,30,08:20,UTC,8,1007,-,91,0,-1,8.7,7.3,50000,97,2.7,1.6
2022,9,30,08:30,UTC,7,1007,-,93,0,-1,8.8,7.7,50000,89,3.9,2.5
2022,9,30,08:40,UTC,7,1007,-,94,0,-1,9.1,8.2,50000,88,3.4,1.6
2022,9,30,08:50,UTC,7,1007.2,-,88,0,-1,9.5,7.5,50000,91,2.9,1.2
2022,9,30,09:00,UTC,7,1007.2,0,86,0,-1,9.2,7,50000,87,2.3,1.2
2022,9,30,09:10,UTC,3,1007.3,-,87,0,-1,9.3,7.3,49440,156,1.7,0.8
2022,9,30,09:20,UTC,1,1007.4,-,81,0,-1,9.9,6.8,44510,165,1.7,0.7
2022,9,30,09:30,UTC,1,1007.4,-,81,0,-1,10.3,7.2,50000,-,-,-
2022,9,30,09:40,UTC,5,1007.5,-,81,0,-1,10.3,7.2,50000,199,4.1,1.9
2022,9,30,09:50,UTC,7,1007.6,-,82,0,-1,10,7.1,50000,239,4.1,2.3
2022,9,30,10:00,UTC,7,1007.6,0,87,0,-1,10,7.9,50000,244,3.1,2.1
2022,9,30,10:10,UTC,7,1007.6,-,84,0,-1,10.8,8.2,50000,235,3.5,1.9
2022,9,30,10:20,UTC,7,1007.7,-,77,0,-1,10.9,6.9,50000,229,3.4,1.7
2022,9,30,10:30,UTC,7,1007.8,-,78,0,-1,11.1,7.3,46880,246,4.4,2
2022,9,30,10:40,UTC,7,1007.8,-,78,0,-1,11.6,7.8,41980,285,4.1,2.4
2022,9,30,10:50,UTC,8,1007.7,-,74,0,-1,12,7.5,46290,232,4.7,2.5
2022,9,30,11:00,UTC,7,1007.8,0,76,0,-1,12,8,50000,219,3.9,2.2
2022,9,30,11:10,UTC,7,1007.8,-,69,0,-1,12.3,6.8,42660,256,4.5,2.5
2022,9,30,11:20,UTC,7,1007.9,-,72,0,-1,12.8,7.9,40220,260,5.9,3.4
2022,9,30,11:30,UTC,7,1008,-,69,0,-1,12.3,6.7,45460,266,7.4,3.4
2022,9,30,11:40,UTC,7,1008.2,-,70,0,-1,12.4,7.1,48340,309,5.2,2.6
2022,9,30,11:50,UTC,8,1008.3,-,71,0,-1,11.7,6.5,48500,356,4.6,2.5
2022,9,30,12:00,UTC,8,1008.4,0,75,0,-1,11.3,7,50000,348,4.3,2
2022,9,30,12:10,UTC,7,1008.5,-,78,0,-1,10.4,6.8,50000,316,4.3,2.3
2022,9,30,12:20,UTC,7,1008.5,-,80,0,-1,10.2,6.9,50000,313,2.5,1.4
2022,9,30,12:30,UTC,7,1008.6,-,79,0,-1,10.4,6.9,49810,276,5.7,2.8
2022,9,30,12:40,UTC,7,1008.6,-,80,0,-1,10.5,7.2,50000,302,3.7,2.1
2022,9,30,12:50,UTC,7,1008.7,-,76,0,-1,11,7,50000,287,5.4,2.6
2022,9,30,13:00,UTC,7,1008.6,0,71,0,-1,11.6,6.5,50000,288,5.7,3.7
2022,9,30,13:10,UTC,7,1008.7,-,70,0,-1,11.4,6.2,50000,286,6.3,3.3
2022,9,30,13:20,UTC,7,1008.7,-,68,0,-1,11.6,5.9,50000,276,5.3,3.4
2022,9,30,13:30,UTC,7,1008.9,-,66,0,-1,11.8,5.7,50000,257,6.5,4.2
2022,9,30,13:40,UTC,7,1009,-,72,0,-1,11.1,6.2,50000,305,4.7,2.9
2022,9,30,13:50,UTC,7,1009,-,72,0,-1,11.1,6.2,50000,307,4.9,2.3
2022,9,30,14:00,UTC,7,1009.1,0,73,0,-1,10.7,6.2,50000,308,4.4,2.5
2022,9,30,14:10,UTC,7,1009.2,-,76,0,-1,10.6,6.5,50000,292,5.2,2.7
2022,9,30,14:20,UTC,7,1009.3,-,70,0,-1,10.7,5.5,50000,280,6.2,3.8
2022,9,30,14:30,UTC,8,1009.4,-,72,0,-1,10.6,5.7,50000,280,6.4,3.9
2022,9,30,14:40,UTC,7,1009.4,-,70,0,-1,10.5,5.3,50000,287,6.5,4.5
2022,9,30,14:50,UTC,5,1009.4,-,70,0,-1,10.2,5,50000,288,6.8,4.8
2022,9,30,15:00,UTC,5,1009.6,0,73,0,-1,10,5.5,50000,286,6,3.8
2022,9,30,15:10,UTC,7,1009.7,-,76,0,-1,9.8,5.8,50000,280,6.3,4.6
2022,9,30,15:20,UTC,7,1009.8,-,78,0,-1,9.7,6.1,50000,268,6.2,3.8
2022,9,30,15:30,UTC,7,1009.9,-,78,0,-1,9.6,6,50000,262,6.6,4.9
2022,9,30,15:40,UTC,7,1009.9,-,80,0,-1,9.5,6.2,50000,265,6.1,4.1
2022,9,30,15:50,UTC,7,1010,-,81,0,-1,9.1,6.1,50000,271,5,2.8
2022,9,30,16:00,UTC,7,1010.1,0,82,0,-1,8.9,5.9,50000,275,6.8,4.6
2022,9,30,16:10,UTC,7,1010.2,-,81,0,-1,8.9,5.8,50000,276,7.1,4.4
2022,9,30,16:20,UTC,7,1010.3,-,83,0,-1,8.7,5.9,50000,281,6.6,4.5
2022,9,30,16:30,UTC,8,1010.3,-,83,0,-1,8.6,5.9,50000,281,6.6,4.7
2022,9,30,16:40,UTC,7,1010.4,-,84,0,-1,8.6,6,50000,283,6.5,4.3
2022,9,30,16:50,UTC,7,1010.5,-,85,0,-1,8.4,6.1,50000,279,5.9,3.7
2022,9,30,17:00,UTC,8,1010.6,0,85,0,-1,8.5,6.2,50000,276,6.3,4.4
2022,9,30,17:10,UTC,8,1010.7,-,85,0,-1,8.6,6.2,50000,276,6.6,4.4
2022,9,30,17:20,UTC,8,1010.8,-,84,0,-1,8.7,6.2,50000,276,6.3,4.2
2022,9,30,17:30,UTC,7,1010.9,-,86,0,-1,8.6,6.4,50000,277,6.5,4.4
2022,9,30,17:40,UTC,7,1011,-,86,0,-1,8.5,6.4,50000,277,6,3.9
2022,9,30,17:50,UTC,7,1011.1,-,85,0,-1,8.5,6.1,50000,277,6.7,4.5
2022,9,30,18:00,UTC,7,1011.1,0,84,0,-1,8.4,5.9,50000,278,6.6,4.4
2022,9,30,18:10,UTC,7,1011.2,-,87,0,-1,8.1,6,50000,275,6.1,3.7
2022,9,30,18:20,UTC,7,1011.3,-,88,0,-1,7.8,6,50000,276,6.3,3.8
2022,9,30,18:30,UTC,3,1011.4,-,89,0,-1,7.7,5.9,50000,277,7.6,4.9
2022,9,30,18:40,UTC,1,1011.4,-,90,0,-1,7.5,5.9,50000,284,6.5,4.4
2022,9,30,18:50,UTC,0,1011.5,-,91,0,-1,7.4,6,50000,285,6.3,4.4
2022,9,30,19:00,UTC,0,1011.5,0,91,0,-1,7.1,5.8,50000,282,6.1,4.5
2022,9,30,19:10,UTC,0,1011.6,-,92,0,-1,7.1,5.9,50000,281,6.9,4.6
2022,9,30,19:20,UTC,0,1011.7,-,92,0,-1,7.1,5.8,50000,284,6.2,4.1
2022,9,30,19:30,UTC,0,1011.8,-,94,0,-1,6.8,5.9,50000,283,6.5,4.3
2022,9,30,19:40,UTC,0,1011.8,-,94,0,-1,6.6,5.7,50000,284,5.7,3.9
2022,9,30,19:50,UTC,0,1011.8,-,94,0,-1,6.6,5.7,50000,284,5.4,3.8
2022,9,30,20:00,UTC,0,1011.9,0,96,0,-1,6.3,5.6,50000,280,6.1,4.1
2022,9,30,20:10,UTC,0,1011.9,-,96,0,-1,6.2,5.6,50000,281,5.7,3.8
2022,9,30,20:20,UTC,0,1012,-,97,0,-1,6,5.5,50000,277,6,3.9
2022,9,30,20:30,UTC,0,1012.1,-,98,0,-1,5.9,5.5,50000,272,5.7,3.8
2022,9,30,20:40,UTC,0,1012.1,-,98,0,-1,6.2,5.9,50000,268,6.4,4
2022,9,30,20:50,UTC,0,1012.1,-,98,0,-1,6.1,5.7,50000,267,7.1,4.6
2022,9,30,21:00,UTC,1,1012.3,0,98,0,-1,6,5.8,50000,276,6.8,4.1
2022,9,30,21:10,UTC,3,1012.3,-,99,0,-1,6.3,6.1,50000,274,7.1,3.8
2022,9,30,21:20,UTC,5,1012.3,-,98,0,-1,6.6,6.4,50000,267,5.6,3.6
2022,9,30,21:30,UTC,7,1012.4,-,98,0,-1,6.8,6.5,50000,271,6.4,3.5
2022,9,30,21:40,UTC,7,1012.4,-,98,0,-1,6.8,6.5,50000,278,6.1,3.6
2022,9,30,21:50,UTC,7,1012.4,-,94,0,-1,7.3,6.4,50000,285,5.3,3.4
2022,9,30,22:00,UTC,7,1012.4,0,94,0,-1,6.9,6,50000,283,5.1,3.5
2022,9,30,22:10,UTC,7,1012.4,-,95,0,-1,6.8,6,50000,272,5.4,3.3
2022,9,30,22:20,UTC,8,1012.5,-,95,0,-1,6.8,6,50000,270,4.8,2.6
2022,9,30,22:30,UTC,7,1012.6,-,95,0,-1,6.7,6,50000,263,4.7,3
2022,9,30,22:40,UTC,7,1012.6,-,95,0,-1,6.7,6,50000,265,4.4,2.8
2022,9,30,22:50,UTC,7,1012.5,-,95,0,-1,6.6,5.9,50000,259,4.2,2.4
2022,9,30,23:00,UTC,8,1012.5,0,94,0,-1,6.9,6,50000,250,3.5,2
2022,9,30,23:10,UTC,8,1012.5,-,94,0,-1,6.8,5.9,50000,250,3.6,2.3
2022,9,30,23:20,UTC,7,1012.5,-,94,0,-1,6.7,5.8,50000,246,3.1,1.9
2022,9,30,23:30,UTC,5,1012.6,-,94,0,-1,6.8,5.9,50000,260,4,2.4
2022,9,30,23:40,UTC,3,1012.6,-,95,0,-1,6.3,5.6,50000,263,4,3
2022,9,30,23:50,UTC,1,1012.6,-,96,0,-1,6,5.4,50000,261,3.6,2.6
2022,10,1,00:00,UTC,0,1012.7,0,97,0,-1,5.9,5.5,50000,260,3.5,2.3
2022,10,1,00:10,UTC,3,1012.8,-,98,0,-1,5.6,5.3,50000,247,3.3,2.2
2022,10,1,00:20,UTC,5,1012.8,-,99,0,-1,5.7,5.5,50000,245,2.9,2.2
2022,10,1,00:30,UTC,7,1012.8,-,99,0,-1,5.9,5.7,50000,248,3.9,2.9
2022,10,1,00:40,UTC,7,1012.8,-,99,0,-1,6.1,5.9,50000,244,3.5,2.4
2022,10,1,00:50,UTC,7,1012.8,-,99,0,-1,6.2,6,50000,250,3.3,1.9
2022,10,1,01:00,UTC,7,1012.7,0,98,0,-1,6.2,5.9,50000,250,3.1,1.9
2022,10,1,01:10,UTC,3,1012.8,-,97,0,-1,6,5.6,50000,238,2,1.8
2022,10,1,01:20,UTC,1,1012.8,-,98,0,-1,5.7,5.5,50000,250,2.3,1.8
2022,10,1,01:30,UTC,0,1012.8,-,99,0,-1,5.4,5.2,49000,243,2.2,2
2022,10,1,01:40,UTC,0,1012.8,-,99,0,-1,5.1,5,50000,237,2,1.6
2022,10,1,01:50,UTC,0,1012.8,-,100,0,-1,5.3,5.3,50000,241,2,1.6
2022,10,1,02:00,UTC,0,1012.7,0,100,0,-1,5.2,5.2,50000,239,1.7,1.3
2022,10,1,02:10,UTC,0,1012.7,-,100,0,-1,4.8,4.8,37960,234,1.5,1.1
2022,10,1,02:20,UTC,0,1012.7,-,100,0,-1,4.7,4.7,36950,229,1.6,1.1
2022,10,1,02:30,UTC,0,1012.6,-,100,0,-1,4.8,4.8,42290,225,1.6,1.3
2022,10,1,02:40,UTC,0,1012.5,-,100,0,-1,4.9,4.9,50000,228,1.4,1.1
2022,10,1,02:50,UTC,1,1012.6,-,100,0,-1,4.9,4.9,31490,194,1.2,0.9
2022,10,1,03:00,UTC,5,1012.6,0,100,0,-1,4.9,4.9,34690,184,1.9,1.6
2022,10,1,03:10,UTC,7,1012.5,-,100,0,-1,5.3,5.3,46280,183,1.9,1.7
2022,10,1,03:20,UTC,8,1012.5,-,100,0,-1,5.4,5.4,41210,176,2,1.8
2022,10,1,03:30,UTC,8,1012.5,-,100,0,-1,5.3,5.3,38490,172,2.1,1.8
2022,10,1,03:40,UTC,7,1012.5,-,100,0,-1,5.2,5.2,30690,175,2,1.7
2022,10,1,03:50,UTC,7,1012.5,-,100,0,-1,5.3,5.3,45680,170,1.9,1.6
2022,10,1,04:00,UTC,7,1012.5,0,100,0,-1,6,6,50000,159,1.8,1.5
2022,10,1,04:10,UTC,8,1012.5,-,100,0,-1,6.1,6.1,50000,143,2.9,2.2
2022,10,1,04:20,UTC,7,1012.5,-,100,0,-1,6.2,6.2,47730,160,2.8,2.3
2022,10,1,04:30,UTC,7,1012.5,-,100,0,-1,6.4,6.4,50000,201,4,2.5
2022,10,1,04:40,UTC,8,1012.5,-,100,0,-1,7,7,50000,220,4.5,3
2022,10,1,04:50,UTC,7,1012.5,-,100,0,-1,7.4,7.4,50000,231,5.7,3.6
2022,10,1,05:00,UTC,7,1012.5,0,98,0,-1,8.3,7.9,50000,229,6.9,4.2
2022,10,1,05:10,UTC,7,1012.4,-,92,0,-1,8.9,7.7,50000,225,6,3.9
2022,10,1,05:20,UTC,7,1012.4,-,89,0,-1,9.3,7.5,50000,226,7,4.2
2022,10,1,05:30,UTC,7,1012.4,-,87,0,-1,9.5,7.4,50000,226,6.4,3.9
2022,10,1,05:40,UTC,7,1012.5,-,85,0,-1,9.8,7.4,50000,224,6.8,4.3
2022,10,1,05:50,UTC,7,1012.5,-,84,0,-1,10.3,7.8,50000,224,8,4.9
2022,10,1,06:00,UTC,7,1012.4,0,83,0,-1,10.4,7.6,50000,225,6.7,4.1
2022,10,1,06:10,UTC,7,1012.3,-,80,0,-1,10.5,7.3,50000,224,5.8,3.7
2022,10,1,06:20,UTC,7,1012.4,-,81,0,-1,10.6,7.5,50000,210,7.7,3.5
2022,10,1,06:30,UTC,7,1012.4,-,82,0,-1,10.7,7.7,50000,208,8,4.7
2022,10,1,06:40,UTC,7,1012.4,-,80,0,-1,10.8,7.5,50000,210,9.3,5.1
2022,10,1,06:50,UTC,7,1012.4,-,83,0,-1,10.8,8,50000,207,9.1,5.4
2022,10,1,07:00,UTC,7,1012.5,0,82,0,-1,10.8,7.9,50000,207,7.9,5.2
2022,10,1,07:10,UTC,7,1012.5,-,83,0,-1,10.9,8,49290,203,8.4,4.5
2022,10,1,07:20,UTC,7,1012.5,-,81,0,-1,11,7.8,50000,214,8.1,4.7
2022,10,1,07:30,UTC,7,1012.4,-,80,0,-1,11.1,7.8,50000,206,8,5.3
2022,10,1,07:40,UTC,7,1012.4,-,80,0,-1,11.2,7.9,50000,206,8,5.3
2022,10,1,07:50,UTC,7,1012.4,-,79,0,-1,11.3,7.8,50000,210,8.6,5.4
2022,10,1,08:00,UTC,7,1012.4,0,81,0,-1,11.3,8.2,50000,211,8.7,5.9
2022,10,1,08:10,UTC,7,1012.4,-,81,0,-1,11.2,8.1,50000,210,8.6,5.7
2022,10,1,08:20,UTC,7,1012.2,-,80,0,-1,11.5,8.1,50000,201,8.3,5.4
2022,10,1,08:30,UTC,7,1012.2,-,80,0,-1,11.5,8.2,50000,204,8.6,5.6
2022,10,1,08:40,UTC,7,1012.2,-,79,0,-1,11.7,8.2,50000,189,8.7,4
2022,10,1,08:50,UTC,7,1012.2,-,80,0,-1,11.7,8.3,49880,186,8.5,5
2022,10,1,09:00,UTC,7,1012.1,0,75,0,-1,11.7,7.4,50000,200,9.2,5.4
2022,10,1,09:10,UTC,7,1012.1,-,77,0,-1,12.2,8.2,50000,195,9.6,5.4
2022,10,1,09:20,UTC,7,1012.1,-,75,0,-1,12.1,7.8,50000,195,8.5,5.7
2022,10,1,09:30,UTC,7,1012.1,-,75,0,-1,11.8,7.5,50000,195,8.8,5.4
2022,10,1,09:40,UTC,7,1012,-,72,0,-1,12.1,7.2,45900,180,9.4,5
2022,10,1,09:50,UTC,7,1012,-,74,0,-1,12.6,8.1,43040,186,7.8,4.2
2022,10,1,10:00,UTC,7,1012,0,70,0,-1,12.6,7.3,40220,181,8.4,5.3
2022,10,1,10:10,UTC,7,1011.9,-,70,0,-1,12.8,7.5,39520,188,9.2,5.2
2022,10,1,10:20,UTC,7,1011.8,-,71,0,-1,13.6,8.4,40610,181,7.4,4.3
2022,10,1,10:30,UTC,5,1011.8,-,72,0,-1,12.9,8,47010,183,7.9,4.7
2022,10,1,10:40,UTC,5,1011.8,-,70,0,-1,13,7.7,41050,184,8,5
2022,10,1,10:50,UTC,5,1011.7,-,73,0,-1,12.6,8,50000,182,8,5.2
2022,10,1,11:00,UTC,7,1011.5,0,71,0,-1,13.2,8.1,38380,185,7.5,4.2
2022,10,1,11:10,UTC,3,1011.5,-,71,0,-1,12.8,7.6,40750,173,8.6,5.6
2022,10,1,11:20,UTC,1,1011.3,-,71,0,-1,12.7,7.5,44460,181,8.4,4.7
2022,10,1,11:30,UTC,0,1011.2,-,72,0,-1,12.9,8,45790,180,7.6,4.4
2022,10,1,11:40,UTC,1,1011.1,-,70,0,-1,12.8,7.4,46820,187,7.9,5.1
2022,10,1,11:50,UTC,0,1011,-,68,0,-1,13.6,7.9,42740,188,6.3,2.9
2022,10,1,12:00,UTC,0,1011,0,71,0,-1,12.9,7.7,47510,174,6.4,4
2022,10,1,12:10,UTC,0,1010.8,-,69,0,-1,13.2,7.7,46430,187,7.1,4.5
2022,10,1,12:20,UTC,0,1010.8,-,71,0,-1,13,7.8,48930,172,7.9,4.9
2022,10,1,12:30,UTC,0,1010.7,-,70,0,-1,12.8,7.5,50000,175,7.3,4.8
2022,10,1,12:40,UTC,0,1010.6,-,71,0,-1,12.9,7.8,49570,178,7.2,4.2
2022,10,1,12:50,UTC,0,1010.6,-,70,0,-1,12.9,7.5,50000,174,6.3,4.4
2022,10,1,13:00,UTC,0,1010.6,0,70,0,-1,12.9,7.5,47790,175,6.2,4.1
2022,10,1,13:10,UTC,0,1010.6,-,69,0,-1,13,7.3,41090,187,6.6,4.3
2022,10,1,13:20,UTC,0,1010.5,-,71,0,-1,12.8,7.6,47970,183,7.6,5
2022,10,1,13:30,UTC,0,1010.4,-,70,0,-1,13,7.7,49050,166,6.4,4.1
2022,10,1,13:40,UTC,0,1010.3,-,70,0,-1,12.8,7.4,50000,166,6.5,4.3
2022,10,1,13:50,UTC,1,1010.3,-,71,0,-1,12.8,7.7,50000,180,6.9,4
2022,10,1,14:00,UTC,1,1010.2,0,71,0,-1,12.5,7.5,49720,176,6.4,4.2
2022,10,1,14:10,UTC,1,1010.2,-,74,0,-1,12.2,7.6,50000,172,5.3,3.7
2022,10,1,14:20,UTC,3,1010.1,-,74,0,-1,12.4,7.9,50000,161,3.8,2.4
2022,10,1,14:30,UTC,3,1010,-,74,0,-1,12.3,7.8,50000,162,5.8,3.6
2022,10,1,14:40,UTC,3,1010,-,75,0,-1,12,7.7,50000,161,5.8,3.7
2022,10,1,14:50,UTC,1,1010,-,75,0,-1,12.1,7.8,50000,160,5.4,3.4
2022,10,1,15:00,UTC,3,1009.9,0,77,0,-1,12,8.1,50000,152,4.8,3.1
2022,10,1,15:10,UTC,5,1009.8,-,78,0,-1,11.8,8.2,50000,146,4,2.6
2022,10,1,15:20,UTC,5,1009.8,-,79,0,-1,11.7,8.2,50000,143,3.8,2.5
2022,10,1,15:30,UTC,5,1009.8,-,81,0,-1,11.6,8.3,50000,146,4.2,2.9
2022,10,1,15:40,UTC,3,1009.8,-,82,0,-1,11.5,8.5,50000,147,3.4,2.2
2022,10,1,15:50,UTC,5,1009.7,-,83,0,-1,11.4,8.6,50000,137,3.8,2.4
2022,10,1,16:00,UTC,5,1009.6,0,84,0,-1,11.3,8.6,50000,139,3.2,2.4
2022,10,1,16:10,UTC,5,1009.6,-,84,0,-1,11.3,8.6,50000,142,3.3,2.5
2022,10,1,16:20,UTC,3,1009.5,-,84,0,-1,11.2,8.6,50000,141,3.4,2.4
2022,10,1,16:30,UTC,5,1009.5,-,84,0,-1,11.1,8.6,50000,145,3.4,2.3
2022,10,1,16:40,UTC,5,1009.5,-,85,0,-1,11.2,8.7,50000,144,3.1,2.2
2022,10,1,16:50,UTC,7,1009.4,-,84,0,-1,11.3,8.8,50000,149,3.5,2.3
2022,10,1,17:00,UTC,7,1009.4,0,81,0,-1,11.5,8.2,50000,170,4.7,3.2
2022,10,1,17:10,UTC,5,1009.4,-,77,0,-1,11.4,7.5,50000,173,5.2,3.7
2022,10,1,17:20,UTC,1,1009.4,-,77,0,-1,11.3,7.5,50000,175,5.2,3.5
2022,10,1,17:30,UTC,1,1009.4,-,80,0,-1,10.9,7.6,50000,183,5.6,3.2
2022,10,1,17:40,UTC,3,1009.4,-,78,0,-1,11.2,7.5,50000,187,6.2,3.8
2022,10,1,17:50,UTC,3,1009.4,-,78,0,-1,11.2,7.4,50000,191,5.5,3.9
2022,10,1,18:00,UTC,3,1009.4,0,78,0,-1,11.1,7.4,50000,193,5.2,3.4
2022,10,1,18:10,UTC,3,1009.4,-,79,0,-1,11,7.4,50000,186,4.6,3.2
2022,10,1,18:20,UTC,3,1009.4,-,79,0,-1,11,7.5,50000,186,5.4,3.4
2022,10,1,18:30,UTC,3,1009.4,-,80,0,-1,11,7.6,50000,191,5.7,3.2
2022,10,1,18:40,UTC,5,1009.4,-,79,0,-1,11.1,7.6,50000,196,5.2,3.4
2022,10,1,18:50,UTC,5,1009.5,-,79,0,-1,11.1,7.7,50000,198,5.2,3
2022,10,1,19:00,UTC,7,1009.5,0,78,0,-1,11.2,7.6,50000,201,6.6,3.9
2022,10,1,19:10,UTC,5,1009.4,-,79,0,-1,10.9,7.4,50000,207,5.6,3.5
2022,10,1,19:20,UTC,5,1009.4,-,79,0,-1,10.7,7.3,50000,198,5.9,3.2
2022,10,1,19:30,UTC,3,1009.3,-,80,0,-1,10.5,7.2,50000,192,4.3,2.8
2022,10,1,19:40,UTC,3,1009.3,-,81,0,-1,10.3,7.1,50000,194,3.8,2.7
2022,10,1,19:50,UTC,3,1009.3,-,82,0,-1,10.2,7.3,50000,179,3.5,2.3
2022,10,1,20:00,UTC,5,1009.3,0,84,0,-1,10.2,7.5,50000,179,4.3,2.9
2022,10,1,20:10,UTC,5,1009.3,-,85,0,-1,10.3,7.9,50000,171,4.5,3
2022,10,1,20:20,UTC,7,1009.3,-,85,0,-1,10.6,8.1,50000,174,4.6,3
2022,10,1,20:30,UTC,7,1009.3,-,84,0,-1,10.7,8.2,50000,174,4.5,3
2022,10,1,20:40,UTC,7,1009.3,-,84,0,-1,10.9,8.3,50000,174,5.1,3.5
2022,10,1,20:50,UTC,7,1009.2,-,84,0,-1,10.9,8.4,50000,178,5,3.5
2022,10,1,21:00,UTC,7,1009.2,0,86,0,-1,10.6,8.4,50000,173,3.8,2.3
2022,10,1,21:10,UTC,7,1009.2,-,87,0,-1,10.8,8.6,50000,179,5.5,3.5
2022,10,1,21:20,UTC,7,1009.3,-,87,0,-1,10.8,8.6,50000,178,6,3.9
2022,10,1,21:30,UTC,7,1009.2,-,86,0,-1,10.9,8.7,50000,175,5.8,4.1
2022,10,1,21:40,UTC,7,1009.1,-,86,0,-1,10.7,8.4,50000,175,5,3.2
2022,10,1,21:50,UTC,5,1009.1,-,86,0,-1,10.4,8.2,50000,181,4.2,3
2022,10,1,22:00,UTC,3,1009.1,0,88,0,-1,10.1,8.2,49810,181,4.7,2.9
2022,10,1,22:10,UTC,5,1009,-,88,0,-1,10.1,8.2,50000,183,4.7,2.5
2022,10,1,22:20,UTC,5,1009,-,87,0,-1,10.1,8.1,50000,198,3.8,2.3
2022,10,1,22:30,UTC,7,1009,-,87,0,-1,10.1,8.1,50000,187,4.3,2.5
2022,10,1,22:40,UTC,7,1008.9,-,86,0,-1,10.3,8.1,50000,180,4.5,3.1
2022,10,1,22:50,UTC,7,1008.9,-,87,0,-1,10.1,8.1,50000,186,3.6,2.3
2022,10,1,23:00,UTC,7,1008.9,0,88,0,-1,10,8,50000,183,4.6,2.9
2022,10,1,23:10,UTC,7,1008.9,-,89,0,-1,10,8.3,50000,165,4.3,2.7
2022,10,1,23:20,UTC,7,1008.8,-,89,0,-1,10.2,8.4,49190,173,3.7,2.5
2022,10,1,23:30,UTC,7,1008.7,-,89,0,-1,10.2,8.5,50000,158,4.1,2.7
2022,10,1,23:40,UTC,7,1008.7,-,89,0,-1,10.3,8.6,50000,145,4.5,2.7
2022,10,1,23:50,UTC,7,1008.7,-,90,0,-1,10.3,8.7,50000,137,3.8,3
2022,10,2,00:00,UTC,7,1008.6,0,90,0,-1,10.3,8.8,46710,145,4.3,3
2022,10,2,00:10,UTC,7,1008.6,-,91,0,-1,10.3,8.8,45040,157,5,2.5
2022,10,2,00:20,UTC,7,1008.5,-,90,0,-1,10.3,8.7,44940,160,5.2,3
2022,10,2,00:30,UTC,7,1008.5,-,89,0,-1,10.5,8.8,48230,166,5.1,3.5
2022,10,2,00:40,UTC,7,1008.4,-,89,0,-1,10.5,8.7,50000,161,5.5,3.5
2022,10,2,00:50,UTC,7,1008.4,-,89,0,-1,10.5,8.7,43780,168,5.2,3.2
2022,10,2,01:00,UTC,7,1008.3,0,89,0,-1,10.4,8.7,43880,165,4.8,3.1
2022,10,2,01:10,UTC,8,1008.4,-,90,0,-1,10.2,8.6,48600,159,4.7,2.6
2022,10,2,01:20,UTC,8,1008.4,-,90,0,-1,10.2,8.7,47110,152,3.1,2.2
2022,10,2,01:30,UTC,8,1008.4,-,91,0,-1,10,8.7,44390,145,3.4,2.5
2022,10,2,01:40,UTC,8,1008.4,-,91,0,-1,10.1,8.6,48240,142,2.6,1.7
2022,10,2,01:50,UTC,8,1008.3,-,91,0,-1,10,8.6,49870,135,2.9,2.1
2022,10,2,02:00,UTC,7,1008.2,0,92,0,-1,9.9,8.6,50000,124,3.4,2.5
2022,10,2,02:10,UTC,8,1008.2,-,92,0,-1,9.8,8.6,48800,113,3.1,2.3
2022,10,2,02:20,UTC,8,1008.3,-,92,0,-1,9.7,8.5,48450,121,3,2
2022,10,2,02:30,UTC,8,1008.4,-,93,0,-1,9.6,8.6,50000,141,2.8,2
2022,10,2,02:40,UTC,8,1008.4,-,93,0,-1,9.7,8.6,45290,143,2.8,2
2022,10,2,02:50,UTC,8,1008.4,-,93,0,-1,9.8,8.6,50000,145,4,2.5
2022,10,2,03:00,UTC,7,1008.4,0,92,0,-1,9.8,8.6,50000,139,3.3,2.3
2022,10,2,03:10,UTC,8,1008.4,-,93,0,-1,9.7,8.6,49730,133,3,2.2
2022,10,2,03:20,UTC,8,1008.4,-,93,0,-1,9.8,8.7,50000,139,3.1,2.1
2022,10,2,03:30,UTC,8,1008.4,-,93,0,-1,9.8,8.7,50000,125,2.9,2.1
2022,10,2,03:40,UTC,8,1008.4,-,92,0,-1,9.9,8.6,50000,119,3.3,2.2
2022,10,2,03:50,UTC,8,1008.4,-,92,0,-1,9.7,8.5,50000,115,3.3,2.4
2022,10,2,04:00,UTC,7,1008.4,0,93,0,-1,9.6,8.5,50000,114,3.2,2.5
2022,10,2,04:10,UTC,8,1008.5,-,93,0,-1,9.5,8.5,48640,118,3.2,2.5
2022,10,2,04:20,UTC,8,1008.5,-,94,0,-1,9.4,8.5,50000,125,3.5,2.9
2022,10,2,04:30,UTC,7,1008.4,-,94,0,-1,9.4,8.4,50000,123,3.8,2.9
2022,10,2,04:40,UTC,7,1008.4,-,94,0,-1,9.4,8.4,50000,125,3.7,2.9
2022,10,2,04:50,UTC,7,1008.4,-,94,0,-1,9.3,8.4,50000,128,3.5,2.8
2022,10,2,05:00,UTC,7,1008.4,0,94,0,-1,9.3,8.5,50000,138,3.4,2.7
2022,10,2,05:10,UTC,8,1008.5,-,95,0,-1,9.3,8.4,46090,142,3.7,2.9
2022,10,2,05:20,UTC,8,1008.6,-,92,0,-1,9.6,8.4,50000,146,4.4,3.5
2022,10,2,05:30,UTC,8,1008.6,-,91,0,-1,9.8,8.4,50000,143,4.1,3.2
2022,10,2,05:40,UTC,8,1008.7,-,90,0,-1,10,8.4,50000,146,4.7,3.2
2022,10,2,05:50,UTC,8,1008.7,-,88,0,-1,10.3,8.4,50000,158,5.2,3.4
2022,10,2,06:00,UTC,7,1008.7,0,84,0,-1,10.7,8.1,49600,160,6,3.4
2022,10,2,06:10,UTC,7,1008.7,-,83,0,-1,10.9,8.1,48960,161,6,3.1
2022,10,2,06:20,UTC,7,1008.7,-,82,0,-1,11.1,8,50000,152,5.7,3.4
2022,10,2,06:30,UTC,5,1008.7,-,83,0,-1,10.8,8.1,50000,151,4.8,3.2
2022,10,2,06:40,UTC,7,1008.7,-,84,0,-1,10.9,8.3,50000,148,5.1,3.6
2022,10,2,06:50,UTC,7,1008.8,-,85,0,-1,10.9,8.4,50000,153,4.9,3.4
2022,10,2,07:00,UTC,7,1008.8,0,84,0,-1,10.9,8.3,50000,148,5.5,4.1
2022,10,2,07:10,UTC,7,1008.8,-,83,0,-1,11.1,8.2,45990,149,5,3.9
2022,10,2,07:20,UTC,7,1008.8,-,81,0,-1,11.3,8.1,46490,149,5.6,4
2022,10,2,07:30,UTC,7,1008.8,-,79,0,-1,11.5,8,49210,153,6.2,4.3
2022,10,2,07:40,UTC,7,1008.7,-,77,0,-1,11.6,7.8,48960,150,6.2,4.2
2022,10,2,07:50,UTC,7,1008.8,-,75,0,-1,11.7,7.4,50000,150,6.8,5
2022,10,2,08:00,UTC,7,1008.8,0,77,0,-1,11.7,7.7,50000,151,7,5.2
2022,10,2,08:10,UTC,7,1008.8,-,75,0,-1,11.8,7.6,50000,145,7.7,4.9
2022,10,2,08:20,UTC,5,1008.8,-,74,0,-1,12.4,8,37390,149,6.6,5
2022,10,2,08:30,UTC,5,1008.8,-,71,0,-1,12.5,7.4,43720,149,7.8,5.4
2022,10,2,08:40,UTC,5,1008.9,-,73,0,-1,12,7.4,45180,148,7.6,5.3
2022,10,2,08:50,UTC,5,1008.9,-,75,0,-1,11.8,7.4,46330,142,7.4,5.3
2022,10,2,09:00,UTC,5,1008.9,0,74,0,-1,11.8,7.3,49490,144,7.2,4.7
2022,10,2,09:10,UTC,7,1009,-,73,0,-1,11.9,7.2,50000,147,6.9,4.6
2022,10,2,09:20,UTC,7,1009,-,76,0,-1,12.2,8.1,48930,150,7.6,5.1
2022,10,2,09:30,UTC,7,1008.9,-,73,0,-1,11.9,7.3,48180,131,6.5,4.6
2022,10,2,09:40,UTC,7,1009,-,72,0,-1,11.9,7.1,50000,140,7.1,5
2022,10,2,09:50,UTC,7,1009,-,69,0,-1,12.5,6.9,50000,143,6.2,4.3
2022,10,2,10:00,UTC,5,1009,0,71,0,-1,12.3,7.2,50000,153,6.9,5.2
2022,10,2,10:10,UTC,7,1008.9,-,65,0,-1,12.4,6.1,46770,148,5.9,4
2022,10,2,10:20,UTC,7,1008.9,-,66,0,-1,12.1,5.9,50000,138,6.5,4.5
2022,10,2,10:30,UTC,7,1009,-,68,0,-1,12.1,6.5,43760,134,6.4,4.1
2022,10,2,10:40,UTC,5,1009,-,71,0,-1,11.6,6.5,50000,137,6.5,4.1
2022,10,2,10:50,UTC,5,1009,-,70,0,-1,11.8,6.5,50000,138,7.1,4.4
2022,10,2,11:00,UTC,5,1008.9,0,69,0,-1,12.2,6.7,50000,125,6.3,3.8
2022,10,2,11:10,UTC,5,1008.9,-,69,0,-1,12.2,6.6,44860,134,6.4,4.1
2022,10,2,11:20,UTC,5,1008.9,-,67,0,-1,12.2,6.2,50000,146,6.5,4.7
2022,10,2,11:30,UTC,3,1008.9,-,69,0,-1,12.2,6.5,45280,136,6.2,4.4
2022,10,2,11:40,UTC,1,1008.9,-,70,0,-1,11.9,6.7,50000,131,6.9,4.1
2022,10,2,11:50,UTC,1,1008.9,-,70,0,-1,11.8,6.5,48910,119,6.3,4.2
2022,10,2,12:00,UTC,3,1009,0,67,0,-1,11.9,6.1,46680,127,7.3,4.7
2022,10,2,12:10,UTC,5,1009,-,72,0,-1,11.7,6.8,50000,135,6.1,4.4
2022,10,2,12:20,UTC,5,1009,-,71,0,-1,11.9,6.8,48410,132,6.1,3.7
2022,10,2,12:30,UTC,5,1009,-,70,0,-1,11.7,6.4,50000,129,5.9,4.2
2022,10,2,12:40,UTC,3,1009.1,-,71,0,-1,11.9,6.7,50000,135,7,4.3
2022,10,2,12:50,UTC,3,1009.1,-,73,0,-1,11.6,6.8,50000,122,6.9,4.5
2022,10,2,13:00,UTC,1,1009.1,0,71,0,-1,11.4,6.4,50000,110,7.4,4.6
2022,10,2,13:10,UTC,1,1009.2,-,72,0,-1,11.4,6.5,50000,112,6.7,3.6
2022,10,2,13:20,UTC,3,1009.2,-,72,0,-1,11.3,6.4,50000,112,6.7,4.8
2022,10,2,13:30,UTC,5,1009.3,-,72,0,-1,11.3,6.3,50000,117,7.6,5.2
2022,10,2,13:40,UTC,7,1009.3,-,71,0,-1,11.2,6.1,50000,111,8,4.6
2022,10,2,13:50,UTC,7,1009.3,-,71,0,-1,11,5.9,50000,116,7,4.6
2022,10,2,14:00,UTC,7,1009.4,0,72,0,-1,11,6.1,50000,118,6.5,4.7
2022,10,2,14:10,UTC,7,1009.4,-,73,0,-1,11,6.3,50000,126,6.4,3.8
2022,10,2,14:20,UTC,7,1009.5,-,73,0,-1,10.9,6.2,42610,121,6,3.8
2022,10,2,14:30,UTC,7,1009.5,-,72,0,-1,10.8,6.1,35200,124,6.5,4.2
2022,10,2,14:40,UTC,7,1009.5,-,73,0,-1,10.8,6,43000,120,6.7,4.2
2022,10,2,14:50,UTC,7,1009.5,-,74,0,-1,10.8,6.3,44340,116,6.6,4.6
2022,10,2,15:00,UTC,7,1009.6,0,74,0,-1,10.8,6.3,45850,109,6.2,3.6
2022,10,2,15:10,UTC,7,1009.6,-,75,0,-1,10.7,6.4,47620,111,5.6,3.1
2022,10,2,15:20,UTC,7,1009.6,-,76,0,-1,10.7,6.6,50000,115,5.6,3.2
2022,10,2,15:30,UTC,7,1009.6,-,77,0,-1,10.6,6.7,50000,114,4.8,2.8
2022,10,2,15:40,UTC,7,1009.5,-,76,0,-1,10.7,6.7,50000,109,4.5,2.9
2022,10,2,15:50,UTC,7,1009.4,-,75,0,-1,10.6,6.4,50000,104,4.7,2.8
2022,10,2,16:00,UTC,7,1009.5,0,75,0,-1,10.5,6.2,50000,97,4.6,2.8
2022,10,2,16:10,UTC,7,1009.5,-,74,0,-1,10.4,6,50000,96,4.9,3.3
2022,10,2,16:20,UTC,7,1009.5,-,75,0,-1,10.3,6,50000,93,5.1,3.7
2022,10,2,16:30,UTC,7,1009.7,-,76,0,-1,10.1,5.9,50000,90,4.7,3.4
2022,10,2,16:40,UTC,5,1009.7,-,77,0,-1,9.8,6.1,50000,88,5.4,3.7
2022,10,2,16:50,UTC,5,1009.8,-,79,0,-1,9.7,6.2,50000,95,5.1,3.6
2022,10,2,17:00,UTC,7,1009.9,0,80,0,-1,9.6,6.3,50000,96,5.2,3.6
2022,10,2,17:10,UTC,7,1010,-,81,0,-1,9.5,6.3,50000,94,5.2,4
2022,10,2,17:20,UTC,8,1010,-,81,0,-1,9.4,6.3,50000,90,4.8,3.5
2022,10,2,17:30,UTC,7,1010.1,-,82,0,-1,9.3,6.3,50000,90,4.9,3.3
2022,10,2,17:40,UTC,7,1010,-,81,0,-1,9.3,6.3,50000,87,4.9,3.2
2022,10,2,17:50,UTC,7,1010,-,81,0,-1,9.3,6.3,50000,79,4.7,3
2022,10,2,18:00,UTC,7,1010,0,82,0,-1,9.3,6.3,50000,79,4.8,3.2
2022,10,2,18:10,UTC,7,1010.1,-,82,0,-1,9.2,6.3,50000,79,4.5,3
2022,10,2,18:20,UTC,8,1010.2,-,85,0,-1,8.8,6.4,50000,84,4.5,2.9
2022,10,2,18:30,UTC,7,1010.2,-,83,0,-1,9.2,6.5,50000,77,4,2.7
2022,10,2,18:40,UTC,7,1010.2,-,83,0,-1,9.2,6.5,50000,81,4.2,2.8
2022,10,2,18:50,UTC,7,1010.3,-,84,0,-1,9,6.4,50000,87,4.2,2.7
2022,10,2,19:00,UTC,7,1010.3,0,88,0,-1,8.4,6.5,50000,88,3.5,2.2
2022,10,2,19:10,UTC,7,1010.4,-,90,0,-1,8.3,6.7,50000,85,3.1,2
2022,10,2,19:20,UTC,7,1010.5,-,89,0,-1,8.3,6.6,50000,71,3.1,2.2
2022,10,2,19:30,UTC,7,1010.5,-,91,0,-1,8,6.7,45240,67,2.9,1.9
2022,10,2,19:40,UTC,7,1010.5,-,90,0,-1,8.2,6.6,50000,68,3.2,2.5
2022,10,2,19:50,UTC,7,1010.6,-,87,0,-1,8.7,6.6,45110,75,3.5,2.5
2022,10,2,20:00,UTC,7,1010.6,0,87,0,-1,8.6,6.5,45660,78,3.8,2.4
2022,10,2,20:10,UTC,7,1010.6,-,90,0,-1,8,6.4,47390,74,3.3,2.2
2022,10,2,20:20,UTC,7,1010.7,-,92,0,-1,7.8,6.5,43680,72,3.1,2.4
2022,10,2,20:30,UTC,7,1010.7,-,93,0,-1,7.5,6.5,41740,66,3,2.3
2022,10,2,20:40,UTC,7,1010.7,-,93,0,-1,7.6,6.6,48300,67,3.1,2.6
2022,10,2,20:50,UTC,7,1010.8,-,93,0,-1,7.4,6.4,48080,65,3.4,2.7
2022,10,2,21:00,UTC,7,1010.8,0,93,0,-1,7.5,6.4,45750,72,3.5,2.7
2022,10,2,21:10,UTC,7,1010.7,-,89,0,-1,8.1,6.4,48820,72,3.9,2.9
2022,10,2,21:20,UTC,7,1010.8,-,87,0,-1,8,6.1,50000,73,3.8,2.9
2022,10,2,21:30,UTC,7,1010.9,-,87,0,-1,8,5.9,50000,69,4.8,3
2022,10,2,21:40,UTC,7,1010.9,-,91,0,-1,7.3,5.9,43540,68,3.7,3
2022,10,2,21:50,UTC,7,1010.9,-,93,0,-1,6.9,5.9,40500,71,3.6,3
2022,10,2,22:00,UTC,7,1010.9,0,93,0,-1,7.1,6.1,45420,64,3.5,2.8
2022,10,2,22:10,UTC,7,1010.9,-,93,0,-1,6.9,5.9,44290,65,3.7,2.8
2022,10,2,22:20,UTC,7,1011,-,93,0,-1,6.9,5.9,47810,68,3.9,3.2
2022,10,2,22:30,UTC,7,1011,-,89,0,-1,7.5,5.8,50000,70,3.4,3.1
2022,10,2,22:40,UTC,8,1011.1,-,90,0,-1,7.3,5.8,50000,66,3.6,2.9
2022,10,2,22:50,UTC,8,1011.2,-,89,0,-1,7.4,5.7,50000,62,3.7,3
2022,10,2,23:00,UTC,8,1011.2,0,91,0,-1,7,5.6,47480,56,3.8,2.6
2022,10,2,23:10,UTC,7,1011.3,-,91,0,-1,6.9,5.5,48370,56,5,3.1
2022,10,2,23:20,UTC,7,1011.3,-,92,0,-1,6.9,5.7,49420,57,4.9,3.2
2022,10,2,23:30,UTC,8,1011.4,-,93,0,-1,6.7,5.7,49270,57,4.5,2.7
2022,10,2,23:40,UTC,7,1011.3,-,93,0,-1,6.6,5.6,48210,57,4.8,3.1
2022,10,2,23:50,UTC,7,1011.4,-,93,0,-1,6.5,5.4,50000,56,4.5,3
2022,10,3,00:00,UTC,7,1011.3,0,95,0,-1,6.1,5.3,46760,49,4.6,2.4
2022,10,3,00:10,UTC,5,1011.2,-,95,0,-1,6,5.3,34140,47,3.9,2.7
2022,10,3,00:20,UTC,7,1011.2,-,95,0,-1,5.9,5.1,44880,50,3.7,2.3
2022,10,3,00:30,UTC,5,1011.2,-,96,0,-1,5.5,5,27730,49,3.5,2.3
2022,10,3,00:40,UTC,7,1011.2,-,97,0,-1,5.4,5,29250,48,4.3,2.5
2022,10,3,00:50,UTC,7,1011.1,-,96,0,-1,5.5,4.9,39120,45,3.8,2.6
2022,10,3,01:00,UTC,8,1011.3,0,97,0,-1,5.5,5,39590,47,4.1,2.5
2022,10,3,01:10,UTC,7,1011.3,-,96,0,-1,5.8,5.1,49700,42,4.3,2.7
2022,10,3,01:20,UTC,8,1011.2,-,96,0,-1,5.7,5.1,41820,34,4,3
2022,10,3,01:30,UTC,8,1011.3,-,95,0,-1,5.9,5.2,50000,31,4.4,3.3
2022,10,3,01:40,UTC,8,1011.3,-,94,0,-1,6,5.2,50000,29,5,3.9
2022,10,3,01:50,UTC,8,1011.3,-,94,0,-1,6.1,5.1,50000,35,5.4,3.6
2022,10,3,02:00,UTC,7,1011.3,0,92,0,-1,6.2,5,50000,35,5.7,4
2022,10,3,02:10,UTC,7,1011.4,-,92,0,-1,6.2,5,50000,37,5.4,3.7
2022,10,3,02:20,UTC,7,1011.4,-,92,0,-1,6.1,4.9,50000,38,5.6,3.7
2022,10,3,02:30,UTC,5,1011.4,-,92,0,-1,6,4.8,50000,34,5.2,3.8
2022,10,3,02:40,UTC,5,1011.4,-,92,0,-1,6,4.8,49080,37,4.9,3.7
2022,10,3,02:50,UTC,5,1011.5,-,92,0,-1,5.9,4.7,44950,38,5.4,3.6
2022,10,3,03:00,UTC,7,1011.5,0,92,0,-1,5.9,4.6,50000,39,5.2,3.7
2022,10,3,03:10,UTC,7,1011.5,-,92,0,-1,5.8,4.5,50000,36,4.7,3.5
2022,10,3,03:20,UTC,7,1011.4,-,92,0,-1,5.7,4.5,50000,31,5,3.8
2022,10,3,03:30,UTC,7,1011.4,-,92,0,-1,5.7,4.5,49370,33,5.5,4
2022,10,3,03:40,UTC,5,1011.5,-,91,0,-1,5.7,4.3,50000,31,5.2,3.9
2022,10,3,03:50,UTC,7,1011.5,-,92,0,-1,5.5,4.3,49350,30,4.8,3.8
2022,10,3,04:00,UTC,5,1011.6,0,93,0,-1,5.4,4.3,45520,27,4.9,3.6
2022,10,3,04:10,UTC,7,1011.6,-,94,0,-1,5.3,4.4,39970,26,4.8,3.6
2022,10,3,04:20,UTC,7,1011.7,-,94,0,-1,5.3,4.3,36200,28,5.4,3.5
2022,10,3,04:30,UTC,7,1011.7,-,94,0,-1,5.2,4.3,34250,25,5.1,3.8
2022,10,3,04:40,UTC,7,1011.7,-,95,0,-1,5.2,4.4,35370,27,5.6,4
2022,10,3,04:50,UTC,7,1011.8,-,95,0,-1,5.3,4.5,30560,28,5.3,3.8
2022,10,3,05:00,UTC,5,1011.9,0,95,0,-1,5.3,4.5,26120,34,4.9,3.4
2022,10,3,05:10,UTC,5,1011.9,-,95,0,-1,5.2,4.5,24220,33,5.2,3.4
2022,10,3,05:20,UTC,1,1011.9,-,95,0,-1,5.3,4.6,27080,27,5.7,3.9
2022,10,3,05:30,UTC,1,1011.9,-,95,0,-1,5.4,4.6,24430,25,5.7,4.1
2022,10,3,05:40,UTC,0,1011.9,-,95,0,-1,5.5,4.7,23370,24,5.6,3.9
2022,10,3,05:50,UTC,1,1012,-,93,0,-1,5.7,4.7,25580,34,5.4,3.6
2022,10,3,06:00,UTC,3,1012,0,93,0,-1,5.7,4.7,23280,47,4.4,2.7
2022,10,3,06:10,UTC,3,1012,-,93,0,-1,5.7,4.6,25410,41,4.6,2.8
2022,10,3,06:20,UTC,3,1012,-,93,0,-1,5.7,4.6,25210,40,4.8,3.4
2022,10,3,06:30,UTC,1,1012,-,92,0,-1,5.9,4.7,25700,41,5.1,3.3
2022,10,3,06:40,UTC,3,1011.9,-,91,0,-1,6,4.7,29090,42,4.2,3
2022,10,3,06:50,UTC,3,1011.9,-,91,0,-1,6.1,4.7,26410,40,4.9,3.4
2022,10,3,07:00,UTC,5,1012,0,90,0,-1,6.3,4.8,27250,40,4.6,3
2022,10,3,07:10,UTC,7,1012,-,89,0,-1,6.4,4.7,28250,44,4.5,2.8
2022,10,3,07:20,UTC,7,1012,-,89,0,-1,6.5,4.8,31830,29,5.1,3
2022,10,3,07:30,UTC,7,1012,-,88,0,-1,6.6,4.8,30590,29,5.1,3.5
2022,10,3,07:40,UTC,5,1012,-,89,0,-1,6.7,4.9,30850,38,5.7,2.9
2022,10,3,07:50,UTC,5,1011.9,-,88,0,-1,6.4,4.7,36060,29,5,3.4
2022,10,3,08:00,UTC,3,1011.9,0,89,0,-1,6.5,4.8,36430,29,5.9,3.7
2022,10,3,08:10,UTC,3,1011.8,-,89,0,-1,6.8,5.1,35610,28,5.2,3.5
2022,10,3,08:20,UTC,3,1011.9,-,89,0,-1,6.9,5.2,31970,25,5.4,3.5
2022,10,3,08:30,UTC,5,1011.8,-,88,0,-1,6.9,5,37910,30,5.2,3.5
2022,10,3,08:40,UTC,5,1011.9,-,88,0,-1,7,5.2,27030,39,5.6,3.1
2022,10,3,08:50,UTC,5,1011.9,-,87,0,-1,7.1,5.2,39740,43,5.9,3.2
2022,10,3,09:00,UTC,5,1012,0,88,0,-1,6.8,4.9,36900,36,6.3,4.3
2022,10,3,09:10,UTC,7,1012,-,89,0,-1,6.6,4.9,37260,45,6.5,4.3
2022,10,3,09:20,UTC,7,1012,-,89,0,-1,6.6,4.9,36640,39,8,4.3
2022,10,3,09:30,UTC,7,1011.8,-,88,0,-1,6.7,4.8,36880,39,6.9,4.2
2022,10,3,09:40,UTC,7,1011.7,-,87,0,-1,6.8,4.7,40610,44,6.7,4.3
2022,10,3,09:50,UTC,7,1011.8,-,83,0,-1,7.2,4.6,36870,45,7,4.1
2022,10,3,10:00,UTC,5,1011.7,0,82,0,-1,7.2,4.4,50000,42,7.5,4.2
2022,10,3,10:10,UTC,5,1011.6,-,82,0,-1,7.2,4.4,50000,23,7,4.1
2022,10,3,10:20,UTC,5,1011.5,-,81,0,-1,7.3,4.2,50000,16,6.6,4
2022,10,3,10:30,UTC,7,1011.4,-,80,0,-1,7.5,4.3,49310,21,7.6,3.6
2022,10,3,10:40,UTC,7,1011.3,-,79,0,-1,7.5,4,47850,25,7.5,4
2022,10,3,10:50,UTC,7,1011.3,-,80,0,-1,7.7,4.4,50000,32,8.4,4.6
2022,10,3,11:00,UTC,7,1011.2,0,79,0,-1,7.9,4.5,49870,17,6.8,4.3
2022,10,3,11:10,UTC,7,1011.1,-,77,0,-1,8.2,4.5,45290,22,7.6,3.7
2022,10,3,11:20,UTC,5,1011.1,-,77,0,-1,8.3,4.5,50000,36,6.9,4.3
2022,10,3,11:30,UTC,5,1011.1,-,77,0,-1,8.2,4.4,50000,23,7.9,4.2
2022,10,3,11:40,UTC,5,1011,-,77,0,-1,8.1,4.4,49070,15,8.9,5
2022,10,3,11:50,UTC,5,1010.9,-,78,0,-1,8,4.5,49720,12,9.5,4.7
2022,10,3,12:00,UTC,5,1010.9,0,79,0,-1,8,4.6,50000,13,9.3,5.7
2022,10,3,12:10,UTC,3,1010.8,-,80,0,-1,8,4.7,50000,16,9.2,5.5
2022,10,3,12:20,UTC,3,1010.7,-,79,0,-1,8.1,4.7,49480,9,9.5,5.7
2022,10,3,12:30,UTC,3,1010.6,-,80,0,-1,8.2,4.9,50000,6,9.4,5.5
2022,10,3,12:40,UTC,3,1010.5,-,80,0,-1,7.9,4.7,50000,1,9.6,5.2
2022,10,3,12:50,UTC,5,1010.4,-,82,0,-1,7.8,4.9,50000,360,9.1,5.2
2022,10,3,13:00,UTC,5,1010.3,0,82,0,-1,7.6,4.8,50000,9,11.6,6.1
2022,10,3,13:10,UTC,7,1010.2,-,83,0,-1,7.7,5,50000,12,10.1,6.1
2022,10,3,13:20,UTC,7,1010.1,-,83,0,-1,7.7,5.1,50000,12,9.2,5.5
2022,10,3,13:30,UTC,7,1010,-,83,0,-1,7.9,5.2,49360,17,8.9,4.8
2022,10,3,13:40,UTC,7,1009.9,-,82,0,-1,7.9,5.1,50000,16,11.2,6.3
2022,10,3,13:50,UTC,7,1009.9,-,82,0,-1,8,5.2,50000,19,9.1,5.4
2022,10,3,14:00,UTC,7,1010,0,81,0,-1,8,5,50000,25,9.9,6.2
2022,10,3,14:10,UTC,7,1009.8,-,81,0,-1,8.1,5.1,50000,13,9.8,5.9
2022,10,3,14:20,UTC,7,1009.9,-,80,0,-1,8,4.7,50000,19,10.4,6.4
2022,10,3,14:30,UTC,7,1009.8,-,80,0,-1,8,4.8,50000,21,10.9,6.3
2022,10,3,14:40,UTC,7,1009.7,-,80,0,-1,8.1,4.9,50000,18,10.5,6.3
2022,10,3,14:50,UTC,7,1009.6,-,79,0,-1,8.2,4.8,50000,15,9.9,6.2
2022,10,3,15:00,UTC,7,1009.5,0,79,0,-1,8.2,4.7,50000,12,12.3,7.1
2022,10,3,15:10,UTC,7,1009.3,-,78,0,-1,8.2,4.6,50000,11,11.2,6
2022,10,3,15:20,UTC,5,1009.2,-,79,0,-1,8.2,4.7,50000,6,9.6,5.3
2022,10,3,15:30,UTC,5,1009.2,-,79,0,-1,8.2,4.8,50000,8,10.9,6
2022,10,3,15:40,UTC,5,1009.1,-,79,0,-1,8.2,4.9,50000,7,10.4,5.8
2022,10,3,15:50,UTC,5,1009,-,79,0,-1,8.3,4.9,50000,8,10.3,5.5
2022,10,3,16:00,UTC,7,1008.8,0,80,0,-1,8.2,4.9,50000,3,9.9,5.5
2022,10,3,16:10,UTC,7,1008.8,-,80,0,-1,8.3,4.9,50000,12,9.9,5.8
2022,10,3,16:20,UTC,7,1008.7,-,79,0,-1,8.4,4.9,50000,14,10.5,5.6
2022,10,3,16:30,UTC,7,1008.7,-,78,0,-1,8.4,4.9,50000,17,9.3,5.8
2022,10,3,16:40,UTC,7,1008.6,-,78,0,-1,8.4,4.8,50000,24,9.9,6.3
2022,10,3,16:50,UTC,7,1008.6,-,77,0,-1,8.5,4.7,50000,28,10.3,6.1
2022,10,3,17:00,UTC,7,1008.5,0,77,0,-1,8.4,4.6,50000,30,11.2,5.8
2022,10,3,17:10,UTC,7,1008.4,-,78,0,-1,8.4,4.7,50000,26,8.4,5.2
2022,10,3,17:20,UTC,7,1008.4,-,77,0,-1,8.4,4.7,50000,27,9.1,5.3
2022,10,3,17:30,UTC,7,1008.3,-,78,0,-1,8.4,4.7,50000,29,11.3,5.5
2022,10,3,17:40,UTC,7,1008.1,-,77,0,-1,8.3,4.5,50000,33,10.1,5.2
2022,10,3,17:50,UTC,7,1008,-,76,0,-1,8.3,4.4,50000,32,10.5,6.4
2022,10,3,18:00,UTC,7,1007.9,0,76,0,-1,8.3,4.4,50000,31,12,6.5
2022,10,3,18:10,UTC,7,1007.8,-,77,0,-1,8.3,4.4,50000,28,10.3,5.9
2022,10,3,18:20,UTC,7,1007.8,-,76,0,-1,8.3,4.4,50000,26,11.1,5.6
2022,10,3,18:30,UTC,7,1007.6,-,77,0,-1,8.3,4.4,50000,24,10.4,6.9
2022,10,3,18:40,UTC,7,1007.7,-,77,0,-1,8.2,4.5,50000,19,10.1,5.4
2022,10,3,18:50,UTC,7,1007.5,-,78,0,-1,8.2,4.5,50000,19,11,6.3
2022,10,3,19:00,UTC,7,1007.4,0,78,0,-1,8.2,4.5,50000,18,12,5.8
2022,10,3,19:10,UTC,7,1007.4,-,79,0,-1,8,4.6,50000,18,8.2,4.7
2022,10,3,19:20,UTC,7,1007.3,-,79,0,-1,8.1,4.6,50000,18,9.2,5.9
2022,10,3,19:30,UTC,7,1007.1,-,80,0,-1,8,4.7,50000,14,8.8,5.2
2022,10,3,19:40,UTC,7,1007,-,80,0,-1,8,4.7,50000,13,9.6,5.8
2022,10,3,19:50,UTC,7,1006.9,-,81,0,-1,7.9,4.9,50000,12,9,4.8
2022,10,3,20:00,UTC,7,1006.8,0,82,0,-1,7.8,4.9,50000,6,8.3,5.3
2022,10,3,20:10,UTC,7,1006.6,-,81,0,-1,7.8,4.8,50000,3,10.1,5.6
2022,10,3,20:20,UTC,7,1006.6,-,81,0,-1,7.8,4.7,50000,5,11.2,6.3
2022,10,3,20:30,UTC,7,1006.4,-,80,0,-1,7.8,4.6,50000,7,9.5,5.6
2022,10,3,20:40,UTC,7,1006.3,-,80,0,-1,7.8,4.5,50000,12,12,6.5
2022,10,3,20:50,UTC,7,1006.2,-,79,0,-1,7.8,4.4,50000,11,11.6,6.5
2022,10,3,21:00,UTC,7,1006.1,0,79,0,-1,7.8,4.3,50000,9,12.2,6.7
2022,10,3,21:10,UTC,7,1006,-,78,0,-1,7.7,4,50000,5,13.8,6.7
2022,10,3,21:20,UTC,7,1005.8,-,78,0,-1,7.6,3.9,50000,16,14,7.2
2022,10,3,21:30,UTC,7,1005.8,-,78,0,-1,7.6,3.9,50000,17,11.9,6.9
2022,10,3,21:40,UTC,7,1005.7,-,77,0,-1,7.5,3.8,50000,14,12.3,6.9
2022,10,3,21:50,UTC,8,1005.6,-,77,0,-1,7.5,3.7,50000,17,14.7,7.9
2022,10,3,22:00,UTC,7,1005.5,0,77,0,-1,7.5,3.8,50000,17,14.2,8.3
2022,10,3,22:10,UTC,7,1005.4,-,77,0,-1,7.5,3.8,50000,16,13.4,6.9
2022,10,3,22:20,UTC,7,1005.4,-,77,0,-1,7.5,3.8,50000,19,12.9,6.7
2022,10,3,22:30,UTC,7,1005.3,-,77,0,-1,7.5,3.8,50000,16,13.9,7.6
2022,10,3,22:40,UTC,7,1005.2,-,77,0,-1,7.5,3.7,50000,16,13.1,7.1
2022,10,3,22:50,UTC,7,1005.1,-,77,0,-1,7.5,3.7,50000,17,13.6,7.4
2022,10,3,23:00,UTC,7,1005.1,0,77,0,-1,7.5,3.7,50000,12,13.7,6.7
2022,10,3,23:10,UTC,7,1005,-,78,0,-1,7.4,3.8,50000,7,12.4,7.1
2022,10,3,23:20,UTC,7,1005,-,78,0,-1,7.4,3.8,50000,9,11.7,6.7
2022,10,3,23:30,UTC,7,1004.9,-,79,0,-1,7.3,3.9,50000,9,11.8,7.1
2022,10,3,23:40,UTC,7,1004.8,-,79,0,-1,7.2,3.9,50000,9,13.6,6.6
2022,10,3,23:50,UTC,7,1004.6,-,80,0,-1,7.2,3.9,50000,6,12.8,6.8
2022,10,4,00:00,UTC,7,1004.6,0,80,0,-1,7.2,3.9,50000,13,13.3,6.5
2022,10,4,00:10,UTC,7,1004.5,-,79,0,-1,7.1,3.8,50000,11,12.1,6.9
2022,10,4,00:20,UTC,7,1004.5,-,79,0,-1,7,3.7,50000,13,11.3,6.7
2022,10,4,00:30,UTC,7,1004.4,-,79,0,-1,7.1,3.7,50000,12,11.4,6.4
2022,10,4,00:40,UTC,7,1004.3,-,79,0,-1,7,3.7,50000,14,10.5,6.1
2022,10,4,00:50,UTC,7,1004.2,-,78,0,-1,7.1,3.5,50000,17,11.6,6.7
2022,10,4,01:00,UTC,8,1004.1,0,78,0,-1,7,3.5,50000,10,10.6,6.6
2022,10,4,01:10,UTC,8,1004.2,-,78,0,-1,7,3.4,50000,10,12.1,6.6
2022,10,4,01:20,UTC,7,1004.1,-,78,0,-1,7,3.4,50000,9,10.2,6
2022,10,4,01:30,UTC,8,1004,-,77,0,-1,7,3.3,50000,11,13,7.2
2022,10,4,01:40,UTC,7,1004,-,77,0,-1,7,3.2,50000,4,10.1,5.5
2022,10,4,01:50,UTC,7,1004,-,77,0,-1,6.9,3.2,50000,13,11.5,6.1
2022,10,4,02:00,UTC,7,1004.1,0,77,0,-1,6.9,3.2,50000,13,11.1,6.6
2022,10,4,02:10,UTC,7,1004.1,-,77,0,-1,6.9,3.1,50000,13,10.5,6.5
2022,10,4,02:20,UTC,7,1004,-,77,0,-1,6.8,3,50000,5,9.9,5.8
2022,10,4,02:30,UTC,8,1004.1,-,77,0,-1,6.7,3,50000,3,9.7,5.8
2022,10,4,02:40,UTC,7,1004.1,-,77,0,-1,6.7,2.9,50000,11,10.3,6.2
2022,10,4,02:50,UTC,7,1004.1,-,77,0,-1,6.7,3,50000,12,9,5.5
2022,10,4,03:00,UTC,7,1004.1,0,77,0,-1,6.7,3,50000,10,9.5,5.2
2022,10,4,03:10,UTC,7,1004.1,-,77,0,-1,6.8,3,50000,12,9.1,5.3
2022,10,4,03:20,UTC,7,1004.1,-,77,0,-1,6.7,3,50000,6,7.9,4.9
2022,10,4,03:30,UTC,7,1004.2,-,78,0,-1,6.6,3,50000,2,9.2,5.2
2022,10,4,03:40,UTC,7,1004.2,-,78,0,-1,6.7,3.1,50000,6,10.5,5.4
2022,10,4,03:50,UTC,7,1004.3,-,78,0,-1,6.7,3.1,50000,5,9.8,5.8
2022,10,4,04:00,UTC,8,1004.3,0,78,0,-1,6.7,3.1,50000,3,8.5,5
2022,10,4,04:10,UTC,7,1004.2,-,78,0,-1,6.7,3.1,50000,5,10.1,5.6
2022,10,4,04:20,UTC,7,1004.2,-,78,0,-1,6.7,3.2,50000,1,9.2,5.6
2022,10,4,04:30,UTC,7,1004.2,-,78,0,-1,6.7,3.2,50000,7,10.2,5.7
2022,10,4,04:40,UTC,7,1004.3,-,79,0,-1,6.7,3.3,50000,7,8.6,5
2022,10,4,04:50,UTC,7,1004.3,-,79,0,-1,6.7,3.3,50000,3,11.2,5.7
2022,10,4,05:00,UTC,7,1004.3,0,79,0,-1,6.8,3.4,50000,10,9.3,5.8
2022,10,4,05:10,UTC,8,1004.3,-,79,0,-1,6.9,3.4,50000,17,9.7,5.3
2022,10,4,05:20,UTC,7,1004.3,-,78,0,-1,7,3.4,50000,12,9.1,5.3
2022,10,4,05:30,UTC,7,1004.4,-,78,0,-1,7,3.5,50000,11,8.4,4.8
2022,10,4,05:40,UTC,7,1004.5,-,78,0,-1,7,3.5,50000,10,8.1,5.2
2022,10,4,05:50,UTC,7,1004.6,-,79,0,-1,7.1,3.6,50000,3,9.3,5.1
2022,10,4,06:00,UTC,7,1004.6,0,79,0,-1,7,3.6,50000,356,9.4,5.2
2022,10,4,06:10,UTC,7,1004.7,-,79,0,-1,7,3.7,50000,4,9.4,5.7
2022,10,4,06:20,UTC,7,1004.7,-,79,0,-1,7.1,3.7,50000,1,8.4,4.4
2022,10,4,06:30,UTC,7,1004.8,-,79,0,-1,7.1,3.7,50000,357,9.1,5.1
2022,10,4,06:40,UTC,7,1004.7,-,79,0,-1,7.2,3.7,50000,356,10.8,5.9
2022,10,4,06:50,UTC,7,1004.7,-,79,0,-1,7.2,3.7,50000,359,12.2,5.8
2022,10,4,07:00,UTC,7,1004.7,0,78,0,-1,7.4,3.8,50000,357,10.4,5.7
2022,10,4,07:10,UTC,7,1004.8,-,77,0,-1,7.5,3.8,50000,7,9.6,5.9
2022,10,4,07:20,UTC,7,1004.8,-,77,0,-1,7.6,3.8,50000,8,10.3,5.7
2022,10,4,07:30,UTC,7,1004.8,-,77,0,-1,7.6,3.9,50000,3,10.3,6.1
2022,10,4,07:40,UTC,5,1004.8,-,77,0,-1,7.7,3.9,50000,7,10.3,5.2
2022,10,4,07:50,UTC,7,1005,-,77,0,-1,7.7,3.9,50000,14,8.3,5.2
2022,10,4,08:00,UTC,7,1005.1,0,77,0,-1,7.9,4,50000,10,9.2,4.4
2022,10,4,08:10,UTC,7,1005.2,-,76,0,-1,8,3.9,50000,12,9.2,4.7
2022,10,4,08:20,UTC,7,1005.2,-,76,0,-1,8.1,4.2,50000,11,8.5,4.4
2022,10,4,08:30,UTC,5,1005.3,-,75,0,-1,8.2,4,50000,17,8,4.6
2022,10,4,08:40,UTC,7,1005.4,-,75,0,-1,8.1,4,50000,15,10.9,5.4
2022,10,4,08:50,UTC,7,1005.6,-,75,0,-1,8.1,4,47750,22,10,5.1
2022,10,4,09:00,UTC,8,1005.6,0,75,0,-1,8.2,4,50000,22,8,5.2
2022,10,4,09:10,UTC,8,1005.5,-,74,0,-1,8.3,4,42750,25,7.7,4.5
2022,10,4,09:20,UTC,7,1005.6,-,75,0,-1,8.5,4.2,48260,28,8.3,5.1
2022,10,4,09:30,UTC,7,1005.7,-,74,0,-1,8.4,4.1,50000,22,8.9,6
2022,10,4,09:40,UTC,7,1005.8,-,75,0,-1,8.5,4.2,50000,29,8.4,5
2022,10,4,09:50,UTC,7,1005.9,-,73,0,-1,8.7,4.2,50000,20,7.9,4.1
2022,10,4,10:00,UTC,7,1006.1,0,72,0,-1,8.9,4.2,46600,22,8.3,4.6
2022,10,4,10:10,UTC,8,1006.2,-,71,0,-1,9.1,4.1,50000,27,9,4.3
2022,10,4,10:20,UTC,7,1006.3,-,71,0,-1,9,4,50000,27,11.6,6.6
2022,10,4,10:30,UTC,7,1006.4,-,69,0,-1,9.1,3.8,50000,31,10,5.5
2022,10,4,10:40,UTC,8,1006.5,-,69,0,-1,9.1,3.7,50000,31,10.8,6.7
2022,10,4,10:50,UTC,8,1006.6,-,69,0,-1,9.2,3.8,50000,14,8.6,4.8
2022,10,4,11:00,UTC,8,1006.6,0,69,0,-1,9.1,3.7,50000,25,11,6.3
2022,10,4,11:10,UTC,8,1006.7,-,69,0,-1,9.2,3.9,50000,29,9.6,6
2022,10,4,11:20,UTC,7,1006.8,-,68,0,-1,9.5,3.9,50000,27,8.9,4.8
2022,10,4,11:30,UTC,7,1006.9,-,69,0,-1,9.3,3.9,50000,14,10.9,5.8
2022,10,4,11:40,UTC,8,1007,-,70,0,-1,9.3,4,50000,9,10,5.5
2022,10,4,11:50,UTC,8,1007.1,-,70,0,-1,9.3,4.1,50000,4,9.3,5.3
2022,10,4,12:00,UTC,8,1007.2,0,69,0,-1,9.3,4,50000,10,9.8,4.9
2022,10,4,12:10,UTC,8,1007.4,-,70,0,-1,9.4,4.1,50000,11,10,5.5
2022,10,4,12:20,UTC,7,1007.5,-,69,0,-1,9.4,4,50000,25,11.8,6
2022,10,4,12:30,UTC,7,1007.6,-,68,0,-1,9.6,4,50000,30,11.4,5.8
2022,10,4,12:40,UTC,8,1007.6,-,69,0,-1,9.6,4.1,50000,28,10,6.4
2022,10,4,12:50,UTC,8,1007.7,-,68,0,-1,9.8,4.2,45360,15,9.8,5.5
2022,10,4,13:00,UTC,8,1007.8,0,68,0,-1,9.8,4.1,50000,17,10.2,4.9
2022,10,4,13:10,UTC,8,1007.9,-,68,0,-1,9.7,4.1,50000,13,10.6,6.1
2022,10,4,13:20,UTC,8,1008.1,-,69,0,-1,9.6,4.2,50000,13,9.7,5.6
2022,10,4,13:30,UTC,7,1008.2,-,70,0,-1,9.5,4.4,50000,4,8.1,4.6
2022,10,4,13:40,UTC,8,1008.2,-,71,0,-1,9.4,4.4,50000,359,8.6,4.6
2022,10,4,13:50,UTC,8,1008.4,-,72,0,-1,9.3,4.4,50000,360,9.2,5.4
2022,10,4,14:00,UTC,8,1008.4,0,71,0,-1,9.2,4.3,50000,5,10.7,5.7
2022,10,4,14:10,UTC,8,1008.4,-,72,0,-1,9.2,4.3,50000,7,9.4,5.3
2022,10,4,14:20,UTC,8,1008.4,-,72,0,-1,9.1,4.4,50000,15,8,5.2
2022,10,4,14:30,UTC,7,1008.5,-,72,0,-1,9.1,4.4,50000,9,8.3,4.6
2022,10,4,14:40,UTC,8,1008.6,-,72,0,-1,9.1,4.3,50000,10,8.6,4.5
2022,10,4,14:50,UTC,8,1008.7,-,72,0,-1,9.1,4.2,50000,16,8.9,5.6
2022,10,4,15:00,UTC,8,1008.8,0,72,0,-1,9.1,4.3,50000,18,8.8,4.4
2022,10,4,15:10,UTC,8,1008.9,-,72,0,-1,9,4.3,50000,15,6.4,4
2022,10,4,15:20,UTC,8,1009,-,72,0,-1,9.1,4.2,50000,16,8.5,4.5
2022,10,4,15:30,UTC,7,1009.2,-,72,0,-1,9,4.3,50000,14,7.4,3.8
2022,10,4,15:40,UTC,8,1009.3,-,72,0,-1,9,4.3,50000,6,6.4,3.9
2022,10,4,15:50,UTC,8,1009.4,-,73,0,-1,9,4.4,50000,4,5.7,3.4
2022,10,4,16:00,UTC,8,1009.5,0,73,0,-1,8.9,4.4,50000,4,5.5,3.4
2022,10,4,16:10,UTC,8,1009.6,-,74,0,-1,8.9,4.5,50000,5,5,2.8
2022,10,4,16:20,UTC,8,1009.7,-,72,0,-1,9,4.2,50000,8,8,4
2022,10,4,16:30,UTC,7,1009.7,-,72,0,-1,9,4.2,50000,16,6.7,4.2
2022,10,4,16:40,UTC,8,1009.7,-,72,0,-1,9,4.3,50000,14,7.4,3.8
2022,10,4,16:50,UTC,8,1009.7,-,72,0,-1,8.9,4.1,50000,16,6.7,3.2
2022,10,4,17:00,UTC,8,1009.7,0,71,0,-1,9,4,50000,20,7.2,4
2022,10,4,17:10,UTC,8,1009.8,-,71,0,-1,8.9,3.9,50000,14,7.1,4.1
2022,10,4,17:20,UTC,7,1009.9,-,71,0,-1,8.8,3.9,50000,12,6.2,3.4
2022,10,4,17:30,UTC,7,1009.9,-,72,0,-1,8.7,3.9,50000,3,5.8,3.3
2022,10,4,17:40,UTC,8,1009.9,-,71,0,-1,8.8,3.9,50000,359,5.8,3.1
2022,10,4,17:50,UTC,8,1009.9,-,72,0,-1,8.7,3.9,50000,356,5.9,3
2022,10,4,18:00,UTC,8,1009.9,0,70,0,-1,8.8,3.7,50000,6,6.5,3.3
2022,10,4,18:10,UTC,8,1009.9,-,71,0,-1,8.7,3.7,50000,10,6.7,3.2
2022,10,4,18:20,UTC,8,1009.8,-,70,0,-1,8.7,3.6,50000,9,6.1,3.5
2022,10,4,18:30,UTC,7,1009.7,-,70,0,-1,8.6,3.5,50000,5,6.5,3.4
2022,10,4,18:40,UTC,8,1009.8,-,70,0,-1,8.7,3.4,50000,10,6.8,3.2
2022,10,4,18:50,UTC,8,1009.9,-,69,0,-1,8.7,3.4,50000,22,5.8,3.5
2022,10,4,19:00,UTC,8,1010,0,71,0,-1,8.6,3.6,50000,28,4.5,2.9
2022,10,4,19:10,UTC,8,1010,-,73,0,-1,8.6,4,50000,25,5.8,3.5
2022,10,4,19:20,UTC,8,1010,-,75,0,-1,8.5,4.2,50000,22,6.7,4
2022,10,4,19:30,UTC,7,1010,-,76,0,-1,8.3,4.3,50000,15,4.9,2.7
2022,10,4,19:40,UTC,3,1010,-,77,0,-1,8.1,4.3,50000,24,5.5,3.2
2022,10,4,19:50,UTC,3,1010,-,79,0,-1,7.6,4.3,50000,11,4.9,2.4
2022,10,4,20:00,UTC,3,1010,0,80,0,-1,7.5,4.3,50000,10,5.2,2.7
2022,10,4,20:10,UTC,5,1010,-,82,0,-1,7.3,4.3,50000,8,4.9,2.5
2022,10,4,20:20,UTC,7,1010.1,-,80,0,-1,7.6,4.4,50000,357,5.8,2.9
2022,10,4,20:30,UTC,7,1010.1,-,81,0,-1,7.5,4.4,50000,347,3.8,2.2
2022,10,4,20:40,UTC,8,1010.1,-,78,0,-1,7.8,4.2,50000,360,5.7,2.5
2022,10,4,20:50,UTC,8,1010.1,-,80,0,-1,7.5,4.3,50000,341,4.3,2.2
2022,10,4,21:00,UTC,8,1010.2,0,82,0,-1,7.2,4.3,50000,340,3.2,2.2
2022,10,4,21:10,UTC,8,1010.4,-,82,0,-1,7.1,4.2,50000,335,3.1,2.2
2022,10,4,21:20,UTC,7,1010.4,-,82,0,-1,7,4.2,50000,335,3.3,2
2022,10,4,21:30,UTC,5,1010.6,-,82,0,-1,6.6,3.8,50000,326,3,2
2022,10,4,21:40,UTC,5,1010.8,-,85,0,-1,6.2,3.9,50000,313,3.3,2.5
2022,10,4,21:50,UTC,5,1010.8,-,86,0,-1,6,3.8,50000,308,3.9,2.7
2022,10,4,22:00,UTC,1,1010.8,0,87,0,-1,5.5,3.6,50000,320,3.5,2.5
2022,10,4,22:10,UTC,1,1010.9,-,91,0,-1,4.9,3.6,50000,317,3.3,2.8
2022,10,4,22:20,UTC,0,1010.9,-,93,0,-1,4.8,3.7,50000,310,3.4,2.8
2022,10,4,22:30,UTC,0,1010.9,-,93,0,-1,4.6,3.5,50000,313,3.6,2.8
2022,10,4,22:40,UTC,0,1011,-,94,0,-1,4.2,3.3,50000,320,3.4,2.8
2022,10,4,22:50,UTC,0,1010.9,-,95,0,-1,3.9,3.2,50000,323,3.4,3
2022,10,4,23:00,UTC,0,1010.8,0,96,0,-1,3.7,3.2,50000,332,2.9,2.6
2022,10,4,23:10,UTC,0,1010.9,-,97,0,-1,3.5,3.1,50000,321,2.7,2.3
2022,10,4,23:20,UTC,0,1011,-,98,0,-1,3.4,3.1,50000,310,3.5,3
2022,10,4,23:30,UTC,0,1011.2,-,97,0,-1,4.1,3.7,50000,304,4.5,3.6
2022,10,4,23:40,UTC,0,1011.1,-,95,0,-1,4,3.3,50000,320,3.9,3.1
2022,10,4,23:50,UTC,0,1011,-,96,0,-1,3.6,3,50000,330,3.3,2.8
2022,10,5,00:00,UTC,0,1011,0,97,0,-1,3.4,2.9,50000,346,3.5,2.3
2022,10,5,00:10,UTC,0,1010.9,-,97,0,-1,3.1,2.7,43570,339,3.7,2.9
2022,10,5,00:20,UTC,0,1010.7,-,97,0,-1,3.8,3.4,50000,358,3.9,2.8
2022,10,5,00:30,UTC,0,1010.7,-,96,0,-1,2.9,2.3,47730,1,2.8,1.4
2022,10,5,00:40,UTC,0,1010.7,-,98,0,-1,2.9,2.6,39990,352,2.7,1.9
2022,10,5,00:50,UTC,0,1010.8,-,98,0,-1,2.8,2.5,37900,350,2.6,2
2022,10,5,01:00,UTC,0,1010.7,0,99,0,-1,2.9,2.7,50000,341,2.6,2.1
2022,10,5,01:10,UTC,0,1010.7,-,99,0,-1,2.6,2.5,33180,325,3.2,2.7
2022,10,5,01:20,UTC,0,1010.3,-,98,0,-1,3.3,2.9,50000,342,3.2,2
2022,10,5,01:30,UTC,0,1010.3,-,98,0,-1,2.9,2.6,46390,357,1.9,1.4
2022,10,5,01:40,UTC,0,1010.3,-,98,0,-1,2.7,2.4,41200,357,2.1,1.4
2022,10,5,01:50,UTC,0,1010.5,-,99,0,-1,2.9,2.7,39460,354,1.6,1
2022,10,5,02:00,UTC,0,1010.2,0,99,0,-1,3,2.8,41210,325,1.7,1.3
2022,10,5,02:10,UTC,3,1010,-,99,0,-1,3.4,3.2,49220,332,1.6,1.3
2022,10,5,02:20,UTC,5,1009.9,-,98,0,-1,3.6,3.2,50000,70,2.4,1.8
2022,10,5,02:30,UTC,7,1010.1,-,97,0,-1,3.4,2.9,46020,68,2.4,1.6
2022,10,5,02:40,UTC,7,1010.1,-,98,0,-1,3.5,3.2,46340,78,2.9,1.6
2022,10,5,02:50,UTC,8,1010.2,-,97,0,-1,3.3,2.9,45790,38,2,0.9
2022,10,5,03:00,UTC,8,1010.1,0,98,0,-1,3.2,2.9,38060,360,1.2,0.9
2022,10,5,03:10,UTC,8,1009.9,-,98,0,-1,3.7,3.4,50000,79,2.1,1.1
2022,10,5,03:20,UTC,7,1009.7,-,98,0,-1,3.9,3.5,50000,91,2.6,1.8
2022,10,5,03:30,UTC,7,1009.7,-,96,0,-1,4.2,3.5,49700,90,2.2,1.6
2022,10,5,03:40,UTC,7,1009.8,-,96,0,-1,4.1,3.5,19950,94,2.2,1.4
2022,10,5,03:50,UTC,7,1009.7,-,94,0,-1,4.5,3.6,50000,95,2.3,1.5
2022,10,5,04:00,UTC,7,1009.5,0,93,0,-1,4.6,3.6,50000,116,2.2,2
2022,10,5,04:10,UTC,7,1009.4,-,93,0,-1,4.7,3.6,50000,124,2,1.8
2022,10,5,04:20,UTC,7,1009.5,-,93,0,-1,4.7,3.6,46630,130,2,1.7
2022,10,5,04:30,UTC,7,1009.4,-,94,0,-1,4.6,3.7,50000,156,2,1.7
2022,10,5,04:40,UTC,7,1009.4,-,94,0,-1,4.7,3.9,50000,167,2.1,1.8
2022,10,5,04:50,UTC,8,1009.4,-,92,0,-1,5.3,4.1,45980,154,2.2,2
2022,10,5,05:00,UTC,8,1009.3,0,90,0,-1,5.4,4,39780,-,-,-
2022,10,5,05:10,UTC,8,1009.4,-,90,0,-1,5.5,4.1,20110,147,3.3,2.2
2022,10,5,05:20,UTC,7,1009.2,-,91,0,-1,5.7,4.4,11440,165,3.6,2.8
2022,10,5,05:30,UTC,7,1009.2,-,92,0,-1,6,4.7,13780,152,3.2,2.8
2022,10,5,05:40,UTC,7,1009.3,-,93,0.3,-1,5.9,4.9,15700,145,3.4,2.7
2022,10,5,05:50,UTC,8,1009.1,-,94,0.2,-1,5.8,4.8,18290,146,3.9,2.9
2022,10,5,06:00,UTC,7,1008.8,0.1,95,0,-1,5.8,5,31580,143,4,3.1
2022,10,5,06:10,UTC,7,1008.8,-,94,0.5,-1,6.2,5.3,25930,150,4.5,3.1
2022,10,5,06:20,UTC,7,1008.7,-,95,0,-1,6.7,5.9,33030,155,5.2,3.5
2022,10,5,06:30,UTC,7,1008.8,-,96,0,-1,7.5,6.9,34460,176,5.2,3.5
2022,10,5,06:40,UTC,7,1008.7,-,96,0.5,-1,8.3,7.8,44180,184,7,4.3
2022,10,5,06:50,UTC,7,1008.7,-,95,0,-1,8.7,7.9,50000,185,5.6,3.4
2022,10,5,07:00,UTC,7,1008.7,0.2,94,0,-1,9,8.1,47140,178,5.6,3.3
2022,10,5,07:10,UTC,7,1008.9,-,94,0,-1,9.2,8.2,33280,179,6.1,3.2
2022,10,5,07:20,UTC,7,1008.8,-,94,0,-1,9.3,8.5,24280,181,5.8,3.7
2022,10,5,07:30,UTC,7,1008.9,-,96,1,-1,9.4,8.8,15620,178,5.3,3.6
2022,10,5,07:40,UTC,7,1008.8,-,97,0.4,-1,9.5,9,12860,171,4.8,2.9
2022,10,5,07:50,UTC,7,1008.7,-,97,0,-1,9.6,9.2,12270,172,5.5,3.7
2022,10,5,08:00,UTC,7,1008.7,0.2,98,0,-1,9.6,9.4,7280,171,5.6,3.6
2022,10,5,08:10,UTC,8,1008.7,-,99,2.1,-1,9.7,9.6,4460,165,5.8,3.3
2022,10,5,08:20,UTC,8,1008.4,-,100,0.1,-1,9.9,9.9,4740,172,5.2,3.6
2022,10,5,08:30,UTC,7,1008.2,-,100,1.3,-1,10,10,5150,169,6.4,3.8
2022,10,5,08:40,UTC,7,1008.2,-,100,0.1,-1,10.2,10.2,4150,171,6.9,4.2
2022,10,5,08:50,UTC,8,1008.1,-,100,1.2,-1,10.2,10.2,6250,170,6.4,4.2
2022,10,5,09:00,UTC,8,1008.1,0.8,100,0,-1,10.2,10.2,11580,172,6.7,4.5
2022,10,5,09:10,UTC,7,1008,-,100,0,-1,10.3,10.3,7080,180,6,3.9
2022,10,5,09:20,UTC,8,1008,-,100,0,-1,10.3,10.3,5370,177,5.9,3.3
2022,10,5,09:30,UTC,8,1008,-,100,0.6,-1,10.4,10.4,17010,191,6.1,3.8
2022,10,5,09:40,UTC,7,1007.8,-,99,0,-1,10.5,10.5,26980,185,6.6,3.6
2022,10,5,09:50,UTC,7,1007.8,-,99,0,-1,10.9,10.7,24200,186,5.7,3.5
2022,10,5,10:00,UTC,7,1007.8,0.1,97,0,-1,10.8,10.5,25620,188,6.1,3.5
2022,10,5,10:10,UTC,7,1007.8,-,97,0,-1,10.8,10.4,26900,198,7,4.3
2022,10,5,10:20,UTC,8,1007.8,-,98,0,-1,10.8,10.5,23990,201,7.2,4.1
2022,10,5,10:30,UTC,8,1007.7,-,99,0,-1,10.9,10.8,17920,213,6,3.4
2022,10,5,10:40,UTC,7,1007.7,-,100,0,-1,11.2,11.1,12480,229,8.6,4.4
2022,10,5,10:50,UTC,8,1007.6,-,100,0,-1,11.3,11.3,11200,228,6.8,3.8
2022,10,5,11:00,UTC,8,1007.6,0,100,0,-1,11.4,11.4,10730,227,8.2,4.1
2022,10,5,11:10,UTC,8,1007.5,-,100,0,-1,11.4,11.4,11160,227,8.5,4.7
2022,10,5,11:20,UTC,8,1007.5,-,100,0,-1,11.7,11.6,11380,223,8.1,5.3
2022,10,5,11:30,UTC,8,1007.6,-,98,0,-1,11.7,11.4,13310,226,8.8,4.9
2022,10,5,11:40,UTC,7,1007.6,-,98,0,-1,11.8,11.5,14500,225,6.9,4.6
2022,10,5,11:50,UTC,8,1007.7,-,97,0,-1,11.9,11.5,13930,222,6.8,4.2
2022,10,5,12:00,UTC,7,1007.6,0,97,0,-1,12,11.6,14210,223,8.7,5
2022,10,5,12:10,UTC,7,1007.6,-,97,0,-1,12,11.5,14140,223,8.4,5
2022,10,5,12:20,UTC,8,1007.5,-,98,0,-1,11.9,11.5,12030,225,7.6,4.4
2022,10,5,12:30,UTC,8,1007.5,-,98,0,-1,12,11.6,10800,225,7.3,4.3
2022,10,5,12:40,UTC,7,1007.4,-,98,0,-1,12,11.7,8770,225,7.4,4.1
2022,10,5,12:50,UTC,7,1007.4,-,98,0,-1,12.1,11.7,10480,226,6.8,4.5
2022,10,5,13:00,UTC,7,1007.2,0,98,0,-1,12.2,11.8,11510,229,7.1,4.5
2022,10,5,13:10,UTC,7,1007.3,-,97,0,-1,12.3,11.7,11880,225,7.7,4.5
2022,10,5,13:20,UTC,7,1007.3,-,97,0,-1,12.3,11.8,11940,224,7.9,4.4
2022,10,5,13:30,UTC,7,1007.3,-,96,0,-1,12.3,11.8,11730,223,7.7,4.7
2022,10,5,13:40,UTC,7,1007.2,-,96,0,-1,12.4,11.7,12220,225,9.5,5.3
2022,10,5,13:50,UTC,7,1007.2,-,96,0,-1,12.4,11.8,12900,228,6.3,4.2
2022,10,5,14:00,UTC,7,1007.2,0,96,0,-1,12.4,11.8,12840,223,8,4.8
2022,10,5,14:10,UTC,7,1007.1,-,96,0,-1,12.4,11.7,11690,220,7,3.9
2022,10,5,14:20,UTC,8,1007.2,-,97,0,-1,12.3,11.7,6910,214,5.9,3.3
2022,10,5,14:30,UTC,8,1007.1,-,97,0,-1,12.2,11.8,5940,219,8.1,4.4
2022,10,5,14:40,UTC,7,1007,-,98,0,-1,12.2,11.8,7280,208,7.9,4.2
2022,10,5,14:50,UTC,8,1007,-,99,0.4,-1,12.1,11.9,3640,220,6.9,3.6
2022,10,5,15:00,UTC,8,1006.9,0.1,99,0.3,-1,12.1,12,3900,215,8.6,4.7
2022,10,5,15:10,UTC,8,1006.9,-,100,0,-1,12.1,12,3780,217,8,4.8
2022,10,5,15:20,UTC,8,1006.8,-,100,0.4,-1,12.1,12.1,3430,221,8.4,5
2022,10,5,15:30,UTC,8,1006.9,-,100,0.3,-1,12.1,12.1,3200,223,8.3,5.1
2022,10,5,15:40,UTC,7,1006.9,-,100,0.1,-1,12.1,12.1,4140,228,10.8,5.8
2022,10,5,15:50,UTC,8,1006.8,-,100,0,-1,12.2,12.2,5500,224,9.6,6.2
2022,10,5,16:00,UTC,8,1006.8,0.1,100,0,-1,12.2,12.2,3520,230,9.9,5.8
2022,10,5,16:10,UTC,8,1006.8,-,100,0,-1,12.1,12.1,2500,226,10.3,6.2
2022,10,5,16:20,UTC,8,1006.8,-,100,0.4,-1,12.1,12.1,2340,224,8.8,5.3
2022,10,5,16:30,UTC,8,1006.7,-,100,0.3,-1,12.1,12.1,2620,227,9.5,5.8
2022,10,5,16:40,UTC,7,1006.8,-,100,0,-1,12.2,12.2,3530,227,9.2,5
2022,10,5,16:50,UTC,8,1006.7,-,100,0,-1,12.2,12.2,3370,227,9.1,5.6
2022,10,5,17:00,UTC,8,1006.7,0.1,100,0,-1,12.2,12.2,3190,225,9.3,5.6
2022,10,5,17:10,UTC,8,1006.7,-,100,0,-1,12.2,12.2,2690,228,9.2,5.8
2022,10,5,17:20,UTC,8,1006.7,-,100,0.3,-1,12.2,12.2,2700,232,8.6,5.4
2022,10,5,17:30,UTC,8,1006.7,-,100,0,-1,12.2,12.2,3060,230,9.2,5.3
2022,10,5,17:40,UTC,7,1006.8,-,100,0,-1,12.2,12.2,2850,233,9.3,5.4
2022,10,5,17:50,UTC,8,1006.9,-,100,0,-1,12.2,12.2,2810,230,7.7,4.7
2022,10,5,18:00,UTC,7,1006.8,0.1,100,0,-1,12.2,12.2,2770,227,8.3,5.6
2022,10,5,18:10,UTC,8,1006.8,-,100,0,-1,12.2,12.2,1870,228,8.7,5.8
2022,10,5,18:20,UTC,8,1006.8,-,100,0.5,-1,12.2,12.2,2010,227,8.5,5.2
2022,10,5,18:30,UTC,8,1006.8,-,100,0,-1,12.2,12.2,2020,226,9.2,5.7
2022,10,5,18:40,UTC,7,1006.7,-,100,0.3,-1,12.2,12.2,2130,227,8.9,5.2
2022,10,5,18:50,UTC,8,1006.7,-,100,0.3,-1,12.1,12.1,1990,226,8.6,5.4
2022,10,5,19:00,UTC,8,1006.7,0.3,100,0.4,-1,12.2,12.2,2110,227,9.3,6.1
2022,10,5,19:10,UTC,8,1006.7,-,100,0.5,-1,12.2,12.2,1970,228,8.8,5.8
2022,10,5,19:20,UTC,8,1006.8,-,100,0.2,-1,12.2,12.2,2370,232,8.8,5.5
2022,10,5,19:30,UTC,8,1006.7,-,100,0.5,-1,12.3,12.3,3530,226,8.8,5.6
2022,10,5,19:40,UTC,7,1006.7,-,100,0.3,-1,12.3,12.3,4470,228,9,5.6
2022,10,5,19:50,UTC,8,1006.6,-,100,0.1,-1,12.3,12.3,4770,227,9.8,6.6
2022,10,5,20:00,UTC,8,1006.6,0.3,100,0,-1,12.4,12.4,4900,226,9.8,6.5
2022,10,5,20:10,UTC,8,1006.5,-,100,0.4,-1,12.4,12.4,6780,225,10.4,6.1
2022,10,5,20:20,UTC,8,1006.5,-,100,0,-1,12.4,12.4,6010,226,9.1,5.8
2022,10,5,20:30,UTC,8,1006.4,-,100,0.4,-1,12.4,12.4,6190,224,10.5,5.8
2022,10,5,20:40,UTC,7,1006.3,-,100,0,-1,12.4,12.4,5390,222,10.4,5.6
2022,10,5,20:50,UTC,7,1006.3,-,100,0.5,-1,12.4,12.4,4730,221,9.1,5.8
2022,10,5,21:00,UTC,8,1006.1,0.2,100,0.1,-1,12.4,12.4,5700,225,9.3,5.5
2022,10,5,21:10,UTC,8,1006,-,100,0,-1,12.5,12.5,8010,221,9,5.8
2022,10,5,21:20,UTC,7,1006.1,-,100,0,-1,12.5,12.5,7650,229,9.8,5.8
2022,10,5,21:30,UTC,8,1006.1,-,100,0,-1,12.5,12.5,7150,227,10,5.8
2022,10,5,21:40,UTC,7,1006.2,-,100,0,-1,12.6,12.6,6670,228,9.5,5.8
2022,10,5,21:50,UTC,7,1006.1,-,100,0,-1,12.6,12.6,6130,233,9.1,5.8
2022,10,5,22:00,UTC,8,1006,0,100,0,-1,12.6,12.6,5170,230,9.6,4.9
2022,10,5,22:10,UTC,8,1006,-,100,0,-1,12.7,12.7,5470,231,10.3,6.3
2022,10,5,22:20,UTC,8,1005.8,-,100,0,-1,12.7,12.7,4770,229,11.7,6.9
2022,10,5,22:30,UTC,8,1005.8,-,100,0,-1,12.6,12.6,4070,228,11.4,6.8
2022,10,5,22:40,UTC,7,1005.7,-,100,0,-1,12.6,12.6,3850,234,12.1,6.8
2022,10,5,22:50,UTC,7,1005.6,-,100,0,-1,12.6,12.6,4110,236,10.7,6.8
2022,10,5,23:00,UTC,8,1005.6,0,100,0,-1,12.6,12.6,4090,239,13.1,7.8
2022,10,5,23:10,UTC,8,1005.4,-,100,0,-1,12.6,12.6,3770,239,12.8,7.2
2022,10,5,23:20,UTC,8,1005.3,-,100,0.4,-1,12.6,12.6,3720,240,13.8,8.2
2022,10,5,23:30,UTC,8,1005.2,-,100,0.1,-1,12.5,12.5,2400,236,11.9,7.7
2022,10,5,23:40,UTC,7,1005,-,100,0,-1,12.5,12.5,2320,236,14.8,8.7
2022,10,5,23:50,UTC,7,1004.8,-,100,0,-1,12.4,12.4,1690,235,12.9,8.4
2022,10,6,00:00,UTC,8,1004.9,0.1,100,0,-1,12.3,12.3,1810,234,12,7
2022,10,6,00:10,UTC,8,1004.8,-,100,0,-1,12.3,12.3,1680,237,12.6,8.3
2022,10,6,00:20,UTC,8,1004.7,-,100,0,-1,12.4,12.4,2090,237,11.8,7.3
2022,10,6,00:30,UTC,8,1004.5,-,100,0,-1,12.4,12.4,2310,237,15,7.8
2022,10,6,00:40,UTC,7,1004.4,-,100,0,-1,12.4,12.4,3280,230,13.4,7.5
2022,10,6,00:50,UTC,7,1004.4,-,100,0,-1,12.5,12.5,6110,232,14.5,8.6
2022,10,6,01:00,UTC,8,1004.2,0,100,0,-1,12.5,12.5,8660,228,13.4,8.7
2022,10,6,01:10,UTC,8,1004,-,98,0,-1,12.5,12.3,11140,229,12.5,7.6
2022,10,6,01:20,UTC,7,1003.9,-,97,0,-1,12.6,12.2,13740,230,15.1,8.5
2022,10,6,01:30,UTC,7,1003.7,-,96,0,-1,12.7,12,16110,230,14.6,8.8
2022,10,6,01:40,UTC,7,1003.7,-,95,0,-1,12.7,11.9,17550,226,14,8.4
2022,10,6,01:50,UTC,7,1003.6,-,95,0,-1,12.7,12,16580,229,14.4,9.5
2022,10,6,02:00,UTC,8,1003.5,0,96,0,-1,12.6,12,9920,232,13.7,8.7
2022,10,6,02:10,UTC,8,1003.4,-,97,0,-1,12.5,12.1,5660,229,14.1,8.4
2022,10,6,02:20,UTC,8,1003.2,-,98,0,-1,12.4,12.1,4920,228,14.5,8.5
2022,10,6,02:30,UTC,8,1003.1,-,98,0,-1,12.5,12.2,7230,226,14.9,9.9
2022,10,6,02:40,UTC,7,1003,-,97,0,-1,12.6,12.1,13350,228,14.5,9
2022,10,6,02:50,UTC,7,1002.9,-,95,0,-1,12.6,11.9,16600,227,12.4,8.1
2022,10,6,03:00,UTC,7,1002.8,0,94,0,-1,12.7,11.7,20260,226,13.2,8.3
2022,10,6,03:10,UTC,7,1002.6,-,93,0,-1,12.8,11.6,23490,227,13.4,7.7
2022,10,6,03:20,UTC,8,1002.5,-,94,0,-1,12.7,11.7,21000,228,14.3,8.2
2022,10,6,03:30,UTC,7,1002.2,-,94,0,-1,12.7,11.7,17830,230,14.7,9.1
2022,10,6,03:40,UTC,7,1001.9,-,95,0,-1,12.6,11.8,13130,226,14.4,8.4
2022,10,6,03:50,UTC,7,1001.8,-,95,0,-1,12.6,11.8,9880,229,14.3,8.8
2022,10,6,04:00,UTC,7,1001.7,0,95,0,-1,12.6,11.8,13160,226,14.8,8.9
2022,10,6,04:10,UTC,8,1001.7,-,94,0,-1,12.6,11.7,8230,227,14.4,9.4
2022,10,6,04:20,UTC,7,1001.6,-,95,0,-1,12.5,11.6,7140,229,14.3,8.7
2022,10,6,04:30,UTC,8,1001.5,-,95,0,-1,12.4,11.7,6150,228,13.8,8.4
2022,10,6,04:40,UTC,7,1001.3,-,96,0,-1,12.4,11.8,5900,227,14.9,9
2022,10,6,04:50,UTC,7,1001.2,-,97,0.3,-1,12.3,11.8,5720,228,15.7,9.5
2022,10,6,05:00,UTC,8,1001.2,0.1,98,0,-1,12.2,11.8,4470,230,16.9,9.5
2022,10,6,05:10,UTC,8,1001.1,-,98,0.6,-1,12.1,11.8,4280,227,16.6,10.4
2022,10,6,05:20,UTC,8,1000.9,-,98,0.3,-1,12.1,11.8,4850,226,16.1,9.7
2022,10,6,05:30,UTC,8,1000.8,-,98,0.1,-1,12.1,11.8,8850,227,14.4,8.6
2022,10,6,05:40,UTC,8,1000.7,-,97,0,-1,12.2,11.8,14360,230,14.1,8.4
2022,10,6,05:50,UTC,7,1000.6,-,95,0,-1,12.3,11.6,18290,231,14.4,8.5
2022,10,6,06:00,UTC,8,1000.6,0.2,93,0,-1,12.6,11.5,19290,227,14.7,8.8
2022,10,6,06:10,UTC,7,1000.5,-,92,0,-1,12.7,11.4,19140,229,16,8.6
2022,10,6,06:20,UTC,7,1000.3,-,90,0,-1,12.8,11.2,23330,231,17.9,10
2022,10,6,06:30,UTC,8,1000.2,-,90,0,-1,12.8,11.1,22030,230,16,9
2022,10,6,06:40,UTC,8,1000.1,-,89,0,-1,12.8,11.1,15990,232,16.9,10.6
2022,10,6,06:50,UTC,7,1000.1,-,91,0,-1,12.6,11.2,10710,232,16.6,10.1
2022,10,6,07:00,UTC,8,1000.1,0,90,0,-1,12.7,11.2,13810,232,16.9,10.1
2022,10,6,07:10,UTC,7,999.9,-,91,0,-1,12.7,11.3,13000,231,16.4,10.8
2022,10,6,07:20,UTC,8,999.8,-,91,0,-1,12.8,11.3,16640,232,16.4,9.7
2022,10,6,07:30,UTC,7,999.7,-,90,0,-1,12.9,11.2,18770,232,14.8,10.1
2022,10,6,07:40,UTC,7,999.6,-,93,0,-1,12.6,11.6,5270,230,15.9,9.3
2022,10,6,07:50,UTC,7,999.4,-,96,0,-1,12.5,11.8,3990,231,13.2,7.9
2022,10,6,08:00,UTC,8,999.3,0.1,97,0.4,-1,12.4,12,3630,231,16.2,9.3
2022,10,6,08:10,UTC,8,999.1,-,98,0.7,-1,12.4,12.1,3830,230,17,10.4
2022,10,6,08:20,UTC,8,998.9,-,99,0.8,-1,12.4,12.2,3240,227,15.9,9.8
2022,10,6,08:30,UTC,8,998.8,-,100,0.8,-1,12.4,12.4,3370,229,15.1,8.6
2022,10,6,08:40,UTC,8,998.7,-,100,0.7,-1,12.4,12.4,3840,234,16.3,8.5
2022,10,6,08:50,UTC,7,998.6,-,100,0.8,-1,12.5,12.5,3000,233,15.2,8.1
2022,10,6,09:00,UTC,8,998.5,0.9,100,1.3,-1,12.5,12.5,3470,239,15.7,9.8
2022,10,6,09:10,UTC,8,998.5,-,100,1.9,-1,12.6,12.6,3350,236,15.7,10
2022,10,6,09:20,UTC,8,998.3,-,100,1.8,-1,12.6,12.6,3570,235,17.6,9.7
2022,10,6,09:30,UTC,8,998.3,-,100,1.2,-1,12.7,12.7,3460,235,17.5,10.5
2022,10,6,09:40,UTC,8,998.3,-,100,1.3,-1,12.7,12.7,3680,237,15.7,9.4
2022,10,6,09:50,UTC,7,998.2,-,100,1.3,-1,12.7,12.7,4210,236,16.6,10.2
2022,10,6,10:00,UTC,8,998.1,1.3,100,0.4,-1,12.8,12.8,4550,241,16.9,9.8
2022,10,6,10:10,UTC,8,998.2,-,100,0.8,-1,12.8,12.8,5880,244,14.3,8.7
2022,10,6,10:20,UTC,7,998.2,-,100,1,-1,12.9,12.9,5370,249,14.2,8.7
2022,10,6,10:30,UTC,7,998.4,-,99,0.4,-1,13.1,12.9,19010,251,13.8,8.2
2022,10,6,10:40,UTC,7,998.4,-,98,0,-1,13.3,13.1,21640,252,14.1,8.1
2022,10,6,10:50,UTC,7,998.5,-,96,0,-1,13.6,12.9,28280,249,13.1,7.2
2022,10,6,11:00,UTC,7,998.5,0.4,95,0,-1,13.5,12.7,32830,249,14.6,8.7
2022,10,6,11:10,UTC,7,998.6,-,94,0,-1,13.5,12.5,22610,249,14.7,8.9
2022,10,6,11:20,UTC,7,998.8,-,93,0,-1,13.7,12.5,32990,252,13.5,8.6
2022,10,6,11:30,UTC,7,998.9,-,90,0,-1,14,12.3,35740,254,14.9,9.1
2022,10,6,11:40,UTC,7,999.1,-,86,0,-1,14.3,12,32710,260,14,8.3
2022,10,6,11:50,UTC,7,999.2,-,83,0,-1,14.5,11.7,42330,270,14.3,7.5
2022,10,6,12:00,UTC,7,999.6,0,81,0,-1,14.3,11.1,45790,279,15.9,9.9
2022,10,6,12:10,UTC,5,1000.1,-,76,0,-1,14.4,10.2,50000,282,13.9,9.2
2022,10,6,12:20,UTC,5,1000.4,-,77,0,-1,13.6,9.6,49200,277,16.1,11.3
2022,10,6,12:30,UTC,5,1000.7,-,74,0,-1,14,9.5,47600,282,14.5,9.9
2022,10,6,12:40,UTC,1,1001,-,74,0,-1,14,9.3,50000,283,16.1,11
2022,10,6,12:50,UTC,1,1001.2,-,74,0,-1,13.8,9.3,50000,276,14.7,9.5
2022,10,6,13:00,UTC,3,1001.5,0,79,0,-1,12.8,9.3,50000,275,14.1,9.3
2022,10,6,13:10,UTC,1,1001.6,-,76,0,-1,13.5,9.3,50000,277,14.3,9.8
2022,10,6,13:20,UTC,1,1001.7,-,75,0,-1,13.6,9.3,50000,273,15,8.5
2022,10,6,13:30,UTC,0,1001.9,-,74,0,-1,13.6,9.1,46790,274,13.6,8.5
2022,10,6,13:40,UTC,0,1002.2,-,75,0,-1,13.4,8.9,50000,280,14.4,9.7
2022,10,6,13:50,UTC,1,1002.4,-,77,0,-1,13,9.1,50000,280,11.8,7.6
2022,10,6,14:00,UTC,3,1002.7,0,78,0,-1,13.1,9.4,47390,280,11.5,6.6
2022,10,6,14:10,UTC,5,1002.6,-,79,0,-1,13.1,9.5,50000,268,13.9,6.5
2022,10,6,14:20,UTC,5,1002.7,-,79,0,-1,13.2,9.7,50000,271,13.2,7.3
2022,10,6,14:30,UTC,3,1002.7,-,80,0,-1,13,9.6,50000,266,11.4,6
2022,10,6,14:40,UTC,1,1002.9,-,80,0,-1,12.9,9.6,50000,264,8.3,5.4
2022,10,6,14:50,UTC,0,1003.1,-,81,0,-1,12.8,9.5,50000,262,9.8,5.7
2022,10,6,15:00,UTC,0,1003.3,0,82,0,-1,12.6,9.5,50000,260,7.6,5
2022,10,6,15:10,UTC,0,1003.5,-,82,0,-1,12.4,9.4,50000,256,10.7,5.5
2022,10,6,15:20,UTC,0,1003.7,-,81,0,-1,12.4,9.2,50000,266,9.6,6
2022,10,6,15:30,UTC,0,1003.8,-,80,0,-1,12.3,9.1,50000,263,11.1,6.7
2022,10,6,15:40,UTC,0,1004.1,-,79,0,-1,12.4,8.9,50000,262,12.4,6.8
2022,10,6,15:50,UTC,1,1004.4,-,79,0,-1,12.4,8.9,49320,265,13.3,7.7
2022,10,6,16:00,UTC,3,1004.5,0,81,0,-1,12,8.8,48070,264,11,6.6
2022,10,6,16:10,UTC,1,1004.7,-,81,0,-1,11.9,8.7,50000,261,11.5,7.1
2022,10,6,16:20,UTC,1,1004.8,-,81,0,-1,11.9,8.8,50000,260,10,5.9
2022,10,6,16:30,UTC,0,1005,-,82,0,-1,11.6,8.7,50000,259,10.1,5.4
2022,10,6,16:40,UTC,0,1005.1,-,81,0,-1,11.8,8.6,47870,261,12.4,6.3
2022,10,6,16:50,UTC,0,1005.2,-,81,0,-1,11.8,8.6,47780,259,9.3,6
2022,10,6,17:00,UTC,1,1005.2,0,83,0,-1,11.4,8.6,45450,264,13.8,6.2
2022,10,6,17:10,UTC,1,1005.2,-,82,0,-1,11.4,8.5,42360,262,11.2,6.8
2022,10,6,17:20,UTC,1,1005.3,-,80,0,-1,11.7,8.4,42690,265,12.6,7.4
2022,10,6,17:30,UTC,1,1005.4,-,82,0,-1,11.4,8.3,44750,262,11.1,6.7
2022,10,6,17:40,UTC,1,1005.6,-,81,0,-1,11.4,8.3,46150,264,10.6,6.6
2022,10,6,17:50,UTC,1,1005.7,-,80,0,-1,11.4,8.1,49940,266,11.3,6.9
2022,10,6,18:00,UTC,1,1005.7,0,81,0,-1,11.3,8.1,44650,266,11.8,6.2
2022,10,6,18:10,UTC,1,1005.8,-,81,0,-1,11.2,8.1,50000,265,10.9,6.3
2022,10,6,18:20,UTC,1,1005.9,-,80,0,-1,11.3,8,49010,261,11.1,6.7
2022,10,6,18:30,UTC,1,1005.9,-,79,0,-1,11.5,8,45860,266,10.2,5.9
2022,10,6,18:40,UTC,0,1005.9,-,80,0,-1,11.4,8,50000,265,12.1,6.6
2022,10,6,18:50,UTC,0,1006.1,-,81,0,-1,11.3,8.1,48560,263,10.5,6.5
2022,10,6,19:00,UTC,0,1006.1,0,81,0,-1,11.5,8.4,42330,261,11.4,6.8
2022,10,6,19:10,UTC,1,1006.2,-,83,0,-1,11.4,8.6,47740,260,9.6,6.4
2022,10,6,19:20,UTC,1,1006.4,-,83,0,-1,11.5,8.6,49380,265,12,7.1
2022,10,6,19:30,UTC,1,1006.4,-,83,0,-1,11.3,8.5,40310,266,11.5,6.6
2022,10,6,19:40,UTC,1,1006.5,-,84,0,-1,11,8.4,40930,266,9.8,6.2
2022,10,6,19:50,UTC,1,1006.6,-,82,0,-1,11.5,8.6,37430,262,11.5,6.7
2022,10,6,20:00,UTC,0,1006.6,0,82,0,-1,11.3,8.4,42240,262,10.8,6.6
2022,10,6,20:10,UTC,0,1006.7,-,83,0,-1,11.3,8.5,44110,266,10.6,6.2
2022,10,6,20:20,UTC,0,1006.8,-,84,0,-1,11,8.5,39530,264,10.4,6
2022,10,6,20:30,UTC,0,1006.9,-,83,0,-1,11.2,8.4,36590,263,10.6,6.3
2022,10,6,20:40,UTC,0,1007,-,83,0,-1,11,8.3,36890,265,11.4,6.1
2022,10,6,20:50,UTC,0,1007.1,-,81,0,-1,11.3,8.2,34590,262,11.5,6.3
2022,10,6,21:00,UTC,0,1007.2,0,81,0,-1,11.4,8.2,38890,262,10.9,7
2022,10,6,21:10,UTC,0,1007.3,-,81,0,-1,11.3,8.1,38150,264,9.3,6.6
2022,10,6,21:20,UTC,0,1007.5,-,80,0,-1,11.3,8.1,38160,265,13.6,7.7
2022,10,6,21:30,UTC,0,1007.7,-,79,0,-1,11.3,7.9,40230,266,11.9,7.1
2022,10,6,21:40,UTC,0,1007.7,-,81,0,-1,11,7.9,35100,267,10.6,6.7
2022,10,6,21:50,UTC,0,1007.8,-,80,0,-1,11.2,7.8,43570,265,11.5,7
2022,10,6,22:00,UTC,0,1007.8,0,80,0,-1,11,7.7,44830,262,10.1,6.3
2022,10,6,22:10,UTC,0,1007.9,-,80,0,-1,11,7.8,48090,261,8.8,5.4
2022,10,6,22:20,UTC,0,1007.9,-,80,0,-1,10.9,7.7,45400,260,10.6,6.1
2022,10,6,22:30,UTC,0,1008,-,80,0,-1,11,7.7,45630,256,9.1,5.3
2022,10,6,22:40,UTC,0,1008,-,80,0,-1,11.1,7.9,43750,258,9.6,5.4
2022,10,6,22:50,UTC,0,1008,-,82,0,-1,10.8,7.8,37210,252,7.9,4.9
2022,10,6,23:00,UTC,1,1008.1,0,81,0,-1,11.1,7.9,30700,256,9.6,5.5
2022,10,6,23:10,UTC,1,1008.2,-,80,0,-1,11.3,7.9,29170,256,9.8,5.6
2022,10,6,23:20,UTC,3,1008.3,-,81,0,-1,11.2,8,28040,253,8.6,5.6
2022,10,6,23:30,UTC,5,1008.3,-,79,0,-1,11.5,8.1,31420,257,10,5.7
2022,10,6,23:40,UTC,7,1008.3,-,78,0,-1,11.8,8.1,25440,256,8.7,5.5
2022,10,6,23:50,UTC,7,1008.3,-,78,0,-1,11.9,8.2,24650,256,9.5,5.1
2022,10,7,00:00,UTC,7,1008.3,0,78,0,-1,12,8.2,27060,264,11.5,5.8
2022,10,7,00:10,UTC,7,1008.3,-,77,0,-1,12,8.1,28410,262,12.5,7
2022,10,7,00:20,UTC,7,1008.3,-,78,0,-1,11.9,8.2,28290,262,11.1,6.1
2022,10,7,00:30,UTC,7,1008.3,-,79,0,-1,11.8,8.2,23940,264,9.9,5.6
2022,10,7,00:40,UTC,7,1008.4,-,77,0,-1,12,8.1,30130,265,10.2,6
2022,10,7,00:50,UTC,7,1008.5,-,77,0,-1,11.9,8,27840,267,9.3,5.3
2022,10,7,01:00,UTC,5,1008.6,0,77,0,-1,11.9,8,30120,266,11.1,6.4
2022,10,7,01:10,UTC,5,1008.6,-,78,0,-1,11.6,7.9,32210,267,8.9,5.7
2022,10,7,01:20,UTC,3,1008.5,-,77,0,-1,11.6,7.7,26390,264,9.8,5.5
2022,10,7,01:30,UTC,3,1008.6,-,78,0,-1,11.3,7.7,30650,264,9.4,5.8
2022,10,7,01:40,UTC,1,1008.6,-,79,0,-1,11.2,7.6,26420,262,9.8,5.7
2022,10,7,01:50,UTC,1,1008.7,-,80,0,-1,11,7.7,26360,257,8.7,5.3
2022,10,7,02:00,UTC,0,1008.7,0,81,0,-1,10.9,7.8,27430,254,8.7,5.5
2022,10,7,02:10,UTC,0,1008.7,-,82,0,-1,10.8,7.7,27760,258,9.4,5.9
2022,10,7,02:20,UTC,1,1008.8,-,79,0,-1,11.2,7.8,26580,260,12.6,6
2022,10,7,02:30,UTC,1,1008.9,-,79,0,-1,11.2,7.7,25590,265,12,7
2022,10,7,02:40,UTC,3,1008.8,-,79,0,-1,11.2,7.7,24100,264,10.6,6
2022,10,7,02:50,UTC,1,1008.8,-,79,0,-1,11.1,7.6,22880,259,10.9,5.8
2022,10,7,03:00,UTC,1,1008.9,0,80,0,-1,10.9,7.6,23040,265,10,5.8
2022,10,7,03:10,UTC,0,1008.8,-,80,0,-1,11,7.7,21640,264,10.3,6.3
2022,10,7,03:20,UTC,0,1008.9,-,79,0,-1,11.2,7.6,20280,266,12.8,6.8
2022,10,7,03:30,UTC,0,1009,-,79,0,-1,11,7.6,21260,271,12,6
2022,10,7,03:40,UTC,0,1008.9,-,80,0,-1,11,7.7,20240,268,9.5,5.7
2022,10,7,03:50,UTC,0,1009.1,-,80,0,-1,11,7.6,20710,270,12.4,7.1
2022,10,7,04:00,UTC,1,1009.2,0,80,0,-1,11,7.7,18580,267,9.9,6.4
2022,10,7,04:10,UTC,1,1009.3,-,81,0,-1,11,7.8,18620,273,9.9,5.8
2022,10,7,04:20,UTC,3,1009.3,-,81,0,-1,11,7.8,18740,271,11.5,6.6
2022,10,7,04:30,UTC,1,1009.4,-,81,0,-1,10.9,7.7,17950,274,11,6.4
2022,10,7,04:40,UTC,1,1009.5,-,80,0,-1,11.1,7.9,19230,278,11.4,7
2022,10,7,04:50,UTC,1,1009.5,-,80,0,-1,11.1,7.8,18510,278,11.7,7.2
2022,10,7,05:00,UTC,1,1009.6,0,80,0,-1,11,7.7,17740,277,10.9,6.4
2022,10,7,05:10,UTC,1,1009.6,-,81,0,-1,10.9,7.8,17720,275,10.1,6.5
2022,10,7,05:20,UTC,1,1009.7,-,81,0,-1,11,7.8,18570,272,10.2,6.2
2022,10,7,05:30,UTC,0,1009.8,-,81,0,-1,10.8,7.8,17090,272,10,5.5
2022,10,7,05:40,UTC,0,1009.9,-,81,0,-1,11.2,8,17220,272,11.9,6.6
2022,10,7,05:50,UTC,0,1010,-,81,0,-1,11.3,8.1,18830,276,9.9,6.2
2022,10,7,06:00,UTC,0,1010.1,0,80,0,-1,11.6,8.2,17220,279,10.1,6.4
2022,10,7,06:10,UTC,0,1010.3,-,78,0,-1,11.9,8.2,17480,277,13.9,8
2022,10,7,06:20,UTC,0,1010.4,-,78,0,-1,12,8.2,18010,278,11.4,7.8
2022,10,7,06:30,UTC,0,1010.7,-,77,0,-1,12.2,8.2,19310,276,10.6,6.8
2022,10,7,06:40,UTC,0,1010.9,-,77,0,-1,12.3,8.4,18520,276,11.7,7.6
2022,10,7,06:50,UTC,1,1011,-,76,0,-1,12.5,8.4,18840,277,9.9,6.7
2022,10,7,07:00,UTC,3,1011.1,0,75,0,-1,12.7,8.4,18950,277,9.7,6
2022,10,7,07:10,UTC,5,1011.2,-,75,0,-1,12.8,8.5,18260,278,11.4,7.4
2022,10,7,07:20,UTC,7,1011.3,-,75,0,-1,12.7,8.4,18460,279,13.2,7
2022,10,7,07:30,UTC,7,1011.2,-,75,0,-1,12.8,8.4,18960,281,10.8,6.8
2022,10,7,07:40,UTC,7,1011.3,-,72,0,-1,12.9,8.1,19130,280,12.4,7.3
2022,10,7,07:50,UTC,7,1011.4,-,72,0,-1,13,8.1,21190,277,12,7.3
2022,10,7,08:00,UTC,7,1011.5,0,71,0,-1,13.1,8,22030,273,11.6,6.8
2022,10,7,08:10,UTC,7,1011.5,-,71,0,-1,13.1,8,21140,277,13.1,8.2
2022,10,7,08:20,UTC,7,1011.6,-,70,0,-1,13.3,8,20740,272,11.7,7.1
2022,10,7,08:30,UTC,5,1011.6,-,69,0,-1,13.7,8.1,23860,270,10.9,6.8
2022,10,7,08:40,UTC,5,1011.6,-,70,0,-1,13.8,8.3,20830,270,12.4,6.8
2022,10,7,08:50,UTC,5,1011.6,-,66,0,-1,14.5,8.2,23220,271,12.5,6.5
2022,10,7,09:00,UTC,5,1011.6,0,67,0,-1,15,8.8,22530,275,12.2,6.4
2022,10,7,09:10,UTC,5,1011.8,-,66,0,-1,14.1,7.8,23060,269,11,6.5
2022,10,7,09:20,UTC,5,1011.7,-,66,0,-1,14.1,7.8,24030,271,11.7,8.3
2022,10,7,09:30,UTC,5,1011.6,-,61,0,-1,15.1,7.6,27020,266,13.4,7.8
2022,10,7,09:40,UTC,7,1011.5,-,62,0,-1,15.3,8.1,24840,262,14.9,7.8
2022,10,7,09:50,UTC,5,1011.6,-,61,0,-1,14.9,7.3,23060,264,14.3,8.7
2022,10,7,10:00,UTC,1,1011.7,0,62,0,-1,15,7.7,23710,267,15.6,8.3
2022,10,7,10:10,UTC,1,1011.6,-,63,0,-1,15.1,8.1,25500,265,16,8.8
2022,10,7,10:20,UTC,1,1011.6,-,62,0,-1,14.9,7.6,23760,266,13.3,7.3
2022,10,7,10:30,UTC,1,1011.6,-,65,0,-1,15.1,8.5,25590,279,12,8.1
2022,10,7,10:40,UTC,3,1011.5,-,58,0,-1,15.4,7.3,26550,279,14,8.7
2022,10,7,10:50,UTC,5,1011.5,-,60,0,-1,15.7,7.8,32080,275,13.1,7
2022,10,7,11:00,UTC,5,1011.5,0,61,0,-1,15,7.5,22830,274,13.4,7.9
2022,10,7,11:10,UTC,1,1011.5,-,63,0,-1,14.9,8,25200,270,13.9,7.3
2022,10,7,11:20,UTC,1,1011.6,-,65,0,-1,14.6,8,23210,267,12.3,8
2022,10,7,11:30,UTC,1,1011.6,-,66,0,-1,14.9,8.7,25100,255,12,7
2022,10,7,11:40,UTC,3,1011.6,-,68,0,-1,14.9,9.1,20760,254,11.7,6.8
2022,10,7,11:50,UTC,5,1011.6,-,70,0,-1,14.8,9.4,21100,251,13.5,7.3
2022,10,7,12:00,UTC,5,1011.6,0,72,0,-1,14.7,9.6,21830,248,11.2,7
2022,10,7,12:10,UTC,5,1011.6,-,74,0,-1,14.5,10,17900,245,10.4,6
2022,10,7,12:20,UTC,5,1011.5,-,75,0,-1,14.7,10.3,18510,242,13.5,8
2022,10,7,12:30,UTC,3,1011.6,-,76,0,-1,14.5,10.4,18630,251,12.1,8.1
2022,10,7,12:40,UTC,1,1011.7,-,77,0,-1,14.1,10.3,18230,251,12,8
2022,10,7,12:50,UTC,3,1011.7,-,78,0,-1,13.9,10.1,18130,254,13.7,8.6
2022,10,7,13:00,UTC,5,1011.5,0,77,0,-1,14.1,10.1,17170,252,13.5,8.2
2022,10,7,13:10,UTC,7,1011.6,-,77,0,-1,14.1,10.1,18410,252,13.6,9.3
2022,10,7,13:20,UTC,7,1011.5,-,76,0,-1,14.5,10.4,21090,250,14.4,8.8
2022,10,7,13:30,UTC,5,1011.5,-,79,0,-1,13.6,10.1,17790,249,14.3,8.5
2022,10,7,13:40,UTC,5,1011.4,-,81,0,-1,13.4,10.2,17320,246,13.9,8.6
2022,10,7,13:50,UTC,5,1011.4,-,82,0,-1,13.3,10.3,16760,253,13.6,7.9
2022,10,7,14:00,UTC,7,1011.3,0,82,0,-1,13.2,10.3,17190,251,12.7,8.3
2022,10,7,14:10,UTC,7,1011.3,-,84,0,-1,13.1,10.5,16590,253,13.2,8.1
2022,10,7,14:20,UTC,8,1011.3,-,85,0,-1,13.1,10.6,15450,253,13.7,8.3
2022,10,7,14:30,UTC,8,1011.3,-,86,0,-1,13,10.7,14630,250,14.9,8.3
2022,10,7,14:40,UTC,8,1011.2,-,86,0,-1,12.9,10.7,16350,248,14.8,8.4
2022,10,7,14:50,UTC,8,1011.3,-,86,0,-1,12.9,10.7,16870,252,13.5,9.1
2022,10,7,15:00,UTC,7,1011.2,0,87,0,-1,12.9,10.7,15880,249,13.8,8.5
2022,10,7,15:10,UTC,7,1011.1,-,87,0,-1,12.9,10.7,16010,247,14.7,9
2022,10,7,15:20,UTC,8,1011,-,87,0,-1,12.9,10.8,16650,249,15.2,9.8
2022,10,7,15:30,UTC,8,1011,-,87,0,-1,12.9,10.8,17020,249,14.1,9.2
2022,10,7,15:40,UTC,8,1010.9,-,87,0,-1,12.9,10.8,16090,244,13.3,8
2022,10,7,15:50,UTC,8,1010.8,-,88,0,-1,12.9,10.9,16360,245,13.1,8.1
2022,10,7,16:00,UTC,7,1010.7,0,87,0,-1,13,10.9,15870,245,15.3,9.6
2022,10,7,16:10,UTC,7,1010.8,-,87,0,-1,13,10.9,15420,244,15,9.2
2022,10,7,16:20,UTC,8,1010.7,-,87,0,-1,13,10.9,17080,248,13.9,8.4
2022,10,7,16:30,UTC,8,1010.7,-,87,0,-1,13,10.9,17150,248,13.8,8.3
2022,10,7,16:40,UTC,8,1010.6,-,87,0,-1,13.1,10.9,17230,250,14.8,8.4
2022,10,7,16:50,UTC,8,1010.6,-,86,0,-1,13.2,10.9,18260,247,16.5,10.3
2022,10,7,17:00,UTC,7,1010.5,0,86,0,-1,13.1,10.8,19710,248,14.7,8.1
2022,10,7,17:10,UTC,7,1010.5,-,85,0,-1,13.2,10.8,18590,248,15.9,10.5
2022,10,7,17:20,UTC,8,1010.5,-,85,0,-1,13.2,10.7,18500,246,16.6,10.8
2022,10,7,17:30,UTC,8,1010.6,-,86,0,-1,13,10.7,17930,243,15.2,9.1
2022,10,7,17:40,UTC,8,1010.5,-,87,0,-1,12.9,10.7,16300,245,13.7,8.3
2022,10,7,17:50,UTC,8,1010.5,-,85,0,-1,13,10.6,18300,246,14.6,9.1
2022,10,7,18:00,UTC,7,1010.4,0,86,0,-1,12.9,10.6,17740,247,14.3,8.5
2022,10,7,18:10,UTC,7,1010.4,-,85,0,-1,12.9,10.4,20170,246,15.5,9.5
2022,10,7,18:20,UTC,7,1010.4,-,85,0,-1,12.9,10.4,20630,244,14.9,8.8
2022,10,7,18:30,UTC,7,1010.4,-,85,0,-1,12.8,10.3,21590,245,15,8.3
2022,10,7,18:40,UTC,7,1010.4,-,85,0,-1,12.7,10.3,20250,245,13,8
2022,10,7,18:50,UTC,8,1010.3,-,85,0,-1,12.7,10.3,22150,245,14.1,7.6
2022,10,7,19:00,UTC,7,1010.1,0,85,0,-1,12.6,10.1,20720,244,17.6,9.9
2022,10,7,19:10,UTC,7,1010.2,-,85,0,-1,12.5,10.2,20000,245,13.7,8.3
2022,10,7,19:20,UTC,8,1010.1,-,85,0,-1,12.5,10.1,21570,244,16.1,8.9
2022,10,7,19:30,UTC,8,1010,-,85,0,-1,12.4,10,22660,245,15.2,8.9
2022,10,7,19:40,UTC,8,1009.9,-,85,0,-1,12.4,9.9,21030,243,17,9.7
2022,10,7,19:50,UTC,8,1009.9,-,85,0,-1,12.3,9.8,22430,242,16.8,10.4
2022,10,7,20:00,UTC,7,1009.9,0,85,0,-1,12.2,9.8,22040,240,14.7,9.6
2022,10,7,20:10,UTC,7,1009.9,-,85,0,-1,12.2,9.7,22680,243,15.8,8.9
2022,10,7,20:20,UTC,8,1009.8,-,85,0,-1,12.1,9.7,23300,241,15.4,10.1
2022,10,7,20:30,UTC,8,1009.8,-,86,0,-1,12,9.7,21790,241,15.5,10.6
2022,10,7,20:40,UTC,8,1009.7,-,86,0,-1,12,9.7,21320,238,14.9,9.3
2022,10,7,20:50,UTC,8,1009.7,-,87,0,-1,11.9,9.8,20040,237,14.5,8.6
2022,10,7,21:00,UTC,7,1009.5,0,87,0,-1,11.8,9.8,18450,237,15.1,8.9
2022,10,7,21:10,UTC,7,1009.4,-,87,0,-1,11.8,9.8,19480,238,14.1,8.4
2022,10,7,21:20,UTC,8,1009.2,-,88,0,-1,11.8,9.8,19410,236,13.8,8.6
2022,10,7,21:30,UTC,8,1009.1,-,88,0,-1,11.8,9.8,19710,233,16.3,9.2
2022,10,7,21:40,UTC,7,1009.1,-,88,0,-1,11.8,9.8,20660,233,14.1,8.7
2022,10,7,21:50,UTC,7,1009,-,87,0,-1,11.8,9.8,19430,234,17.1,9.7
2022,10,7,22:00,UTC,7,1008.9,0,88,0,-1,11.8,9.8,19470,232,16.2,8.5
2022,10,7,22:10,UTC,7,1008.9,-,89,0,-1,11.7,10,15080,235,12.8,8.4
2022,10,7,22:20,UTC,8,1008.7,-,90,0,-1,11.7,10.1,14490,235,15.5,8.3
2022,10,7,22:30,UTC,8,1008.6,-,89,0,-1,11.8,10.1,17600,235,15.1,8.5
2022,10,7,22:40,UTC,8,1008.5,-,87,0,-1,12,9.9,17450,238,15.4,9.1
2022,10,7,22:50,UTC,8,1008.6,-,87,0,-1,12,9.9,18640,237,15.7,8.4
2022,10,7,23:00,UTC,8,1008.5,0,87,0,-1,12,9.9,18650,237,15.4,8.8
2022,10,7,23:10,UTC,7,1008.4,-,87,0,-1,12,9.9,17860,238,15.2,8.7
2022,10,7,23:20,UTC,8,1008.3,-,87,0,-1,12,9.9,17540,239,14.2,8.9
2022,10,7,23:30,UTC,8,1008.1,-,87,0,-1,12,9.9,19390,236,13.8,8.9
2022,10,7,23:40,UTC,8,1008,-,87,0,-1,12,9.9,19070,240,12.4,8.1
2022,10,7,23:50,UTC,8,1007.9,-,87,0,-1,12,9.9,17390,240,13.8,8.6
2022,10,8,00:00,UTC,8,1007.8,0,87,0,-1,11.9,9.9,18540,238,13.5,7.8
2022,10,8,00:10,UTC,7,1007.6,-,87,0,-1,11.9,9.9,18670,235,14.3,8.4
2022,10,8,00:20,UTC,8,1007.5,-,87,0,-1,11.9,9.8,18130,238,14.7,8.7
2022,10,8,00:30,UTC,8,1007.3,-,87,0,-1,11.9,9.8,17640,238,12.6,7.8
2022,10,8,00:40,UTC,8,1007.3,-,87,0,-1,11.8,9.8,18030,236,13.1,7.9
2022,10,8,00:50,UTC,7,1007.2,-,87,0,-1,11.8,9.7,17650,235,14,9.2
2022,10,8,01:00,UTC,7,1007.1,0,87,0,-1,11.8,9.7,18650,236,14.1,8
2022,10,8,01:10,UTC,7,1006.9,-,87,0,-1,11.8,9.7,17870,235,13.7,7.9
2022,10,8,01:20,UTC,8,1006.8,-,87,0,-1,11.7,9.7,18930,235,13.7,7.4
2022,10,8,01:30,UTC,8,1006.7,-,87,0,-1,11.7,9.7,18340,231,12,7.8
2022,10,8,01:40,UTC,8,1006.5,-,88,0,-1,11.7,9.7,18610,235,12.3,7.9
2022,10,8,01:50,UTC,8,1006.3,-,88,0,-1,11.7,9.7,17940,232,14.3,9.2
2022,10,8,02:00,UTC,8,1006.1,0,88,0,-1,11.7,9.7,17100,233,14.1,8.9
2022,10,8,02:10,UTC,7,1006,-,89,0,-1,11.6,9.8,18620,230,12.6,7.1
2022,10,8,02:20,UTC,8,1005.9,-,89,0,-1,11.6,9.8,17930,229,10.9,6.3
2022,10,8,02:30,UTC,8,1005.7,-,89,0,-1,11.6,9.9,18390,233,13.1,7.4
2022,10,8,02:40,UTC,8,1005.7,-,89,0,-1,11.6,9.9,17750,234,13.8,7.7
2022,10,8,02:50,UTC,7,1005.7,-,90,0,-1,11.6,9.9,18280,233,14.6,7.7
2022,10,8,03:00,UTC,7,1005.5,0,90,0,-1,11.6,10.1,18650,233,12.6,7.1
2022,10,8,03:10,UTC,7,1005.4,-,90,0,-1,11.6,10.1,18020,231,11,6.8
2022,10,8,03:20,UTC,7,1005.4,-,90,0,-1,11.7,10.1,17140,232,12.6,7.5
2022,10,8,03:30,UTC,7,1005.3,-,90,0,-1,11.7,10.1,16850,235,13.9,7.7
2022,10,8,03:40,UTC,7,1005.1,-,90,0,-1,11.7,10,17240,236,12.5,8.6
2022,10,8,03:50,UTC,8,1005.1,-,90,0,-1,11.7,10,18180,239,14.8,8.6
2022,10,8,04:00,UTC,7,1005.1,0,90,0,-1,11.7,10.1,17950,238,13.2,8.3
2022,10,8,04:10,UTC,7,1005.1,-,89,0,-1,11.8,10,18950,238,11.8,7.1
2022,10,8,04:20,UTC,7,1005,-,89,0,-1,11.8,10,21040,243,13,8
2022,10,8,04:30,UTC,7,1005,-,89,0,-1,11.8,10,19700,235,13.9,7.9
2022,10,8,04:40,UTC,8,1004.9,-,89,0,-1,11.7,10,19360,234,13.6,8.5
2022,10,8,04:50,UTC,8,1004.8,-,89,0,-1,11.7,10,18480,236,14.6,8.2
2022,10,8,05:00,UTC,8,1004.8,0,89,0,-1,11.7,10,20570,234,14.4,8.1
2022,10,8,05:10,UTC,7,1004.7,-,89,0,-1,11.8,10,19770,237,16.5,8.7
2022,10,8,05:20,UTC,7,1004.7,-,89,0,-1,11.7,9.9,19330,236,15.2,9.2
2022,10,8,05:30,UTC,8,1004.7,-,89,0,-1,11.6,9.9,19380,235,14.6,7.5
2022,10,8,05:40,UTC,8,1004.6,-,89,0,-1,11.6,9.9,19220,233,14.4,9.6
2022,10,8,05:50,UTC,8,1004.5,-,90,0,-1,11.6,9.9,19900,235,14.3,8.7
2022,10,8,06:00,UTC,7,1004.6,0,90,0,-1,11.5,10,13220,236,14.8,8.9
2022,10,8,06:10,UTC,7,1004.5,-,90,0,-1,11.6,10,17100,235,15.5,9.5
2022,10,8,06:20,UTC,8,1004.3,-,90,0,-1,11.6,10,18070,235,14.1,9.7
2022,10,8,06:30,UTC,8,1004.2,-,90,0,-1,11.6,10,20510,235,15.4,9
2022,10,8,06:40,UTC,7,1004.1,-,90,0,-1,11.6,10.1,19150,235,14,8.1
2022,10,8,06:50,UTC,8,1004,-,89,0,-1,11.8,10.1,19260,229,16.5,7.8
2022,10,8,07:00,UTC,8,1003.9,0,88,0,-1,11.9,10,21460,237,16.1,9.5
2022,10,8,07:10,UTC,7,1003.9,-,88,0,-1,12,10,21760,236,15,9.5
2022,10,8,07:20,UTC,8,1003.8,-,87,0,-1,12,9.9,22260,236,15.9,9.9
2022,10,8,07:30,UTC,7,1003.9,-,87,0,-1,11.9,9.9,21960,237,15.8,10.4
2022,10,8,07:40,UTC,8,1003.8,-,88,0,-1,11.9,9.9,22720,235,16.1,10.2
2022,10,8,07:50,UTC,8,1003.7,-,88,0,-1,11.9,9.9,21950,235,13.7,8.5
2022,10,8,08:00,UTC,8,1003.5,0,88,0,-1,11.9,9.9,23390,232,16.8,10.1
2022,10,8,08:10,UTC,7,1003.5,-,87,0,-1,12,9.8,21870,230,14.6,9.5
2022,10,8,08:20,UTC,8,1003.4,-,87,0,-1,12,9.9,23410,230,16.5,9.6
2022,10,8,08:30,UTC,8,1003.3,-,87,0,-1,12,9.9,20320,228,18.5,10.6
2022,10,8,08:40,UTC,8,1003.3,-,87,0,-1,12.2,10,20340,228,17.2,11.5
2022,10,8,08:50,UTC,8,1003.2,-,87,0,-1,12.1,10,24970,228,18.9,11.6
2022,10,8,09:00,UTC,8,1003.2,0,87,0,-1,12.2,10,23880,227,19.2,11.5
2022,10,8,09:10,UTC,7,1003.1,-,87,0,-1,12.2,10.1,21760,225,15.8,8.9
2022,10,8,09:20,UTC,7,1003,-,87,0,-1,12.1,10.1,17570,229,15.9,9
2022,10,8,09:30,UTC,7,1003,-,89,0,-1,12.1,10.2,17600,233,16.7,8.7
2022,10,8,09:40,UTC,8,1003.1,-,88,0,-1,12.1,10.1,21220,237,15.7,8.4
2022,10,8,09:50,UTC,8,1003,-,87,0,-1,12.2,10.2,21370,236,16.1,10.5
2022,10,8,10:00,UTC,8,1003,0,87,0,-1,12.1,10.1,20710,237,20.4,11.1
2022,10,8,10:10,UTC,7,1003,-,88,0,-1,12.2,10.2,20350,242,16,10.3
2022,10,8,10:20,UTC,7,1003,-,92,0,-1,11.7,10.5,10790,239,16.3,10.9
2022,10,8,10:30,UTC,7,1003,-,96,1.3,-1,11.5,10.9,5050,238,19,9.5
2022,10,8,10:40,UTC,7,1003,-,98,4.9,-1,11.3,11,4460,241,14.8,8.6
2022,10,8,10:50,UTC,8,1002.9,-,99,3.7,-1,11.4,11.2,5510,246,15,8.9
2022,10,8,11:00,UTC,7,1002.9,1.7,100,0.4,-1,11.7,11.7,9300,248,10.8,7.1
2022,10,8,11:10,UTC,7,1003,-,97,0.3,-1,11.7,11.2,15280,249,9.3,6
2022,10,8,11:20,UTC,7,1002.9,-,94,0.1,-1,11.6,10.6,25860,245,11.2,7.6
2022,10,8,11:30,UTC,7,1003,-,95,0,-1,11.7,11,37800,243,9.3,5.4
2022,10,8,11:40,UTC,7,1003,-,94,0,-1,11.6,10.6,40550,241,10.1,5.6
2022,10,8,11:50,UTC,8,1003,-,94,0,-1,11.5,10.6,34070,247,10,6.2
2022,10,8,12:00,UTC,8,1003,0.1,94,0,-1,11.4,10.6,26980,253,10.3,6
2022,10,8,12:10,UTC,7,1003.1,-,96,0.3,-1,11.4,10.8,15550,253,10.5,5.5
2022,10,8,12:20,UTC,7,1003,-,95,0.1,-1,11.4,10.7,24490,250,10.6,6.8
2022,10,8,12:30,UTC,7,1003,-,94,0,-1,11.6,10.7,37980,249,10.8,6.1
2022,10,8,12:40,UTC,7,1003,-,94,0,-1,11.5,10.5,41190,252,10.1,6.5
2022,10,8,12:50,UTC,5,1003.1,-,94,0,-1,11.5,10.5,37850,250,9.2,6.3
2022,10,8,13:00,UTC,7,1003,0.1,94,0,-1,11.5,10.5,41280,247,11.5,7.1
2022,10,8,13:10,UTC,7,1003,-,93,0,-1,11.6,10.5,44090,255,10,5.7
2022,10,8,13:20,UTC,7,1003,-,93,0,-1,11.8,10.6,40200,256,9.9,5.6
2022,10,8,13:30,UTC,7,1003,-,92,0,-1,11.8,10.6,40570,251,10.1,5.6
2022,10,8,13:40,UTC,5,1002.9,-,93,0,-1,11.8,10.6,38110,247,9.6,6.2
2022,10,8,13:50,UTC,5,1002.9,-,91,0,-1,11.8,10.4,44800,248,10.3,6
2022,10,8,14:00,UTC,5,1003,0,91,0,-1,11.9,10.4,44400,242,9,5.6
2022,10,8,14:10,UTC,5,1003,-,91,0,-1,11.9,10.4,41300,248,8.5,5.1
2022,10,8,14:20,UTC,7,1002.9,-,89,0,-1,11.9,10.2,42730,249,10,6.1
2022,10,8,14:30,UTC,7,1003,-,90,0,-1,11.8,10.2,41510,254,9.7,5.7
2022,10,8,14:40,UTC,5,1003,-,89,0,-1,11.7,10,42900,253,8.7,5.7
2022,10,8,14:50,UTC,3,1003.1,-,89,0,-1,11.6,9.8,40400,258,9,6.3
2022,10,8,15:00,UTC,3,1003.2,0,89,0,-1,11.4,9.6,44220,255,9.1,5.3
2022,10,8,15:10,UTC,3,1003.3,-,88,0,-1,11.4,9.5,44550,251,9,5.3
2022,10,8,15:20,UTC,3,1003.5,-,88,0,-1,11.2,9.2,48180,255,9.7,5.7
2022,10,8,15:30,UTC,5,1003.6,-,88,0,-1,11.1,9.1,46720,256,8.7,5.2
2022,10,8,15:40,UTC,5,1003.7,-,87,0,-1,11,9,49460,262,9.4,4.8
2022,10,8,15:50,UTC,5,1003.8,-,87,0,-1,10.8,8.7,48980,260,9.5,5
2022,10,8,16:00,UTC,3,1004,0,88,0,-1,10.3,8.5,46490,261,8.1,4.8
2022,10,8,16:10,UTC,1,1004.1,-,89,0,-1,10.2,8.4,45890,263,7.7,4.8
2022,10,8,16:20,UTC,1,1004.2,-,88,0,-1,10.3,8.4,49880,258,9,5.3
2022,10,8,16:30,UTC,1,1004.1,-,89,0,-1,10.1,8.4,46630,251,6.7,4.6
2022,10,8,16:40,UTC,1,1004.1,-,89,0,-1,10,8.3,40250,251,7.8,5.5
2022,10,8,16:50,UTC,1,1004.1,-,90,0,-1,9.8,8.2,39820,254,8.2,5.3
2022,10,8,17:00,UTC,0,1004.1,0,88,0,-1,9.9,8,43600,263,9.1,5.7
2022,10,8,17:10,UTC,0,1004.3,-,87,0,-1,9.9,7.9,42340,264,10,6
2022,10,8,17:20,UTC,0,1004.3,-,88,0,-1,9.7,7.7,38650,264,8.9,5.4
2022,10,8,17:30,UTC,0,1004.4,-,89,0,-1,9.5,7.8,36470,265,9.6,5.4
2022,10,8,17:40,UTC,0,1004.4,-,90,0,-1,9.6,8,36790,264,9.6,5.5
2022,10,8,17:50,UTC,0,1004.5,-,90,0,-1,9.5,8,38010,262,7.9,5.3
2022,10,8,18:00,UTC,0,1004.6,0,91,0,-1,9.3,7.9,36360,262,7.1,4.7
2022,10,8,18:10,UTC,0,1004.7,-,92,0,-1,9.2,8,34120,267,7.9,4.4
2022,10,8,18:20,UTC,0,1004.8,-,92,0,-1,9.3,8.1,34480,268,8.5,5.2
2022,10,8,18:30,UTC,0,1004.8,-,92,0,-1,9.3,8.1,35650,265,8.7,5.4
2022,10,8,18:40,UTC,0,1004.9,-,92,0,-1,9.2,8,33960,267,8.3,5
2022,10,8,18:50,UTC,0,1005,-,92,0,-1,9.1,7.9,32250,268,8.9,5.3
2022,10,8,19:00,UTC,0,1005.1,0,93,0,-1,9.2,8.1,36250,265,8.1,5.2
2022,10,8,19:10,UTC,0,1005.1,-,91,0,-1,9.3,7.9,38850,266,9.2,5.9
2022,10,8,19:20,UTC,0,1005.2,-,93,0,-1,9,7.9,32360,269,9,5.4
2022,10,8,19:30,UTC,0,1005.2,-,92,0,-1,9.1,8,34030,268,8,5
2022,10,8,19:40,UTC,0,1005.3,-,93,0,-1,9,7.9,32510,264,8.5,6.1
2022,10,8,19:50,UTC,0,1005.5,-,93,0,-1,8.9,7.8,31820,265,8.2,5
2022,10,8,20:00,UTC,0,1005.6,0,95,0,-1,8.6,7.8,29740,271,6.5,4.6
2022,10,8,20:10,UTC,0,1005.7,-,96,0,-1,8.5,7.8,27050,266,6.9,4.3
2022,10,8,20:20,UTC,0,1005.7,-,96,0,-1,8.6,7.9,29450,265,6.5,4.2
2022,10,8,20:30,UTC,0,1005.8,-,96,0,-1,8.6,8,29810,269,6.8,4.8
2022,10,8,20:40,UTC,0,1005.9,-,96,0,-1,8.4,7.8,28490,268,7.1,4.6
2022,10,8,20:50,UTC,0,1005.9,-,97,0,-1,8.4,7.9,28000,270,7.1,4.9
2022,10,8,21:00,UTC,0,1006,0,97,0,-1,8.3,7.9,27910,271,8.5,4.9
2022,10,8,21:10,UTC,0,1006,-,97,0,-1,8.1,7.7,28980,279,7.6,4.7
2022,10,8,21:20,UTC,0,1006,-,98,0,-1,8.2,7.9,27240,279,8.9,5.1
2022,10,8,21:30,UTC,0,1006,-,98,0,-1,8.4,8,28390,280,8.2,5.4
2022,10,8,21:40,UTC,0,1006.1,-,98,0,-1,8.3,8,27070,279,7.6,5.2
2022,10,8,21:50,UTC,0,1006.1,-,97,0,-1,8.3,7.8,28170,281,7.6,5.2
2022,10,8,22:00,UTC,0,1006.2,0,97,0,-1,8.5,8,27720,280,8,5.5
2022,10,8,22:10,UTC,0,1006.2,-,97,0,-1,8.3,7.8,26530,282,7.4,5.1
2022,10,8,22:20,UTC,0,1006.3,-,97,0,-1,8.4,8,27790,282,7.4,4.8
2022,10,8,22:30,UTC,0,1006.3,-,97,0,-1,8.2,7.8,27150,285,6.2,4.5
2022,10,8,22:40,UTC,0,1006.3,-,97,0,-1,8,7.6,26510,283,6.7,4.8
2022,10,8,22:50,UTC,0,1006.3,-,98,0,-1,8.1,7.8,28840,281,6.7,4.9
2022,10,8,23:00,UTC,0,1006.3,0,98,0,-1,8.2,7.9,27400,282,7.8,4.8
2022,10,8,23:10,UTC,0,1006.4,-,97,0,-1,8.3,7.9,26790,284,6.5,4.2
2022,10,8,23:20,UTC,0,1006.5,-,97,0,-1,8,7.6,26280,290,5.9,3.7
2022,10,8,23:30,UTC,0,1006.5,-,97,0,-1,7.6,7.2,25230,289,5.5,3.9
2022,10,8,23:40,UTC,0,1006.6,-,99,0,-1,7.4,7.2,23450,288,6,3.8
2022,10,8,23:50,UTC,0,1006.7,-,99,0,-1,7.5,7.4,26460,289,5.9,4
2022,10,9,00:00,UTC,0,1006.8,0,100,0,-1,7.4,7.4,26370,289,5.9,4
2022,10,9,00:10,UTC,0,1006.9,-,99,0,-1,7.5,7.3,25520,291,5.7,3.8
2022,10,9,00:20,UTC,0,1007,-,99,0,-1,7.1,7,22720,291,5.1,3.9
2022,10,9,00:30,UTC,0,1007.1,-,100,0,-1,7,7,24280,290,5.8,3.9
2022,10,9,00:40,UTC,0,1007.1,-,100,0,-1,7.3,7.3,27550,293,5,3.8
2022,10,9,00:50,UTC,0,1007.3,-,100,0,-1,7.1,7,24320,296,5.1,4
2022,10,9,01:00,UTC,0,1007.4,0,100,0,-1,6.9,6.8,23750,293,5.3,4.2
2022,10,9,01:10,UTC,0,1007.4,-,100,0,-1,7,7,30040,295,5.5,4.1
2022,10,9,01:20,UTC,0,1007.5,-,100,0,-1,6.8,6.7,28680,294,5.6,4.2
2022,10,9,01:30,UTC,0,1007.6,-,100,0,-1,6.9,6.8,32380,297,5.9,4.4
2022,10,9,01:40,UTC,0,1007.7,-,100,0,-1,6.8,6.7,30300,296,5.9,4
2022,10,9,01:50,UTC,0,1007.9,-,99,0,-1,6.5,6.4,30920,298,5.4,3.9
2022,10,9,02:00,UTC,0,1008,0,100,0,-1,6.5,6.5,29360,300,6,4.1
2022,10,9,02:10,UTC,0,1008.1,-,99,0,-1,6.4,6.3,30750,296,5.8,4
2022,10,9,02:20,UTC,0,1008.2,-,100,0,-1,6.4,6.4,31470,295,5.5,4.1
2022,10,9,02:30,UTC,0,1008.3,-,99,0,-1,6.3,6.2,41140,298,5.7,3.8
2022,10,9,02:40,UTC,0,1008.5,-,100,0,-1,6,6,29090,297,5.5,3.8
2022,10,9,02:50,UTC,0,1008.6,-,100,0,-1,6.2,6.2,33320,295,5.8,4
2022,10,9,03:00,UTC,0,1008.7,0,100,0,-1,6.1,6.1,36390,297,5.3,3.8
2022,10,9,03:10,UTC,0,1008.8,-,100,0,-1,5.9,5.9,32290,294,5.5,4.1
2022,10,9,03:20,UTC,0,1008.8,-,100,0,-1,6.3,6.3,36360,296,5.6,4.3
2022,10,9,03:30,UTC,0,1009,-,100,0,-1,6.2,6.1,39720,300,5.7,4.1
2022,10,9,03:40,UTC,0,1009.1,-,100,0,-1,5.9,5.8,34070,302,5.4,3.8
2022,10,9,03:50,UTC,0,1009.3,-,100,0,-1,5.9,5.9,32940,303,5.8,3.7
2022,10,9,04:00,UTC,0,1009.4,0,100,0,-1,5.6,5.6,33560,304,4.8,3.5
2022,10,9,04:10,UTC,0,1009.5,-,100,0,-1,5.4,5.4,33580,302,4.3,3.3
2022,10,9,04:20,UTC,0,1009.6,-,100,0,-1,5.2,5.2,36880,302,4.1,3
2022,10,9,04:30,UTC,0,1009.7,-,100,0,-1,5.2,5.2,24840,301,4.4,3.1
2022,10,9,04:40,UTC,0,1009.8,-,100,0,-1,5.1,5.1,34220,301,4.5,3.3
2022,10,9,04:50,UTC,0,1010,-,100,0,-1,5,5,39670,300,4.5,3.5
2022,10,9,05:00,UTC,0,1010.1,0,100,0,-1,4.8,4.8,29680,296,5.1,4
2022,10,9,05:10,UTC,0,1010.3,-,100,0,-1,5.2,5.2,42840,298,5.4,4.1
2022,10,9,05:20,UTC,0,1010.4,-,100,0,-1,5.2,5.2,50000,302,5.2,3.9
2022,10,9,05:30,UTC,0,1010.6,-,100,0,-1,5.3,5.3,50000,303,5.5,3.9
2022,10,9,05:40,UTC,0,1010.8,-,100,0,-1,5.4,5.3,50000,306,5.4,3.5
2022,10,9,05:50,UTC,0,1010.8,-,99,0,-1,5.7,5.5,50000,305,5.8,4
2022,10,9,06:00,UTC,0,1011,0,98,0,-1,6,5.6,50000,308,5.5,3.7
2022,10,9,06:10,UTC,0,1011.1,-,94,0,-1,6.3,5.5,50000,307,5.6,3.7
2022,10,9,06:20,UTC,0,1011.2,-,91,0,-1,6.7,5.4,48750,305,5.7,3.7
2022,10,9,06:30,UTC,0,1011.3,-,91,0,-1,7,5.6,50000,304,5.9,3.9
2022,10,9,06:40,UTC,0,1011.5,-,86,0,-1,7.5,5.3,50000,310,5.5,3.5
2022,10,9,06:50,UTC,0,1011.6,-,85,0,-1,7.8,5.4,49680,306,6.3,3.6
2022,10,9,07:00,UTC,0,1011.7,0,82,0,-1,8.1,5.2,50000,303,5.9,3.7
2022,10,9,07:10,UTC,0,1011.9,-,80,0,-1,8.3,5.2,46330,300,6.9,3.9
2022,10,9,07:20,UTC,0,1012,-,78,0,-1,8.6,5,50000,301,5.8,3.8
2022,10,9,07:30,UTC,0,1012.2,-,77,0,-1,8.8,5,50000,303,7.2,3.9
2022,10,9,07:40,UTC,0,1012.4,-,76,0,-1,9,4.9,48240,302,6.4,4.3
2022,10,9,07:50,UTC,0,1012.6,-,74,0,-1,9.2,4.9,44320,304,8.4,4.7
2022,10,9,08:00,UTC,0,1012.7,0,74,0,-1,9.4,5,47070,302,7,4.3
2022,10,9,08:10,UTC,0,1012.7,-,73,0,-1,9.5,4.9,46050,300,6.1,3.7
2022,10,9,08:20,UTC,0,1012.8,-,71,0,-1,9.8,4.8,50000,305,7.4,3.9
2022,10,9,08:30,UTC,0,1013,-,73,0,-1,9.7,5.1,42710,310,8.9,5.3
2022,10,9,08:40,UTC,0,1013.1,-,74,0,-1,9.8,5.4,45220,305,8.2,4.8
2022,10,9,08:50,UTC,0,1013.1,-,72,0,-1,9.9,5,40590,306,9,5.6
2022,10,9,09:00,UTC,0,1013.2,0,71,0,-1,10.1,5,50000,306,9.5,5.8
2022,10,9,09:10,UTC,0,1013.3,-,70,0,-1,10.3,5,43010,301,11.1,5.9
2022,10,9,09:20,UTC,0,1013.4,-,69,0,-1,10.4,5,50000,314,10.5,6.2
2022,10,9,09:30,UTC,0,1013.5,-,66,0,-1,10.7,4.6,42350,309,10,6.6
2022,10,9,09:40,UTC,0,1013.5,-,67,0,-1,10.9,5,46920,299,9.5,5.7
2022,10,9,09:50,UTC,0,1013.6,-,66,0,-1,11,4.8,49130,296,9.1,5.3
2022,10,9,10:00,UTC,0,1013.7,0,65,0,-1,11.1,4.7,50000,299,9,5.5
2022,10,9,10:10,UTC,0,1013.9,-,63,0,-1,11.5,4.6,46800,303,7.9,4.3
2022,10,9,10:20,UTC,0,1013.9,-,57,0,-1,11.5,3.3,47120,298,9.3,5.9
2022,10,9,10:30,UTC,0,1014,-,58,0,-1,11.6,3.8,50000,303,8.7,5.8
2022,10,9,10:40,UTC,0,1014.1,-,58,0,-1,11.9,3.9,43280,295,8.8,5.4
2022,10,9,10:50,UTC,0,1014.2,-,55,0,-1,11.9,3.2,45260,299,9.7,5.9
2022,10,9,11:00,UTC,0,1014.3,0,57,0,-1,11.9,3.5,45750,297,10.7,6.8
2022,10,9,11:10,UTC,0,1014.4,-,56,0,-1,12.2,3.6,45270,292,9.8,5.8
2022,10,9,11:20,UTC,0,1014.4,-,57,0,-1,12.1,3.8,45470,289,9.8,5.8
2022,10,9,11:30,UTC,0,1014.4,-,55,0,-1,11.9,3.2,44320,286,10.2,6.8
2022,10,9,11:40,UTC,0,1014.4,-,55,0,-1,12.3,3.5,50000,284,9.5,6
2022,10,9,11:50,UTC,0,1014.4,-,51,0,-1,12.5,2.5,50000,300,10.5,6.3
2022,10,9,12:00,UTC,0,1014.5,0,51,0,-1,12.2,2.4,49630,302,9.7,6.7
2022,10,9,12:10,UTC,0,1014.5,-,50,0,-1,12.4,2.4,48310,295,10.4,6.2
2022,10,9,12:20,UTC,0,1014.6,-,51,0,-1,12.3,2.3,45740,302,9.7,6.2
2022,10,9,12:30,UTC,0,1014.6,-,51,0,-1,12.4,2.4,50000,301,9,5.1
2022,10,9,12:40,UTC,1,1014.6,-,51,0,-1,12.5,2.6,50000,294,8.6,5.2
2022,10,9,12:50,UTC,0,1014.8,-,51,0,-1,12.4,2.6,50000,299,8.9,5.3
2022,10,9,13:00,UTC,0,1014.9,0,52,0,-1,12.5,2.9,48410,287,8.2,5.2
2022,10,9,13:10,UTC,0,1015,-,51,0,-1,12.5,2.5,50000,289,8.9,6.2
2022,10,9,13:20,UTC,0,1015,-,53,0,-1,12.4,3.1,44880,301,9,5.8
2022,10,9,13:30,UTC,0,1015.1,-,53,0,-1,12.4,3,50000,300,7.2,4.5
2022,10,9,13:40,UTC,0,1015.2,-,53,0,-1,12.2,2.8,47750,281,11.3,6.2
2022,10,9,13:50,UTC,0,1015.3,-,52,0,-1,12.2,2.7,50000,289,11.1,6.1
2022,10,9,14:00,UTC,0,1015.4,0,51,0,-1,12,2.2,50000,296,9.2,5.8
2022,10,9,14:10,UTC,0,1015.5,-,52,0,-1,11.8,2.3,50000,296,9.6,5.9
2022,10,9,14:20,UTC,0,1015.6,-,52,0,-1,11.7,2,50000,289,9.3,6.2
2022,10,9,14:30,UTC,0,1015.7,-,53,0,-1,11.4,2.2,50000,292,9.2,5.8
2022,10,9,14:40,UTC,0,1015.7,-,55,0,-1,11.2,2.5,50000,288,8.8,5.2
2022,10,9,14:50,UTC,0,1015.7,-,55,0,-1,11,2.4,50000,291,9.2,6.2
2022,10,9,15:00,UTC,0,1015.8,0,56,0,-1,10.8,2.4,50000,286,9.5,5.6
2022,10,9,15:10,UTC,0,1015.9,-,58,0,-1,10.5,2.5,50000,287,8.6,5.1
2022,10,9,15:20,UTC,0,1016,-,61,0,-1,10,2.7,50000,285,7.6,4.8
2022,10,9,15:30,UTC,1,1016.1,-,64,0,-1,9.4,2.9,50000,284,7.3,4.7
2022,10,9,15:40,UTC,3,1016.2,-,66,0,-1,9.1,3.2,50000,282,7,5
2022,10,9,15:50,UTC,5,1016.4,-,66,0,-1,9.2,3.2,50000,285,7.1,4.9
2022,10,9,16:00,UTC,7,1016.5,0,66,0,-1,9.3,3.3,50000,284,7.8,5.2
2022,10,9,16:10,UTC,7,1016.6,-,67,0,-1,9.1,3.2,50000,282,7.9,4.8
2022,10,9,16:20,UTC,3,1016.8,-,67,0,-1,9.1,3.2,50000,283,8.5,5.2
2022,10,9,16:30,UTC,5,1016.9,-,67,0,-1,8.9,3.2,50000,284,7.3,5
2022,10,9,16:40,UTC,3,1017,-,68,0,-1,8.8,3.2,50000,286,7.5,5.2
2022,10,9,16:50,UTC,5,1017.1,-,68,0,-1,8.7,3.1,50000,290,6.4,4.4
2022,10,9,17:00,UTC,5,1017.2,0,70,0,-1,8.2,3.1,50000,278,6.7,4.1
2022,10,9,17:10,UTC,7,1017.2,-,74,0,-1,7.8,3.3,50000,281,6,3.7
2022,10,9,17:20,UTC,3,1017.3,-,75,0,-1,7.3,3.2,50000,280,6.1,4.3
2022,10,9,17:30,UTC,1,1017.5,-,75,0,-1,7.4,3.2,50000,276,6.9,4.1
2022,10,9,17:40,UTC,0,1017.6,-,76,0,-1,7.2,3.3,50000,271,6.2,3.6
2022,10,9,17:50,UTC,0,1017.7,-,78,0,-1,7,3.3,50000,279,6.9,4.5
2022,10,9,18:00,UTC,0,1017.7,0,75,0,-1,7.4,3.4,50000,283,7.6,5.2
2022,10,9,18:10,UTC,0,1017.8,-,76,0,-1,7.3,3.4,50000,273,7,4.6
2022,10,9,18:20,UTC,0,1017.8,-,78,0,-1,7,3.3,50000,276,7.2,4.4
2022,10,9,18:30,UTC,0,1017.9,-,77,0,-1,7.1,3.3,50000,276,8.4,5
2022,10,9,18:40,UTC,0,1018,-,75,0,-1,7.3,3.2,50000,270,8.8,5.1
2022,10,9,18:50,UTC,0,1018,-,75,0,-1,7.3,3.2,50000,262,8.1,4.6
2022,10,9,19:00,UTC,0,1018,0,75,0,-1,7.3,3.2,50000,266,8.2,5.1
2022,10,9,19:10,UTC,0,1018,-,77,0,-1,7,3.3,50000,270,8.4,4.8
2022,10,9,19:20,UTC,0,1018,-,77,0,-1,7.2,3.5,50000,268,8.5,5.7
2022,10,9,19:30,UTC,0,1018,-,76,0,-1,7.4,3.5,50000,263,9,5.6
2022,10,9,19:40,UTC,0,1018,-,77,0,-1,7.4,3.6,50000,257,7.3,4.8
2022,10,9,19:50,UTC,0,1018.1,-,77,0,-1,7.5,3.7,50000,256,7,4.4
2022,10,9,20:00,UTC,0,1018.2,0,80,0,-1,7.6,4.4,50000,256,7.4,4.9
2022,10,9,20:10,UTC,0,1018.1,-,80,0,-1,7.8,4.7,50000,254,7.1,4.9
2022,10,9,20:20,UTC,1,1018.2,-,80,0,-1,8.1,4.8,50000,255,7.3,4.7
2022,10,9,20:30,UTC,5,1018.1,-,81,0,-1,8.1,5.1,50000,253,5.5,3.8
2022,10,9,20:40,UTC,7,1018.1,-,81,0,-1,8.4,5.4,50000,248,5.2,3.3
2022,10,9,20:50,UTC,7,1018.1,-,82,0,-1,8.2,5.3,50000,253,6.2,3.4
2022,10,9,21:00,UTC,7,1018.2,0,83,0,-1,8.3,5.6,50000,255,6.5,3.9
2022,10,9,21:10,UTC,7,1018.2,-,83,0,-1,8.2,5.5,50000,258,6.2,4.1
2022,10,9,21:20,UTC,5,1018.2,-,84,0,-1,8.1,5.6,50000,258,7.4,4.5
2022,10,9,21:30,UTC,1,1018.1,-,84,0,-1,8.4,5.8,50000,252,7.4,4.7
2022,10,9,21:40,UTC,1,1018.2,-,84,0,-1,8.5,6,50000,248,6.6,3.8
2022,10,9,21:50,UTC,0,1018.1,-,85,0,-1,8.5,6,50000,243,5.6,3.6
2022,10,9,22:00,UTC,0,1018.1,0,85,0,-1,8.4,5.9,50000,251,7.5,4.4
2022,10,9,22:10,UTC,0,1018.1,-,85,0,-1,8.3,5.9,50000,257,7.7,4.5
2022,10,9,22:20,UTC,0,1018.1,-,85,0,-1,8.2,5.9,50000,262,7.3,5.1
2022,10,9,22:30,UTC,0,1018.2,-,86,0,-1,8,5.8,50000,266,7.8,4.8
2022,10,9,22:40,UTC,0,1018.1,-,86,0,-1,8.2,6,50000,254,6.4,4.1
2022,10,9,22:50,UTC,0,1018.1,-,86,0,-1,8.1,5.8,50000,256,6.8,4.3
2022,10,9,23:00,UTC,0,1018.1,0,88,0,-1,8.1,6.2,50000,252,6.4,4.7
2022,10,9,23:10,UTC,1,1018.1,-,87,0,-1,8.4,6.4,50000,248,7.4,4.5
2022,10,9,23:20,UTC,1,1018.2,-,88,0,-1,8.6,6.8,50000,247,6.1,4.1
2022,10,9,23:30,UTC,1,1018.2,-,89,0,-1,8.5,6.8,50000,247,6.2,4
2022,10,9,23:40,UTC,1,1018.1,-,90,0,-1,8.5,7,50000,246,6.6,4.3
2022,10,9,23:50,UTC,0,1018.1,-,90,0,-1,8.7,7.2,50000,247,6.5,4.4
2022,10,10,00:00,UTC,0,1018.1,0,90,0,-1,8.6,7.1,50000,244,6.5,4
2022,10,10,00:10,UTC,0,1018.1,-,90,0,-1,8.8,7.3,50000,247,6.1,4.5
2022,10,10,00:20,UTC,0,1018.1,-,90,0,-1,8.9,7.4,50000,249,6.9,4.4
2022,10,10,00:30,UTC,0,1018.1,-,89,0,-1,8.8,7.2,50000,247,7.3,4.7
2022,10,10,00:40,UTC,0,1018.1,-,90,0,-1,8.8,7.2,50000,241,6.8,4
2022,10,10,00:50,UTC,0,1018.2,-,89,0,-1,9.1,7.4,50000,241,6.3,4.3
2022,10,10,01:00,UTC,0,1018.2,0,91,0,-1,8.8,7.4,50000,241,6.1,4.3
2022,10,10,01:10,UTC,0,1018.2,-,92,0,-1,8.8,7.6,50000,239,5.9,3.9
2022,10,10,01:20,UTC,0,1018.1,-,94,0,-1,9.1,8.2,50000,239,6.3,4.3
2022,10,10,01:30,UTC,0,1018.1,-,94,0,-1,9.1,8.2,50000,246,6.5,4.3
2022,10,10,01:40,UTC,0,1018.2,-,94,0,-1,9,8,50000,244,6.4,4.1
2022,10,10,01:50,UTC,0,1018.1,-,95,0,-1,9.2,8.4,50000,242,8.1,4.6
2022,10,10,02:00,UTC,1,1018.1,0,93,0,-1,9.3,8.3,50000,243,6.8,4.5
2022,10,10,02:10,UTC,1,1018.2,-,93,0,-1,9.2,8.2,49880,246,6,4.1
2022,10,10,02:20,UTC,1,1018.3,-,93,0,-1,9.3,8.3,50000,249,6.7,4.3
2022,10,10,02:30,UTC,1,1018.2,-,92,0,-1,9.4,8.2,50000,255,7.4,5
2022,10,10,02:40,UTC,0,1018.2,-,93,0,-1,9.2,8,49900,257,7.8,5.2
2022,10,10,02:50,UTC,0,1018.3,-,94,0,-1,9.3,8.4,50000,257,7.6,4.8
2022,10,10,03:00,UTC,0,1018.3,0,93,0,-1,9.2,8.2,45410,258,7.1,4.9
2022,10,10,03:10,UTC,0,1018.4,-,94,0,-1,9.2,8.2,50000,253,7.9,4.6
2022,10,10,03:20,UTC,0,1018.5,-,94,0,-1,9.3,8.4,45160,249,7.2,4.5
2022,10,10,03:30,UTC,0,1018.5,-,94,0,-1,9.2,8.3,48740,249,6.7,4.7
2022,10,10,03:40,UTC,0,1018.4,-,94,0,-1,9.4,8.6,44390,248,6.4,4.4
2022,10,10,03:50,UTC,0,1018.5,-,94,0,-1,9.6,8.6,46790,244,6.8,4.3
2022,10,10,04:00,UTC,0,1018.6,0,94,0,-1,9.4,8.5,48720,244,6.3,4.2
2022,10,10,04:10,UTC,0,1018.5,-,95,0,-1,9.3,8.5,42450,249,6.8,4.2
2022,10,10,04:20,UTC,0,1018.6,-,95,0,-1,9.3,8.6,43890,241,7.2,4.8
2022,10,10,04:30,UTC,0,1018.7,-,95,0,-1,9.5,8.7,44510,249,7,4.8
2022,10,10,04:40,UTC,0,1018.6,-,95,0,-1,9.6,8.8,44440,246,8.2,4.9
2022,10,10,04:50,UTC,0,1018.6,-,94,0,-1,9.7,8.8,41950,248,7.5,5.1
2022,10,10,05:00,UTC,0,1018.6,0,94,0,-1,9.8,8.8,44590,247,7,4.7
2022,10,10,05:10,UTC,0,1018.6,-,95,0,-1,9.8,9,45040,247,7.5,4.4
2022,10,10,05:20,UTC,0,1018.6,-,94,0,-1,10,9.2,38960,246,9.3,5.2
2022,10,10,05:30,UTC,0,1018.7,-,94,0,-1,10.4,9.5,38720,245,8.3,5.1
2022,10,10,05:40,UTC,0,1018.7,-,93,0,-1,10.5,9.4,37450,243,9,5
2022,10,10,05:50,UTC,0,1018.8,-,92,0,-1,10.9,9.6,38920,245,8.1,5.5
2022,10,10,06:00,UTC,0,1018.8,0,91,0,-1,11.2,9.8,16740,243,8.7,5.2
2022,10,10,06:10,UTC,0,1018.8,-,90,0,-1,11.4,9.9,44440,245,8.3,5.6
2022,10,10,06:20,UTC,0,1018.7,-,90,0,-1,11.4,9.8,40420,246,9,5.7
2022,10,10,06:30,UTC,0,1018.8,-,90,0,-1,11.6,10.1,43550,249,8.6,5.3
2022,10,10,06:40,UTC,0,1018.9,-,88,0,-1,11.7,9.8,36990,248,7.8,5.3
2022,10,10,06:50,UTC,0,1018.9,-,89,0,-1,11.7,9.9,37600,249,8.4,5
2022,10,10,07:00,UTC,1,1019,0,89,0,-1,11.7,9.9,42160,245,8.4,5.3
2022,10,10,07:10,UTC,1,1019.1,-,90,0,-1,11.6,9.9,43710,247,8.8,5.2
2022,10,10,07:20,UTC,1,1019.2,-,90,0,-1,11.5,10,46290,240,7.2,4.6
2022,10,10,07:30,UTC,3,1019.3,-,92,0,-1,11.5,10.2,37810,237,8.3,5.2
2022,10,10,07:40,UTC,5,1019.4,-,92,0,-1,11.6,10.3,39270,237,8.1,5
2022,10,10,07:50,UTC,5,1019.5,-,90,0,-1,11.9,10.2,31640,243,8.2,5.4
2022,10,10,08:00,UTC,3,1019.5,0,87,0,-1,12,10,36070,247,9.7,6.4
2022,10,10,08:10,UTC,3,1019.5,-,88,0,-1,11.9,9.9,41370,242,8.1,5.5
2022,10,10,08:20,UTC,1,1019.6,-,89,0,-1,11.7,10,35610,234,8.7,5.5
2022,10,10,08:30,UTC,3,1019.6,-,90,0,-1,11.5,9.9,34730,236,8.8,5.6
2022,10,10,08:40,UTC,5,1019.6,-,88,0,-1,12.3,10.4,33550,242,9,5.4
2022,10,10,08:50,UTC,5,1019.5,-,84,0,-1,12.6,10,39800,241,8.9,5.2
2022,10,10,09:00,UTC,5,1019.5,0,85,0,-1,12,9.6,40840,238,9.3,6.2
2022,10,10,09:10,UTC,5,1019.5,-,85,0,-1,12.2,9.8,43970,237,8.7,6.1
2022,10,10,09:20,UTC,5,1019.5,-,85,0,-1,12.4,9.9,36910,234,9.3,6.1
2022,10,10,09:30,UTC,7,1019.4,-,82,0,-1,12.9,9.8,36910,238,11.3,6.3
2022,10,10,09:40,UTC,5,1019.4,-,79,0,-1,13.1,9.5,32740,244,10.2,6.7
2022,10,10,09:50,UTC,7,1019.5,-,81,0,-1,12.5,9.3,45510,239,10.1,6.8
2022,10,10,10:00,UTC,7,1019.5,0,81,0,-1,12.7,9.6,32570,241,10.7,7
2022,10,10,10:10,UTC,7,1019.5,-,79,0,-1,12.9,9.3,37470,240,10.2,6.6
2022,10,10,10:20,UTC,5,1019.5,-,79,0,-1,12.8,9.3,41020,241,11.7,7.7
2022,10,10,10:30,UTC,5,1019.4,-,76,0,-1,13.4,9.3,39640,236,11.5,6.4
2022,10,10,10:40,UTC,5,1019.4,-,79,0,-1,13,9.4,33870,237,10.2,7.1
2022,10,10,10:50,UTC,3,1019.4,-,80,0,-1,12.6,9.2,35930,237,10.8,6.8
2022,10,10,11:00,UTC,3,1019.4,0,80,0,-1,12.8,9.5,33590,240,11.8,6.1
2022,10,10,11:10,UTC,1,1019.3,-,79,0,-1,12.8,9.2,33160,240,12.1,7.9
2022,10,10,11:20,UTC,1,1019.3,-,79,0,-1,12.9,9.4,36580,245,11.6,6.9
2022,10,10,11:30,UTC,1,1019.3,-,82,0,-1,12.4,9.5,31850,242,10.4,6.8
2022,10,10,11:40,UTC,3,1019.3,-,81,0,-1,12.5,9.4,35900,242,11.7,7.8
2022,10,10,11:50,UTC,3,1019.3,-,80,0,-1,13.1,9.6,38070,239,11.6,7.6
2022,10,10,12:00,UTC,3,1019.3,0,79,0,-1,12.8,9.3,35050,237,10.4,6.6
2022,10,10,12:10,UTC,3,1019.3,-,81,0,-1,12.1,8.9,42230,239,12.1,7.6
2022,10,10,12:20,UTC,1,1019.3,-,83,0,-1,12,9.3,32430,238,12.5,8.8
2022,10,10,12:30,UTC,3,1019.3,-,84,0,-1,11.8,9.2,32660,242,11.7,8.1
2022,10,10,12:40,UTC,5,1019.2,-,80,0,-1,12.7,9.4,33400,243,11.3,6.8
2022,10,10,12:50,UTC,3,1019.1,-,80,0,-1,12.4,9.1,40750,241,10.4,6.3
2022,10,10,13:00,UTC,1,1019,0,79,0,-1,12.7,9.1,39410,245,10.8,7.3
2022,10,10,13:10,UTC,1,1019.1,-,80,0,-1,12.3,8.9,32350,244,11.2,6.6
2022,10,10,13:20,UTC,3,1019,-,80,0,-1,12.1,8.8,32870,239,8.5,5.9
2022,10,10,13:30,UTC,5,1019,-,82,0,-1,11.9,8.9,33560,245,10.2,5.8
2022,10,10,13:40,UTC,5,1019,-,82,0,-1,11.9,8.9,44740,242,9.1,5.3
2022,10,10,13:50,UTC,3,1018.9,-,83,0,-1,11.6,8.8,37670,240,9,5.2
2022,10,10,14:00,UTC,5,1018.8,0,83,0,-1,11.6,8.8,41860,234,9.6,5.3
2022,10,10,14:10,UTC,5,1018.8,-,83,0,-1,11.5,8.8,40180,235,8.3,5.2
2022,10,10,14:20,UTC,5,1018.7,-,84,0,-1,11.5,8.9,34800,233,8,5
2022,10,10,14:30,UTC,5,1018.7,-,84,0,-1,11.4,8.8,38670,236,8.9,5.2
2022,10,10,14:40,UTC,5,1018.6,-,85,0,-1,11.3,8.9,39720,236,8.5,5.5
2022,10,10,14:50,UTC,3,1018.6,-,86,0,-1,11,8.8,37380,234,8.2,4.6
2022,10,10,15:00,UTC,1,1018.6,0,88,0,-1,10.8,8.9,36140,240,8.6,5.6
2022,10,10,15:10,UTC,1,1018.5,-,88,0,-1,10.6,8.7,38260,244,8.6,5.4
2022,10,10,15:20,UTC,0,1018.4,-,88,0,-1,10.6,8.7,34740,248,8.5,5.3
2022,10,10,15:30,UTC,0,1018.4,-,88,0,-1,10.4,8.6,40640,245,7.2,4.4
2022,10,10,15:40,UTC,0,1018.4,-,89,0,-1,10.4,8.7,39010,243,10,5.4
2022,10,10,15:50,UTC,0,1018.4,-,89,0,-1,10.4,8.8,37670,238,8.7,5.3
2022,10,10,16:00,UTC,0,1018.4,0,90,0,-1,10.5,8.9,35360,237,8.6,5.8
2022,10,10,16:10,UTC,0,1018.4,-,90,0,-1,10.4,8.9,33920,237,10.2,5.5
2022,10,10,16:20,UTC,0,1018.3,-,92,0,-1,10.3,9,36380,232,9,5
2022,10,10,16:30,UTC,1,1018.2,-,90,0,-1,10.4,8.8,35530,228,10,5.6
2022,10,10,16:40,UTC,3,1018.2,-,89,0,-1,10.5,8.7,37730,228,8.8,5.6
2022,10,10,16:50,UTC,5,1018.1,-,88,0,-1,10.8,8.8,39200,231,8.7,5.8
2022,10,10,17:00,UTC,5,1018.1,0,86,0,-1,11.1,8.7,40890,228,9.7,6.7
2022,10,10,17:10,UTC,7,1018.1,-,86,0,-1,11.1,8.8,43620,228,8.5,5.5
2022,10,10,17:20,UTC,7,1018,-,87,0,-1,11,8.9,38740,214,10.4,5.3
2022,10,10,17:30,UTC,7,1017.9,-,88,0,-1,10.8,8.9,47030,219,9.1,5.2
2022,10,10,17:40,UTC,3,1017.8,-,87,0,-1,10.8,8.7,40780,220,10.3,5.9
2022,10,10,17:50,UTC,3,1017.7,-,88,0,-1,10.5,8.5,42470,217,9.3,5.3
2022,10,10,18:00,UTC,1,1017.6,0,87,0,-1,10.5,8.4,39290,211,9.9,5.3
2022,10,10,18:10,UTC,1,1017.5,-,85,0,-1,10.6,8.2,44060,213,11.7,6.6
2022,10,10,18:20,UTC,0,1017.5,-,85,0,-1,10.5,8.1,44540,222,10.8,6.2
2022,10,10,18:30,UTC,1,1017.4,-,85,0,-1,10.5,8.2,46860,220,11.6,6
2022,10,10,18:40,UTC,1,1017.4,-,86,0,-1,10.4,8.2,42780,214,11.5,6.1
2022,10,10,18:50,UTC,3,1017.4,-,87,0,-1,10.6,8.4,38560,213,11.7,5.8
2022,10,10,19:00,UTC,5,1017.3,0,86,0,-1,10.6,8.4,46490,211,10.4,5.9
2022,10,10,19:10,UTC,5,1017.2,-,87,0,-1,10.7,8.5,48870,209,11.4,6.4
2022,10,10,19:20,UTC,7,1017.1,-,87,0,-1,10.5,8.5,42980,205,11.4,6.7
2022,10,10,19:30,UTC,5,1017,-,89,0,-1,10.4,8.6,36040,204,10.4,6.3
2022,10,10,19:40,UTC,7,1016.9,-,89,0,-1,10.3,8.7,35350,207,10.1,6.1
2022,10,10,19:50,UTC,7,1016.8,-,90,0,-1,10.3,8.8,36860,203,9.2,5.9
2022,10,10,20:00,UTC,5,1016.7,0,90,0,-1,10.2,8.6,35360,202,10.5,5.8
2022,10,10,20:10,UTC,5,1016.7,-,90,0,-1,10.2,8.6,44880,206,10.5,6.3
2022,10,10,20:20,UTC,5,1016.6,-,89,0,-1,10.3,8.5,38460,205,9.1,5.8
2022,10,10,20:30,UTC,7,1016.5,-,88,0,-1,10.2,8.3,45760,208,11.4,6.1
2022,10,10,20:40,UTC,7,1016.5,-,88,0,-1,9.9,8.1,42660,203,9.7,5.6
2022,10,10,20:50,UTC,3,1016.4,-,90,0,-1,9.7,8.1,45350,201,9,5.1
2022,10,10,21:00,UTC,1,1016.3,0,88,0,-1,9.9,8.1,48450,206,10.3,6.1
2022,10,10,21:10,UTC,0,1016.3,-,89,0,-1,9.6,7.9,45190,205,8.6,5.6
2022,10,10,21:20,UTC,0,1016.2,-,90,0,-1,9.6,8.1,49460,202,9,5.5
2022,10,10,21:30,UTC,0,1016.1,-,90,0,-1,9.7,8.1,42240,203,9.8,6.4
2022,10,10,21:40,UTC,0,1016,-,90,0,-1,9.5,7.9,43500,201,9.2,5.5
2022,10,10,21:50,UTC,0,1015.9,-,89,0,-1,9.6,7.8,46000,202,11.1,6.8
2022,10,10,22:00,UTC,0,1015.8,0,90,0,-1,9.3,7.8,45820,200,10,5.7
2022,10,10,22:10,UTC,0,1015.8,-,90,0,-1,9.3,7.8,45530,198,10.6,6.3
2022,10,10,22:20,UTC,0,1015.6,-,91,0,-1,9.1,7.8,45250,197,8.2,4.8
2022,10,10,22:30,UTC,0,1015.5,-,91,0,-1,9.1,7.7,44980,195,10,5.8
2022,10,10,22:40,UTC,0,1015.4,-,92,0,-1,9,7.8,47580,192,9.5,5.3
2022,10,10,22:50,UTC,0,1015.2,-,92,0,-1,9,7.7,46800,192,9.6,6.1
2022,10,10,23:00,UTC,0,1015,0,92,0,-1,9,7.7,41930,193,9.8,6.2
2022,10,10,23:10,UTC,0,1014.8,-,92,0,-1,8.9,7.6,44330,194,9.3,6.5
2022,10,10,23:20,UTC,0,1014.6,-,93,0,-1,8.9,7.7,40620,192,8.3,5.7
2022,10,10,23:30,UTC,0,1014.5,-,93,0,-1,8.9,7.8,37390,191,9.4,5.6
2022,10,10,23:40,UTC,0,1014.3,-,93,0,-1,8.8,7.8,38150,189,9.7,5.3
2022,10,10,23:50,UTC,1,1014.2,-,93,0,-1,8.8,7.7,39290,188,9.5,5
2022,10,11,00:00,UTC,1,1014,0,94,0,-1,8.9,7.9,39790,188,8.7,5.2
2022,10,11,00:10,UTC,3,1013.8,-,93,0,-1,8.8,7.7,39220,185,8.6,5.2
2022,10,11,00:20,UTC,5,1013.7,-,93,0,-1,8.7,7.6,32820,187,10.9,5.1
2022,10,11,00:30,UTC,5,1013.5,-,92,0,-1,8.7,7.6,38160,189,10.4,5.5
2022,10,11,00:40,UTC,5,1013.3,-,93,0,-1,8.6,7.5,34980,186,8.8,5
2022,10,11,00:50,UTC,5,1013.2,-,93,0,-1,8.6,7.5,38570,189,10.6,5.8
2022,10,11,01:00,UTC,5,1013,0,93,0,-1,8.4,7.4,33220,196,8.8,5.6
2022,10,11,01:10,UTC,1,1012.8,-,93,0,-1,8.5,7.5,41940,200,9.9,5.6
2022,10,11,01:20,UTC,1,1012.6,-,94,0,-1,8.4,7.4,39170,196,8.2,5.1
2022,10,11,01:30,UTC,0,1012.4,-,94,0,-1,8.3,7.4,37640,195,9.1,5.3
2022,10,11,01:40,UTC,1,1012.3,-,93,0,-1,8.4,7.4,41770,193,10.6,6.3
2022,10,11,01:50,UTC,1,1012,-,93,0,-1,8.6,7.5,37710,189,10.3,5.9
2022,10,11,02:00,UTC,1,1012,0,93,0,-1,8.3,7.3,36420,193,9.8,5
2022,10,11,02:10,UTC,1,1011.8,-,94,0,-1,8.3,7.3,34860,194,8.7,5.2
2022,10,11,02:20,UTC,1,1011.7,-,94,0,-1,8.2,7.3,32210,192,9.9,5.6
2022,10,11,02:30,UTC,1,1011.6,-,93,0,-1,8.3,7.3,38680,196,9.9,6.5
2022,10,11,02:40,UTC,1,1011.5,-,94,0,-1,8.3,7.3,36100,193,11,6.2
2022,10,11,02:50,UTC,1,1011.3,-,94,0,-1,8.2,7.3,37670,196,11.1,6.1
2022,10,11,03:00,UTC,1,1011.2,0,94,0,-1,8.2,7.2,34620,192,12.1,6
2022,10,11,03:10,UTC,1,1011,-,94,0,-1,8.2,7.2,35450,193,10.7,6.8
2022,10,11,03:20,UTC,0,1011,-,94,0,-1,8.2,7.4,34790,193,9.8,6.2
2022,10,11,03:30,UTC,1,1010.9,-,94,0,-1,8.3,7.4,35690,190,9.4,5.5
2022,10,11,03:40,UTC,3,1010.7,-,95,0,-1,8.2,7.4,31440,184,10.3,4.8
2022,10,11,03:50,UTC,5,1010.6,-,94,0,-1,8.3,7.4,34330,187,9.3,5.6
2022,10,11,04:00,UTC,7,1010.4,0,94,0,-1,8.4,7.5,34620,183,9.8,6
2022,10,11,04:10,UTC,7,1010.3,-,94,0,-1,8.4,7.5,33040,189,12.1,5.8
2022,10,11,04:20,UTC,7,1010.2,-,93,0,-1,8.6,7.5,36470,193,12.4,7.4
2022,10,11,04:30,UTC,8,1010.1,-,93,0,-1,8.5,7.4,31190,191,11.3,6.4
2022,10,11,04:40,UTC,7,1009.9,-,94,0,-1,8.5,7.5,30760,192,11.7,5.8
2022,10,11,04:50,UTC,7,1009.7,-,94,0,-1,8.5,7.5,30450,194,11.5,6.3
2022,10,11,05:00,UTC,7,1009.5,0,93,0,-1,8.5,7.4,32770,195,10.9,6.5
2022,10,11,05:10,UTC,8,1009.4,-,93,0,-1,8.5,7.5,25480,190,9.9,6.2
2022,10,11,05:20,UTC,8,1009.2,-,93,0,-1,8.5,7.4,28660,180,9.6,5.8
2022,10,11,05:30,UTC,7,1009,-,92,0,-1,8.5,7.3,33600,182,11.3,6.6
2022,10,11,05:40,UTC,7,1009.2,-,92,0,-1,8.5,7.3,30060,187,13.1,6.8
2022,10,11,05:50,UTC,7,1009.2,-,92,0,-1,8.5,7.2,28190,193,15,7.2
2022,10,11,06:00,UTC,8,1009.1,0,91,0,-1,8.4,7.1,28740,190,11.1,6.1
2022,10,11,06:10,UTC,8,1009,-,92,0,-1,8.5,7.3,24910,188,10,5.7
2022,10,11,06:20,UTC,7,1008.8,-,92,0,-1,8.5,7.3,29520,188,10.6,5.3
2022,10,11,06:30,UTC,7,1008.5,-,91,0,-1,8.5,7.2,26720,181,9.5,4.6
2022,10,11,06:40,UTC,7,1008.3,-,91,0,-1,8.5,7.2,27050,178,11.4,6.5
2022,10,11,06:50,UTC,7,1008.5,-,91,0,-1,8.5,7.2,22590,184,11.7,6.5
2022,10,11,07:00,UTC,8,1008.4,0,92,0,-1,8.4,7.1,26440,184,11.8,6.2
2022,10,11,07:10,UTC,8,1008.2,-,92,0,-1,8.4,7.2,25280,179,10.7,6.3
2022,10,11,07:20,UTC,8,1008,-,92,0,-1,8.4,7.2,25570,179,9.7,5.7
2022,10,11,07:30,UTC,8,1007.9,-,92,0,-1,8.5,7.3,27130,185,9.5,5.2
2022,10,11,07:40,UTC,7,1007.7,-,91,0,-1,8.5,7.1,25120,182,10.9,5.7
2022,10,11,07:50,UTC,7,1007.6,-,91,0,-1,8.5,7.2,26700,180,10.4,6.4
2022,10,11,08:00,UTC,7,1007.6,0,92,0,-1,8.4,7.2,18460,184,9.1,5.4
2022,10,11,08:10,UTC,8,1007.5,-,95,1.3,-1,8.1,7.4,8270,187,9.8,5.8
2022,10,11,08:20,UTC,8,1007.3,-,97,2.3,-1,8,7.5,6540,183,12.6,6.4
2022,10,11,08:30,UTC,8,1007.3,-,98,2.3,-1,7.9,7.6,7840,181,11.1,6.1
2022,10,11,08:40,UTC,8,1007.1,-,98,2.4,-1,7.9,7.6,5680,188,10.2,5.6
2022,10,11,08:50,UTC,7,1007.1,-,98,1.7,-1,8.1,7.8,9460,192,11.8,7.7
2022,10,11,09:00,UTC,8,1006.9,1.9,98,1.4,-1,8.1,7.9,5540,192,12.9,7
2022,10,11,09:10,UTC,8,1006.8,-,99,1.9,-1,8.1,7.9,8110,193,12,6.7
2022,10,11,09:20,UTC,7,1006.7,-,98,0.3,-1,8.3,8,18960,201,14.3,6.7
2022,10,11,09:30,UTC,7,1006.6,-,98,0.1,-1,8.3,8.1,22100,203,11.4,6.5
2022,10,11,09:40,UTC,8,1006.5,-,97,0,-1,8.5,8.1,25820,201,14.3,8.1
2022,10,11,09:50,UTC,7,1006.4,-,97,0,-1,8.7,8.3,32360,202,13.8,7.5
2022,10,11,10:00,UTC,8,1006.4,0.4,97,0,-1,8.9,8.5,30160,208,12.9,7.3
2022,10,11,10:10,UTC,8,1006.4,-,97,0,-1,9,8.5,29420,203,14.6,8.2
2022,10,11,10:20,UTC,8,1006.3,-,97,0,-1,9.1,8.5,12530,200,12.9,7.5
2022,10,11,10:30,UTC,8,1006.3,-,97,0,-1,9.2,8.7,10720,203,14.8,8.7
2022,10,11,10:40,UTC,8,1006.3,-,97,0,-1,9.2,8.8,12300,209,14,8.3
2022,10,11,10:50,UTC,7,1006.2,-,97,0,-1,9.3,8.8,20410,206,15.3,8.4
2022,10,11,11:00,UTC,8,1006.2,0,97,0,-1,9.3,8.9,9660,206,14.3,7.7
2022,10,11,11:10,UTC,7,1006.1,-,98,0.4,-1,9.4,9,13510,204,13.1,7.2
2022,10,11,11:20,UTC,8,1006.1,-,98,0,-1,9.6,9.3,15440,209,14.5,8.9
2022,10,11,11:30,UTC,7,1006.1,-,98,0.3,-1,9.8,9.4,9410,212,13.6,8.2
2022,10,11,11:40,UTC,7,1006.2,-,99,2.1,-1,10.1,9.9,11600,216,15,8.1
2022,10,11,11:50,UTC,7,1006.1,-,97,0.1,-1,10.4,10,28630,229,15.8,9
2022,10,11,12:00,UTC,7,1006.1,0.5,91,0,-1,11.3,9.9,31620,237,13.4,8
2022,10,11,12:10,UTC,5,1006.3,-,86,0,-1,11.2,9,49490,245,14.2,8.7
2022,10,11,12:20,UTC,3,1006.4,-,85,0,-1,10.9,8.5,44310,250,13.1,7.7
2022,10,11,12:30,UTC,3,1006.6,-,81,0,-1,11.4,8.3,48360,248,13.5,8.2
2022,10,11,12:40,UTC,5,1006.8,-,82,0,-1,11.1,8.1,50000,246,15.4,8.4
2022,10,11,12:50,UTC,5,1006.9,-,78,0,-1,11.8,8.2,45700,258,11.4,6.4
2022,10,11,13:00,UTC,3,1007,0,80,0,-1,11.7,8.4,46420,249,9,6.5
2022,10,11,13:10,UTC,3,1007,-,78,0,-1,11.8,8.1,50000,250,10.5,6.4
2022,10,11,13:20,UTC,1,1007.1,-,78,0,-1,11.8,8,46810,247,12.8,6.9
2022,10,11,13:30,UTC,1,1007.3,-,80,0,-1,11.3,8,46180,247,11.7,7.3
2022,10,11,13:40,UTC,1,1007.4,-,80,0,-1,11.4,8.1,50000,254,12.6,6.7
2022,10,11,13:50,UTC,1,1007.5,-,80,0,-1,11.2,7.9,46480,252,11.3,7.1
2022,10,11,14:00,UTC,1,1007.6,0,80,0,-1,11,7.6,41930,257,11.2,6.3
2022,10,11,14:10,UTC,1,1007.7,-,80,0,-1,10.8,7.5,49110,251,11.8,6.4
2022,10,11,14:20,UTC,1,1007.9,-,81,0,-1,10.6,7.4,43000,252,11.3,7.3
2022,10,11,14:30,UTC,0,1008,-,81,0,-1,10.3,7.2,44590,257,10.8,6.7
2022,10,11,14:40,UTC,0,1008.1,-,80,0,-1,10.1,6.8,50000,254,11.5,6.6
2022,10,11,14:50,UTC,1,1008.2,-,79,0,-1,10.1,6.6,50000,250,12,6.8
2022,10,11,15:00,UTC,1,1008.3,0,81,0,-1,9.8,6.6,48400,251,12.2,6.1
2022,10,11,15:10,UTC,3,1008.4,-,81,0,-1,9.9,6.7,50000,249,9.8,6.6
2022,10,11,15:20,UTC,3,1008.6,-,82,0,-1,9.8,6.9,47160,253,10.2,6
2022,10,11,15:30,UTC,5,1008.7,-,82,0,-1,9.8,6.8,50000,252,9.3,5.7
2022,10,11,15:40,UTC,7,1008.9,-,83,0,-1,9.6,6.9,50000,247,7.8,5
2022,10,11,15:50,UTC,5,1009,-,84,0,-1,9.5,6.9,44060,251,8.4,5.3
2022,10,11,16:00,UTC,1,1009,0,86,0,-1,9.1,6.9,43800,249,7.8,4.9
2022,10,11,16:10,UTC,1,1009.2,-,87,0,-1,8.9,6.8,41410,251,6.4,4.6
2022,10,11,16:20,UTC,0,1009.2,-,88,0,-1,8.8,6.9,44270,249,7.5,4.8
2022,10,11,16:30,UTC,0,1009.4,-,89,0,-1,8.6,6.9,42860,251,6.4,4.1
2022,10,11,16:40,UTC,0,1009.5,-,89,0,-1,8.6,6.9,41070,249,6.4,4.4
2022,10,11,16:50,UTC,0,1009.6,-,89,0,-1,8.6,6.9,48230,256,7.5,4.3
2022,10,11,17:00,UTC,1,1009.7,0,87,0,-1,8.7,6.7,46870,264,9.1,4.5
2022,10,11,17:10,UTC,1,1009.8,-,87,0,-1,8.4,6.4,50000,265,9.3,4.6
2022,10,11,17:20,UTC,1,1009.9,-,84,0,-1,8.8,6.3,49460,266,8.6,5.1
2022,10,11,17:30,UTC,0,1009.8,-,84,0,-1,8.6,6.1,50000,262,9.9,5
2022,10,11,17:40,UTC,0,1009.9,-,85,0,-1,8.3,5.8,50000,252,7.2,4.5
2022,10,11,17:50,UTC,0,1010.1,-,86,0,-1,8.1,5.9,50000,255,7.9,4.5
2022,10,11,18:00,UTC,0,1010.3,0,86,0,-1,8.2,6,50000,270,8.9,5.5
2022,10,11,18:10,UTC,0,1010.3,-,86,0,-1,8.2,5.9,50000,272,9.1,5.2
2022,10,11,18:20,UTC,0,1010.5,-,87,0,-1,7.9,5.9,50000,271,7.6,4.9
2022,10,11,18:30,UTC,3,1010.6,-,86,0,-1,8.1,6,50000,275,8.7,5.1
2022,10,11,18:40,UTC,1,1010.7,-,87,0,-1,7.8,5.8,50000,274,7.7,4.7
2022,10,11,18:50,UTC,1,1010.8,-,87,0,-1,7.8,5.8,50000,276,8.3,5.4
2022,10,11,19:00,UTC,1,1011,0,88,0,-1,7.7,5.8,50000,282,8.5,5.7
2022,10,11,19:10,UTC,0,1011,-,87,0,-1,7.7,5.7,50000,286,7.3,5
2022,10,11,19:20,UTC,0,1011.1,-,89,0,-1,7.4,5.7,50000,288,6.1,4.1
2022,10,11,19:30,UTC,0,1011.2,-,90,0,-1,7.1,5.5,50000,285,6.4,4.6
2022,10,11,19:40,UTC,0,1011.4,-,91,0,-1,6.8,5.5,50000,283,7,4.3
2022,10,11,19:50,UTC,0,1011.4,-,93,0,-1,6.7,5.6,50000,284,6,4.1
2022,10,11,20:00,UTC,0,1011.5,0,92,0,-1,6.6,5.4,50000,286,5.9,4.1
2022,10,11,20:10,UTC,0,1011.5,-,94,0,-1,6.1,5.2,50000,283,5.4,3.7
2022,10,11,20:20,UTC,0,1011.5,-,95,0,-1,5.9,5.2,50000,280,6.2,3.9
2022,10,11,20:30,UTC,0,1011.6,-,96,0,-1,5.8,5.3,50000,278,6.4,4.1
2022,10,11,20:40,UTC,0,1011.7,-,97,0,-1,6,5.5,50000,274,7.4,4.4
2022,10,11,20:50,UTC,0,1011.8,-,96,0,-1,6.2,5.6,50000,267,7.7,5
2022,10,11,21:00,UTC,0,1011.9,0,95,0,-1,6.3,5.6,50000,272,7.8,4.8
2022,10,11,21:10,UTC,0,1012,-,94,0,-1,6.4,5.5,50000,280,7.5,4.8
2022,10,11,21:20,UTC,0,1012.1,-,94,0,-1,6.2,5.3,50000,277,6.9,4.8
2022,10,11,21:30,UTC,1,1012.2,-,95,0,-1,6.3,5.5,50000,279,7.9,4.9
2022,10,11,21:40,UTC,1,1012.3,-,95,0,-1,6.3,5.5,50000,279,9.1,5.6
2022,10,11,21:50,UTC,3,1012.3,-,94,0,-1,6.4,5.6,50000,276,9.2,5
2022,10,11,22:00,UTC,5,1012.4,0,93,0,-1,6.4,5.4,50000,273,6.6,4
2022,10,11,22:10,UTC,1,1012.5,-,94,0,-1,6.2,5.3,50000,276,7.6,4.3
2022,10,11,22:20,UTC,1,1012.6,-,93,0,-1,6.4,5.4,50000,278,7.2,5.2
2022,10,11,22:30,UTC,0,1012.6,-,93,0,-1,6.2,5.1,50000,272,7.7,4.5
2022,10,11,22:40,UTC,0,1012.7,-,92,0,-1,6,4.7,50000,271,7.4,4.9
2022,10,11,22:50,UTC,0,1012.8,-,91,0,-1,5.9,4.5,50000,270,7.4,4.8
2022,10,11,23:00,UTC,0,1012.9,0,91,0,-1,5.7,4.3,50000,270,7.7,4.7
2022,10,11,23:10,UTC,0,1012.9,-,89,0,-1,6,4.4,50000,276,8.7,5.3
2022,10,11,23:20,UTC,0,1012.9,-,86,0,-1,6.4,4.2,50000,281,8.5,5.5
2022,10,11,23:30,UTC,0,1013.1,-,88,0,-1,6.1,4.2,50000,282,6.9,5
2022,10,11,23:40,UTC,0,1013.2,-,88,0,-1,5.9,4.1,50000,281,7.1,4.9
2022,10,11,23:50,UTC,0,1013.3,-,89,0,-1,5.8,4.2,50000,281,7.2,4.6
2022,10,12,00:00,UTC,0,1013.4,0,91,0,-1,5.5,4.2,50000,279,7.9,4.7
2022,10,12,00:10,UTC,0,1013.4,-,90,0,-1,5.8,4.3,50000,280,7.6,5.1
2022,10,12,00:20,UTC,0,1013.5,-,90,0,-1,5.7,4.2,50000,280,8.7,5.3
2022,10,12,00:30,UTC,0,1013.6,-,90,0,-1,5.7,4.3,50000,285,6.9,5.1
2022,10,12,00:40,UTC,0,1013.6,-,89,0,-1,5.9,4.2,50000,287,7.8,5.1
2022,10,12,00:50,UTC,0,1013.7,-,90,0,-1,5.5,4,50000,290,7.4,4.9
2022,10,12,01:00,UTC,0,1013.8,0,90,0,-1,5.7,4.2,50000,292,6.7,4.9
2022,10,12,01:10,UTC,0,1013.9,-,91,0,-1,5.5,4.2,50000,292,6.9,4.6
2022,10,12,01:20,UTC,0,1013.9,-,91,0,-1,5.6,4.2,50000,294,6,4.5
2022,10,12,01:30,UTC,0,1014,-,91,0,-1,5.4,4.1,50000,291,6.4,4.6
2022,10,12,01:40,UTC,0,1014.1,-,91,0,-1,5.6,4.2,50000,288,6.7,4.3
2022,10,12,01:50,UTC,0,1014.3,-,91,0,-1,5.4,4.1,50000,286,6.1,4.3
2022,10,12,02:00,UTC,0,1014.4,0,93,0,-1,5.3,4.3,50000,285,6.9,4.4
2022,10,12,02:10,UTC,0,1014.5,-,93,0,-1,5.4,4.4,50000,284,7.4,4.6
2022,10,12,02:20,UTC,0,1014.5,-,93,0,-1,5.7,4.6,50000,285,6.7,4.6
2022,10,12,02:30,UTC,0,1014.6,-,93,0,-1,5.5,4.5,50000,284,7,4.6
2022,10,12,02:40,UTC,0,1014.7,-,94,0,-1,5.5,4.6,50000,287,6.9,4.7
2022,10,12,02:50,UTC,0,1014.8,-,94,0,-1,5.3,4.4,50000,289,6.3,4.5
2022,10,12,03:00,UTC,0,1014.9,0,95,0,-1,5.2,4.4,50000,292,5.6,4.2
2022,10,12,03:10,UTC,0,1014.9,-,96,0,-1,5.1,4.5,50000,290,6.5,4.6
2022,10,12,03:20,UTC,0,1014.9,-,96,0,-1,5,4.4,50000,290,5.8,4.5
2022,10,12,03:30,UTC,0,1015,-,95,0,-1,5.4,4.7,50000,289,5.9,4.4
2022,10,12,03:40,UTC,0,1015.1,-,94,0,-1,5.4,4.5,50000,289,5.8,4.3
2022,10,12,03:50,UTC,0,1015.1,-,94,0,-1,5.1,4.3,50000,291,6,4.5
2022,10,12,04:00,UTC,0,1015.2,0,96,0,-1,5,4.3,50000,295,6.3,4.2
2022,10,12,04:10,UTC,0,1015.2,-,95,0,-1,5.4,4.6,50000,294,6.3,4.7
2022,10,12,04:20,UTC,0,1015.3,-,93,0,-1,5.4,4.3,50000,292,6.2,4.7
2022,10,12,04:30,UTC,0,1015.4,-,93,0,-1,5.2,4.2,50000,297,5.7,4.3
2022,10,12,04:40,UTC,0,1015.5,-,93,0,-1,4.9,4,50000,296,5.1,4
2022,10,12,04:50,UTC,0,1015.7,-,94,0,-1,4.9,4,50000,295,5.3,4
2022,10,12,05:00,UTC,0,1015.8,0,93,0,-1,5,4,50000,297,5.6,4
2022,10,12,05:10,UTC,0,1015.9,-,93,0,-1,4.8,3.8,50000,297,5.1,3.9
2022,10,12,05:20,UTC,0,1016,-,94,0,-1,4.8,3.8,50000,296,5,3.9
2022,10,12,05:30,UTC,0,1016,-,94,0,-1,4.7,3.9,50000,295,6.3,3.9
2022,10,12,05:40,UTC,0,1016.1,-,93,0,-1,5,3.9,50000,-,-,-
2022,10,12,05:50,UTC,0,1016.2,-,93,0,-1,5.1,4,50000,292,4.5,3.1
2022,10,12,06:00,UTC,0,1016.3,0,93,0,-1,5.2,4.1,50000,292,4.9,3.2
2022,10,12,06:10,UTC,0,1016.4,-,90,0,-1,5.7,4.2,50000,294,5.9,4
2022,10,12,06:20,UTC,0,1016.5,-,89,0,-1,5.9,4.2,50000,296,6,4.4
2022,10,12,06:30,UTC,0,1016.6,-,86,0,-1,6.4,4.2,48020,292,7.4,4.6
2022,10,12,06:40,UTC,0,1016.6,-,83,0,-1,6.8,4.2,48060,294,7.6,4.5
2022,10,12,06:50,UTC,0,1016.7,-,81,0,-1,7.1,4.1,50000,296,6.9,4.3
2022,10,12,07:00,UTC,0,1016.7,0,79,0,-1,7.6,4.1,47390,296,7.1,3.9
2022,10,12,07:10,UTC,0,1016.8,-,79,0,-1,7.7,4.3,47230,300,6,3.3
2022,10,12,07:20,UTC,0,1016.9,-,77,0,-1,7.9,4.1,47410,304,5.4,3.5
2022,10,12,07:30,UTC,0,1017,-,76,0,-1,8.1,4.1,47530,304,6.2,3.2
2022,10,12,07:40,UTC,0,1016.9,-,74,0,-1,8.4,4.1,50000,292,7,4.1
2022,10,12,07:50,UTC,0,1017,-,73,0,-1,8.5,4,48730,292,8,4.5
2022,10,12,08:00,UTC,0,1017.1,0,73,0,-1,8.6,4.1,50000,291,8.8,5.9
2022,10,12,08:10,UTC,0,1017.2,-,72,0,-1,8.9,4.2,48980,304,6.9,4.1
2022,10,12,08:20,UTC,0,1017.2,-,71,0,-1,8.9,3.9,49770,307,8.5,4.5
2022,10,12,08:30,UTC,0,1017.2,-,70,0,-1,9.2,3.9,50000,302,6.2,3.8
2022,10,12,08:40,UTC,0,1017.2,-,70,0,-1,9.6,4.3,47790,298,9.2,4.5
2022,10,12,08:50,UTC,0,1017.3,-,70,0,-1,9.4,4.3,50000,299,10.8,5.8
2022,10,12,09:00,UTC,0,1017.3,0,65,0,-1,9.5,3.3,46580,300,9.7,6.2
2022,10,12,09:10,UTC,0,1017.4,-,64,0,-1,9.5,3,40190,294,11.7,6.7
2022,10,12,09:20,UTC,0,1017.5,-,64,0,-1,9.8,3.4,44860,301,10.4,6
2022,10,12,09:30,UTC,0,1017.5,-,62,0,-1,9.8,2.8,48620,292,10.6,7
2022,10,12,09:40,UTC,0,1017.6,-,61,0,-1,9.9,2.7,45070,296,10.5,6.5
2022,10,12,09:50,UTC,0,1017.7,-,60,0,-1,10.2,2.7,42010,304,9.2,5.6
2022,10,12,10:00,UTC,0,1017.7,0,59,0,-1,10.2,2.5,43900,306,10.5,6.3
2022,10,12,10:10,UTC,0,1017.8,-,58,0,-1,10.2,2.4,48600,306,10.5,6.3
2022,10,12,10:20,UTC,0,1017.8,-,57,0,-1,10.5,2.4,36000,307,9.1,5.3
2022,10,12,10:30,UTC,0,1017.8,-,57,0,-1,10.5,2.4,42280,304,9.5,6.1
2022,10,12,10:40,UTC,0,1017.9,-,56,0,-1,10.6,2.2,48570,301,10.3,6.3
2022,10,12,10:50,UTC,0,1017.9,-,55,0,-1,10.9,2.1,43250,290,8.2,4.8
2022,10,12,11:00,UTC,0,1018,0,56,0,-1,10.8,2.4,50000,304,8.4,5.7
2022,10,12,11:10,UTC,1,1018.1,-,54,0,-1,10.9,1.9,48540,297,10.4,5.9
2022,10,12,11:20,UTC,1,1018.1,-,53,0,-1,10.5,1.3,48050,-,-,-
2022,10,12,11:30,UTC,1,1018.2,-,52,0,-1,10.4,1,50000,308,9.9,6.9
2022,10,12,11:40,UTC,1,1018.2,-,54,0,-1,10.8,1.9,48650,301,8.3,5
2022,10,12,11:50,UTC,1,1018.2,-,50,0,-1,10.8,0.7,45500,283,12.1,6.6
2022,10,12,12:00,UTC,1,1018.2,0,50,0,-1,11.1,1,50000,279,9.9,5.7
2022,10,12,12:10,UTC,1,1018.3,-,51,0,-1,11.2,1.5,44070,290,10.3,6.3
2022,10,12,12:20,UTC,1,1018.2,-,52,0,-1,11.2,1.7,46230,294,8.3,5.7
2022,10,12,12:30,UTC,3,1018.2,-,52,0,-1,11.2,1.6,43310,287,9.5,5.6
2022,10,12,12:40,UTC,5,1018.2,-,51,0,-1,10.9,1.1,43960,297,9.1,5.1
2022,10,12,12:50,UTC,3,1018.3,-,47,0,-1,11.1,0.2,50000,291,9.5,5
2022,10,12,13:00,UTC,5,1018.3,0,51,0,-1,11.2,1.4,50000,313,8.4,4.5
2022,10,12,13:10,UTC,5,1018.4,-,51,0,-1,10.9,1.2,50000,327,6.7,4.2
2022,10,12,13:20,UTC,5,1018.4,-,48,0,-1,11.1,0.5,48140,330,6.5,3.7
2022,10,12,13:30,UTC,3,1018.4,-,48,0,-1,11.1,0.4,50000,326,6.7,3.4
2022,10,12,13:40,UTC,5,1018.5,-,47,0,-1,11,0.1,50000,315,7.3,4.1
2022,10,12,13:50,UTC,1,1018.6,-,49,0,-1,10.3,0.1,50000,306,10,4.8
2022,10,12,14:00,UTC,3,1018.6,0,49,0,-1,10.5,0.2,50000,320,6.9,3.9
2022,10,12,14:10,UTC,3,1018.7,-,50,0,-1,10.3,0.3,50000,322,5.5,2.8
2022,10,12,14:20,UTC,1,1018.7,-,50,0,-1,10,0,50000,311,7.2,3.5
2022,10,12,14:30,UTC,1,1018.8,-,51,0,-1,9.8,0,50000,291,8.7,5.1
2022,10,12,14:40,UTC,1,1018.8,-,51,0,-1,9.7,0.1,50000,298,7.1,4.5
2022,10,12,14:50,UTC,1,1018.9,-,53,0,-1,9.3,0.2,50000,299,7.2,4.8
2022,10,12,15:00,UTC,1,1018.9,0,52,0,-1,9.2,-0.1,50000,295,8.1,5.2
2022,10,12,15:10,UTC,1,1018.9,-,53,0,-1,8.9,-0.2,50000,304,6.9,4
2022,10,12,15:20,UTC,0,1019.1,-,55,0,-1,8.4,0,50000,295,6.6,4.1
2022,10,12,15:30,UTC,0,1019.1,-,58,0,-1,8,0.3,50000,297,6.2,3.7
2022,10,12,15:40,UTC,0,1019.2,-,61,0,-1,7.5,0.4,50000,296,5.2,3.1
2022,10,12,15:50,UTC,0,1019.3,-,63,0,-1,7.1,0.6,50000,293,5.7,3.5
2022,10,12,16:00,UTC,0,1019.4,0,65,0,-1,6.7,0.5,50000,293,5.5,3.4
2022,10,12,16:10,UTC,0,1019.5,-,62,0,-1,7.1,0.4,50000,299,5.3,3.4
2022,10,12,16:20,UTC,0,1019.5,-,65,0,-1,6.6,0.4,50000,294,4.9,3.4
2022,10,12,16:30,UTC,0,1019.6,-,67,0,-1,6.3,0.5,50000,294,5.5,3.5
2022,10,12,16:40,UTC,0,1019.6,-,67,0,-1,6.1,0.5,50000,291,5.2,3.1
2022,10,12,16:50,UTC,0,1019.6,-,69,0,-1,5.8,0.5,50000,294,4.1,2.8
2022,10,12,17:00,UTC,0,1019.7,0,69,0,-1,5.6,0.4,50000,297,3.2,2.4
2022,10,12,17:10,UTC,0,1019.8,-,72,0,-1,5.3,0.6,50000,290,3.1,2.5
2022,10,12,17:20,UTC,0,1019.8,-,74,0,-1,5.1,0.8,50000,286,4.7,3.1
2022,10,12,17:30,UTC,0,1019.9,-,73,0,-1,5.1,0.7,50000,287,4.2,3.4
2022,10,12,17:40,UTC,0,1020,-,74,0,-1,5,0.9,50000,289,4.7,3.7
2022,10,12,17:50,UTC,0,1020.1,-,77,0,-1,4.9,1.1,50000,292,4.9,3.9
2022,10,12,18:00,UTC,0,1020.2,0,76,0,-1,4.8,1,50000,294,5.2,4
2022,10,12,18:10,UTC,0,1020.2,-,74,0,-1,5.2,0.8,50000,300,4.7,3.5
2022,10,12,18:20,UTC,0,1020.3,-,78,0,-1,4.5,1,50000,291,4.9,3.6
2022,10,12,18:30,UTC,0,1020.3,-,78,0,-1,4.3,0.9,50000,291,5.6,3.7
2022,10,12,18:40,UTC,0,1020.3,-,77,0,-1,4.5,0.8,50000,300,4.9,3.6
2022,10,12,18:50,UTC,0,1020.4,-,76,0,-1,4.6,0.8,50000,305,4.7,3.9
2022,10,12,19:00,UTC,0,1020.3,0,77,0,-1,4.3,0.7,50000,303,4.5,3.5
2022,10,12,19:10,UTC,0,1020.3,-,79,0,-1,4,0.7,50000,299,4.7,3.5
2022,10,12,19:20,UTC,0,1020.2,-,75,0,-1,4.8,0.7,50000,325,5.5,4.2
2022,10,12,19:30,UTC,0,1020.3,-,81,0,-1,3.7,0.7,50000,320,4.6,3.3
2022,10,12,19:40,UTC,0,1020.4,-,82,0,-1,3.3,0.6,50000,315,4.2,3.2
2022,10,12,19:50,UTC,0,1020.6,-,84,0,-1,3.1,0.6,50000,305,4.1,3.2
2022,10,12,20:00,UTC,0,1020.7,0,82,0,-1,3.6,0.7,50000,302,4.3,3.2
2022,10,12,20:10,UTC,0,1020.7,-,82,0,-1,3.5,0.7,50000,279,5.3,3.3
2022,10,12,20:20,UTC,0,1020.7,-,84,0,-1,3.2,0.7,50000,261,5.7,3.1
2022,10,12,20:30,UTC,0,1020.7,-,84,0,-1,3.4,1,50000,257,3.8,2.6
2022,10,12,20:40,UTC,0,1020.7,-,83,0,-1,3.5,0.9,50000,257,3.8,2.8
2022,10,12,20:50,UTC,0,1020.7,-,85,0,-1,3.4,1.1,50000,261,4.2,2.8
2022,10,12,21:00,UTC,0,1020.7,0,85,0,-1,3.4,1.2,50000,254,3.6,2.6
2022,10,12,21:10,UTC,0,1020.8,-,88,0,-1,3.3,1.5,50000,254,3.3,2.3
2022,10,12,21:20,UTC,0,1020.8,-,89,0,-1,3.3,1.6,50000,248,2.5,1.9
2022,10,12,21:30,UTC,0,1020.9,-,89,0,-1,3.2,1.6,50000,252,2.8,2
2022,10,12,21:40,UTC,0,1020.9,-,90,0,-1,3.1,1.7,50000,258,3,2.3
2022,10,12,21:50,UTC,0,1021,-,90,0,-1,3.1,1.6,50000,242,2.4,2.1
2022,10,12,22:00,UTC,0,1021,0,89,0,-1,3.1,1.6,50000,241,2.4,2
2022,10,12,22:10,UTC,0,1021,-,91,0,-1,2.9,1.5,50000,242,2.5,2
2022,10,12,22:20,UTC,0,1021,-,90,0,-1,3.1,1.7,50000,238,2.7,2.2
2022,10,12,22:30,UTC,0,1021.1,-,90,0,-1,3.1,1.7,50000,237,3,2.3
2022,10,12,22:40,UTC,0,1021.2,-,90,0,-1,3,1.5,50000,237,2.9,2.3
2022,10,12,22:50,UTC,0,1021.2,-,91,0,-1,2.5,1.2,50000,228,2.2,1.5
2022,10,12,23:00,UTC,0,1021.1,0,92,0,-1,2.1,1,50000,225,2,1.6
2022,10,12,23:10,UTC,0,1021.1,-,93,0,-1,2,1.1,50000,217,2.1,1.5
2022,10,12,23:20,UTC,0,1021.2,-,94,0,-1,1.8,0.9,50000,227,2,1.7
2022,10,12,23:30,UTC,0,1021.2,-,95,0,-1,1.7,1,50000,229,1.8,1.6
2022,10,12,23:40,UTC,0,1021.1,-,96,0,-1,1.4,0.9,50000,224,2.2,1.8
2022,10,12,23:50,UTC,0,1021.1,-,97,0,-1,1.4,0.9,50000,220,2.4,2.1
2022,10,13,00:00,UTC,0,1021.1,0,97,0,-1,1.3,0.9,50000,216,2.4,2
2022,10,13,00:10,UTC,0,1021.1,-,98,0,-1,1.4,1.1,50000,211,2.5,2.1
2022,10,13,00:20,UTC,0,1021.1,-,98,0,-1,1.4,1.1,50000,211,3,2.4
2022,10,13,00:30,UTC,0,1021,-,98,0,-1,1.4,1.1,50000,212,3,2.5
2022,10,13,00:40,UTC,0,1021,-,98,0,-1,1.6,1.4,50000,210,2.9,2.3
2022,10,13,00:50,UTC,0,1020.9,-,98,0,-1,1.6,1.3,50000,214,2.5,2.1
2022,10,13,01:00,UTC,0,1020.9,0,98,0,-1,1.4,1.2,50000,210,2.6,2.3
2022,10,13,01:10,UTC,0,1020.8,-,98,0,-1,1.6,1.3,50000,206,2.3,1.9
2022,10,13,01:20,UTC,0,1020.8,-,98,0,-1,1.4,1.1,50000,204,2.3,2
2022,10,13,01:30,UTC,0,1020.8,-,98,0,-1,1.4,1.1,50000,206,2.2,1.8
2022,10,13,01:40,UTC,0,1020.8,-,98,0,-1,1.1,0.8,49880,210,2.3,1.9
2022,10,13,01:50,UTC,0,1020.8,-,99,0,-1,1.3,1.2,50000,198,1.8,1.5
2022,10,13,02:00,UTC,0,1020.8,0,99,0,-1,1,0.9,50000,200,2.1,1.7
2022,10,13,02:10,UTC,0,1020.8,-,99,0,-1,1.1,1,49560,198,1.9,1.7
2022,10,13,02:20,UTC,0,1020.7,-,99,0,-1,0.9,0.7,50000,201,2.3,1.9
2022,10,13,02:30,UTC,0,1020.7,-,99,0,-1,0.8,0.7,50000,205,2.1,2
2022,10,13,02:40,UTC,0,1020.6,-,99,0,-1,0.7,0.7,50000,207,2.3,2
2022,10,13,02:50,UTC,0,1020.5,-,100,0,-1,0.7,0.7,50000,201,2.3,2.1
2022,10,13,03:00,UTC,0,1020.6,0,100,0,-1,1.1,1.1,50000,201,2.3,2
2022,10,13,03:10,UTC,0,1020.5,-,100,0,-1,1,1,49190,205,2,1.8
2022,10,13,03:20,UTC,0,1020.5,-,100,0,-1,0.9,0.9,50000,203,2.1,1.8
2022,10,13,03:30,UTC,1,1020.5,-,100,0,-1,1.1,1.1,50000,193,2.5,2.1
2022,10,13,03:40,UTC,1,1020.5,-,100,0,-1,1,1,49280,198,2.9,2.5
2022,10,13,03:50,UTC,1,1020.5,-,100,0,-1,1,1,50000,202,2.8,2.3
2022,10,13,04:00,UTC,1,1020.4,0,100,0,-1,1.2,1.2,37730,203,3.1,2.4
2022,10,13,04:10,UTC,1,1020.4,-,100,0,-1,1.3,1.3,39000,206,2.7,2.1
2022,10,13,04:20,UTC,1,1020.4,-,100,0,-1,1.1,1.1,47790,221,2.9,2.1
2022,10,13,04:30,UTC,0,1020.4,-,100,0,-1,1.1,1.1,48180,223,3.1,2.5
2022,10,13,04:40,UTC,0,1020.4,-,100,0,-1,1.7,1.7,40540,222,3.1,2.3
2022,10,13,04:50,UTC,0,1020.4,-,100,0,-1,1.6,1.6,39240,231,3.3,2.6
2022,10,13,05:00,UTC,0,1020.3,0,100,0,-1,1.6,1.6,34960,230,4.1,2.7
2022,10,13,05:10,UTC,0,1020.3,-,100,0,-1,1.6,1.6,33190,233,3.8,2.8
2022,10,13,05:20,UTC,0,1020.3,-,100,0,-1,1.7,1.6,21990,226,3.3,2.4
2022,10,13,05:30,UTC,0,1020.3,-,99,0,-1,2.3,2.1,18240,211,3.4,2.5
2022,10,13,05:40,UTC,0,1020.2,-,98,0,-1,2.9,2.7,23490,210,4,3
2022,10,13,05:50,UTC,0,1020.2,-,97,0,-1,2.9,2.5,24570,213,4,3.1
2022,10,13,06:00,UTC,0,1020.2,0,99,0,-1,3.5,3.3,18740,215,4.7,3.3
2022,10,13,06:10,UTC,0,1020.1,-,100,0,-1,6.2,6.2,24980,225,5.4,3.7
2022,10,13,06:20,UTC,0,1020.1,-,100,0,-1,6.8,6.8,29630,225,5.7,4
2022,10,13,06:30,UTC,0,1020.1,-,100,0,-1,7.2,7.2,37980,223,5.3,3.5
2022,10,13,06:40,UTC,1,1020.2,-,100,0,-1,7.6,7.6,36290,219,5.9,3.4
2022,10,13,06:50,UTC,5,1020.3,-,100,0,-1,8.3,8.3,37950,224,7.1,4.4
2022,10,13,07:00,UTC,3,1020.2,0,99,0,-1,8.8,8.7,50000,234,6.8,4
2022,10,13,07:10,UTC,3,1020.3,-,97,0,-1,8.8,8.4,50000,224,7.1,4
2022,10,13,07:20,UTC,3,1020.2,-,95,0,-1,9.2,8.4,50000,225,7.5,4.9
2022,10,13,07:30,UTC,1,1020.2,-,92,0,-1,9.7,8.4,40290,225,8.4,3.6
2022,10,13,07:40,UTC,1,1020.2,-,89,0,-1,9.8,8.1,46960,-,-,-
2022,10,13,07:50,UTC,1,1020.2,-,87,0,-1,10.2,8,45580,229,6.7,4.7
2022,10,13,08:00,UTC,3,1020.2,0,87,0,-1,10.3,8.3,50000,235,7.7,4.5
2022,10,13,08:10,UTC,5,1020.2,-,90,0,-1,9.9,8.4,50000,240,8.4,5.1
2022,10,13,08:20,UTC,7,1020.1,-,92,0,-1,10,8.8,47960,236,9,5
2022,10,13,08:30,UTC,7,1020.1,-,92,0,-1,10.2,8.9,41260,229,7.3,4.5
2022,10,13,08:40,UTC,7,1020,-,92,0,-1,10.4,9.1,43720,224,8.1,5.3
2022,10,13,08:50,UTC,7,1020,-,91,0,-1,10.6,9.1,44660,226,7.9,5.3
2022,10,13,09:00,UTC,7,1020,0,89,0,-1,10.6,8.9,43110,224,7.2,4.9
2022,10,13,09:10,UTC,7,1020,-,90,0,-1,10.4,8.9,48280,225,8,5.1
2022,10,13,09:20,UTC,8,1020,-,91,0,-1,10.4,8.9,44940,226,9.3,6.2
2022,10,13,09:30,UTC,7,1020,-,90,0,-1,10.5,8.9,44000,219,6.6,4
2022,10,13,09:40,UTC,7,1020,-,90,0,-1,10.6,9,50000,222,6.1,3.5
2022,10,13,09:50,UTC,7,1019.9,-,91,0,-1,10.6,9.1,49980,226,7.7,4.8
2022,10,13,10:00,UTC,7,1020,0,91,0,-1,10.4,9,42680,225,8,4.9
2022,10,13,10:10,UTC,7,1019.9,-,91,0,-1,10.5,9.2,42410,228,8,4.1
2022,10,13,10:20,UTC,7,1019.9,-,92,0,-1,10.6,9.3,37960,236,7,4.3
2022,10,13,10:30,UTC,7,1019.9,-,92,0,-1,10.6,9.3,33770,230,6.6,3.8
2022,10,13,10:40,UTC,7,1019.9,-,92,0,-1,10.9,9.6,42120,231,7.1,3.7
2022,10,13,10:50,UTC,7,1019.9,-,92,0,-1,10.7,9.4,38100,-,-,-
2022,10,13,11:00,UTC,7,1019.9,0,93,0,-1,10.7,9.6,36910,-,-,-
2022,10,13,11:10,UTC,7,1019.8,-,94,0,-1,10.7,9.8,31820,234,7.9,4.8
2022,10,13,11:20,UTC,7,1019.8,-,94,0,-1,10.7,9.8,28720,237,8.9,5.5
2022,10,13,11:30,UTC,8,1019.8,-,93,0,-1,10.8,9.8,31810,239,8.8,4.9
2022,10,13,11:40,UTC,7,1019.7,-,94,0,-1,10.8,9.9,25050,240,8.4,5.7
2022,10,13,11:50,UTC,7,1019.7,-,94,0,-1,11,10.1,32780,243,7.5,4.8
2022,10,13,12:00,UTC,7,1019.6,0,93,0,-1,11.1,10,28390,236,8.4,5.7
2022,10,13,12:10,UTC,7,1019.5,-,92,0,-1,11.1,10,33370,233,8,4.8
2022,10,13,12:20,UTC,7,1019.5,-,93,0,-1,11.1,10,32130,233,8.1,4.7
2022,10,13,12:30,UTC,7,1019.4,-,93,0,-1,11.1,10.1,32790,237,8.3,4.4
2022,10,13,12:40,UTC,8,1019.4,-,93,0,-1,11.1,10,32070,232,8.7,5.1
2022,10,13,12:50,UTC,7,1019.4,-,93,0,-1,11.1,10.1,27760,233,8.2,4.7
2022,10,13,13:00,UTC,7,1019.4,0,93,0,-1,11,9.9,26870,225,9.2,4.8
2022,10,13,13:10,UTC,7,1019.3,-,93,0,-1,10.9,9.9,32120,231,7.9,4.7
2022,10,13,13:20,UTC,7,1019.3,-,94,0,-1,10.9,9.9,34510,229,7.2,4.5
2022,10,13,13:30,UTC,7,1019.2,-,94,0,-1,10.9,9.9,33260,225,9,5
2022,10,13,13:40,UTC,8,1019.2,-,94,0,-1,10.8,9.8,29770,227,9.1,5.9
2022,10,13,13:50,UTC,8,1019.2,-,94,0,-1,10.7,9.8,22520,226,9.7,4.7
2022,10,13,14:00,UTC,7,1019.1,0,96,0,-1,10.6,10,15240,224,8.5,4.9
2022,10,13,14:10,UTC,7,1019.2,-,97,0,-1,10.6,10,28500,235,8,4.8
2022,10,13,14:20,UTC,7,1019.2,-,97,0,-1,10.5,10,26200,232,7.3,4.5
2022,10,13,14:30,UTC,8,1019.2,-,96,0,-1,10.5,9.8,29420,233,9.1,4.9
2022,10,13,14:40,UTC,8,1019.2,-,95,0,-1,10.4,9.7,29650,234,8.9,5.1
2022,10,13,14:50,UTC,8,1019.1,-,95,0,-1,10.5,9.8,30830,232,11.2,5.7
2022,10,13,15:00,UTC,8,1019.1,0,96,0,-1,10.5,9.8,31580,234,8.8,4.5
2022,10,13,15:10,UTC,7,1019.1,-,96,0,-1,10.6,10,28830,232,9,4.8
2022,10,13,15:20,UTC,7,1019.1,-,96,0,-1,10.5,9.9,26220,233,8.5,4.7
2022,10,13,15:30,UTC,8,1019.2,-,96,0,-1,10.5,9.9,27060,237,10.2,5.2
2022,10,13,15:40,UTC,8,1019.1,-,96,0,-1,10.5,9.9,26620,231,8,5.1
2022,10,13,15:50,UTC,8,1019.1,-,96,0,-1,10.5,9.8,26570,229,8.4,5.1
2022,10,13,16:00,UTC,8,1019.1,0,96,0,-1,10.6,9.9,27120,-,-,-
2022,10,13,16:10,UTC,7,1019,-,95,0,-1,10.6,9.9,28130,236,8,4.5
2022,10,13,16:20,UTC,7,1019,-,96,0,-1,10.5,9.9,28480,239,8.9,5.1
2022,10,13,16:30,UTC,7,1019,-,96,0,-1,10.5,9.9,26050,244,7.5,4.7
2022,10,13,16:40,UTC,7,1018.9,-,96,0,-1,10.4,9.8,25330,235,7,4.5
2022,10,13,16:50,UTC,7,1018.9,-,96,0,-1,10.4,9.8,26090,236,7.3,5.1
2022,10,13,17:00,UTC,8,1018.9,0,96,0,-1,10.4,9.9,26300,236,8,4.8
2022,10,13,17:10,UTC,7,1018.8,-,96,0,-1,10.4,9.8,29970,236,8.2,4.8
2022,10,13,17:20,UTC,7,1018.7,-,96,0,-1,10.4,9.8,26990,237,8.5,3.9
2022,10,13,17:30,UTC,8,1018.7,-,96,0,-1,10.4,9.8,27520,235,6.5,4.2
2022,10,13,17:40,UTC,8,1018.7,-,96,0,-1,10.4,9.8,26340,241,6,3.2
2022,10,13,17:50,UTC,7,1018.7,-,96,0,-1,10.3,9.7,27110,245,7.4,3.6
2022,10,13,18:00,UTC,8,1018.7,0,96,0,-1,10.3,9.8,28090,240,6.5,3.4
2022,10,13,18:10,UTC,7,1018.7,-,96,0,-1,10.3,9.7,29850,237,6.4,3.8
2022,10,13,18:20,UTC,7,1018.7,-,96,0,-1,10.3,9.7,27450,241,5.7,3.4
2022,10,13,18:30,UTC,8,1018.7,-,96,0,-1,10.3,9.6,29020,224,6.9,3.7
2022,10,13,18:40,UTC,7,1018.7,-,96,0,-1,10.3,9.7,29000,223,6.7,3.9
2022,10,13,18:50,UTC,7,1018.7,-,96,0,-1,10.2,9.7,30650,232,6.7,4.2
2022,10,13,19:00,UTC,8,1018.7,0,96,0,-1,10.3,9.7,31160,227,7.1,4.9
2022,10,13,19:10,UTC,7,1018.6,-,96,0,-1,10.3,9.7,31690,228,6.9,4.7
2022,10,13,19:20,UTC,7,1018.6,-,96,0,-1,10.4,9.7,31120,227,7.7,4.3
2022,10,13,19:30,UTC,8,1018.6,-,95,0,-1,10.4,9.7,25890,231,7.7,4.8
2022,10,13,19:40,UTC,7,1018.6,-,95,0,-1,10.4,9.7,28450,233,7.8,4.8
2022,10,13,19:50,UTC,7,1018.6,-,95,0,-1,10.4,9.7,27450,231,6.9,4.3
2022,10,13,20:00,UTC,8,1018.5,0,95,0,-1,10.4,9.6,27900,221,6.9,4
2022,10,13,20:10,UTC,8,1018.5,-,95,0,-1,10.4,9.7,32540,232,6.9,3.3
2022,10,13,20:20,UTC,7,1018.5,-,95,0,-1,10.4,9.7,30120,236,6,3.8
2022,10,13,20:30,UTC,7,1018.5,-,95,0,-1,10.4,9.7,30070,238,5.7,3.6
2022,10,13,20:40,UTC,7,1018.5,-,96,0,-1,10.3,9.6,28220,247,6.4,3.5
2022,10,13,20:50,UTC,7,1018.5,-,95,0,-1,10.4,9.6,31980,235,7.3,4
2022,10,13,21:00,UTC,8,1018.6,0,94,0,-1,10.3,9.4,32060,231,7.6,4.2
2022,10,13,21:10,UTC,8,1018.5,-,94,0,-1,10.3,9.3,30180,231,7.5,4.8
2022,10,13,21:20,UTC,7,1018.5,-,94,0,-1,10.3,9.4,37130,228,7.3,4.2
2022,10,13,21:30,UTC,7,1018.5,-,95,0,-1,10.2,9.4,38640,229,8,4.2
2022,10,13,21:40,UTC,8,1018.5,-,95,0,-1,10.1,9.3,37870,227,6.6,3.4
2022,10,13,21:50,UTC,8,1018.4,-,95,0,-1,10.1,9.4,35820,232,6.9,4
2022,10,13,22:00,UTC,8,1018.4,0,96,0,-1,10.2,9.5,34170,227,6.2,3.7
2022,10,13,22:10,UTC,7,1018.3,-,96,0,-1,10.2,9.5,34870,228,7.3,4.9
2022,10,13,22:20,UTC,7,1018.3,-,95,0,-1,10.2,9.5,34950,231,6.9,4.5
2022,10,13,22:30,UTC,8,1018.2,-,95,0,-1,10.2,9.5,39000,230,5.9,3.5
2022,10,13,22:40,UTC,7,1018.3,-,95,0,-1,10.3,9.4,41800,227,6.8,4.4
2022,10,13,22:50,UTC,7,1018.3,-,94,0,-1,10.3,9.4,40150,227,7.2,4.2
2022,10,13,23:00,UTC,8,1018.2,0,94,0,-1,10.3,9.4,40050,226,7.1,3.7
2022,10,13,23:10,UTC,8,1018.2,-,94,0,-1,10.3,9.4,37980,227,7.5,4.8
2022,10,13,23:20,UTC,7,1018.1,-,95,0,-1,10.3,9.4,39920,226,7.8,4.1
2022,10,13,23:30,UTC,7,1018.1,-,95,0,-1,10.2,9.4,34760,235,7.5,5
2022,10,13,23:40,UTC,7,1018,-,95,0,-1,10.2,9.4,38440,230,7.5,4.7
2022,10,13,23:50,UTC,8,1018,-,95,0,-1,10.2,9.4,37600,231,7.9,5.2
2022,10,14,00:00,UTC,8,1018,0,95,0,-1,10.3,9.4,39040,225,7.9,4.6
2022,10,14,00:10,UTC,8,1018,-,94,0,-1,10.3,9.4,35570,225,6.2,3.8
2022,10,14,00:20,UTC,7,1017.9,-,95,0,-1,10.2,9.4,40000,228,6.9,3.9
2022,10,14,00:30,UTC,8,1017.9,-,95,0,-1,10.1,9.3,40370,226,6.8,3.7
2022,10,14,00:40,UTC,8,1017.8,-,94,0,-1,10.2,9.3,35550,227,6.7,3.8
2022,10,14,00:50,UTC,8,1017.7,-,94,0,-1,10.1,9.2,36440,225,6.4,3.9
2022,10,14,01:00,UTC,8,1017.6,0,94,0,-1,10.1,9.2,34870,216,6.4,3.8
2022,10,14,01:10,UTC,8,1017.6,-,94,0,-1,10,9,37760,217,5.6,3.3
2022,10,14,01:20,UTC,7,1017.5,-,94,0,-1,10,9,35240,220,5.6,3.7
2022,10,14,01:30,UTC,7,1017.4,-,93,0,-1,10,9,35570,224,7,4.4
2022,10,14,01:40,UTC,7,1017.3,-,93,0,-1,10,8.9,35090,226,7.4,4
2022,10,14,01:50,UTC,7,1017.3,-,93,0,-1,10,8.8,34600,227,5.5,3.8
2022,10,14,02:00,UTC,7,1017.2,0,93,0,-1,9.9,8.9,32810,226,6.1,3.7
2022,10,14,02:10,UTC,8,1017.1,-,94,0,-1,9.8,8.8,31200,214,5.1,3
2022,10,14,02:20,UTC,7,1017.1,-,93,0,-1,9.9,8.9,33880,211,7.7,4.5
2022,10,14,02:30,UTC,7,1017,-,93,0,-1,9.9,8.8,31890,205,7.2,4.4
2022,10,14,02:40,UTC,7,1017,-,94,0,-1,9.8,8.8,38560,205,7.9,4
2022,10,14,02:50,UTC,7,1016.9,-,94,0,-1,9.7,8.8,35680,208,6.4,4.1
2022,10,14,03:00,UTC,7,1016.8,0,94,0,-1,9.7,8.7,41030,201,7.8,3.8
2022,10,14,03:10,UTC,7,1016.7,-,93,0,-1,9.8,8.8,31400,205,7.8,4.8
2022,10,14,03:20,UTC,7,1016.7,-,93,0,-1,9.8,8.8,37170,210,7.9,4.9
2022,10,14,03:30,UTC,7,1016.6,-,93,0,-1,10,8.9,33320,207,8.4,5.1
2022,10,14,03:40,UTC,7,1016.4,-,93,0,-1,10,8.9,33740,205,7.7,4.6
2022,10,14,03:50,UTC,7,1016.4,-,92,0,-1,10.1,8.9,31580,206,8.5,5.5
2022,10,14,04:00,UTC,7,1016.3,0,93,0,-1,10,8.9,29290,204,8,4.4
2022,10,14,04:10,UTC,7,1016.2,-,93,0,-1,10,8.9,24900,206,7.4,4.6
2022,10,14,04:20,UTC,7,1016.1,-,93,0,-1,10,8.9,29680,204,8,4.8
2022,10,14,04:30,UTC,8,1016,-,93,0,-1,10,8.9,28370,204,8.3,4.9
2022,10,14,04:40,UTC,7,1016,-,93,0,-1,10,8.9,26160,208,8.8,5.6
2022,10,14,04:50,UTC,7,1016,-,93,0,-1,9.9,8.8,26700,205,8.5,5.2
2022,10,14,05:00,UTC,7,1015.9,0,92,0,-1,10,8.7,24700,205,10.5,5.6
2022,10,14,05:10,UTC,7,1015.8,-,93,0,-1,10,8.8,22360,205,9.4,5.3
2022,10,14,05:20,UTC,7,1015.7,-,93,0,-1,10,8.9,20420,207,8.8,4.8
2022,10,14,05:30,UTC,7,1015.7,-,93,0,-1,10,9,20150,202,12.1,4.4
2022,10,14,05:40,UTC,7,1015.7,-,94,0,-1,10,9,18010,205,7.5,4.7
2022,10,14,05:50,UTC,7,1015.7,-,93,0,-1,10,9,20130,208,7.3,4.3
2022,10,14,06:00,UTC,7,1015.7,0,93,0,-1,10.1,9,17640,207,8.2,4.9
2022,10,14,06:10,UTC,7,1015.7,-,93,0,-1,10.1,9,19060,210,7.8,4.6
2022,10,14,06:20,UTC,7,1015.7,-,93,0,-1,10.2,9,17350,213,8.4,5.2
2022,10,14,06:30,UTC,7,1015.6,-,92,0,-1,10.2,9,18130,211,8.4,5.5
2022,10,14,06:40,UTC,7,1015.7,-,92,0,-1,10.2,9,19660,208,7.3,4.8
2022,10,14,06:50,UTC,7,1015.7,-,92,0,-1,10.3,9,17670,208,8.1,4.7
2022,10,14,07:00,UTC,7,1015.7,0,92,0,-1,10.3,9,18990,203,7.8,4.8
2022,10,14,07:10,UTC,7,1015.7,-,92,0,-1,10.4,9,18320,203,8.1,5.2
2022,10,14,07:20,UTC,7,1015.6,-,91,0,-1,10.4,9,20430,201,8.7,4.7
2022,10,14,07:30,UTC,7,1015.6,-,91,0,-1,10.4,9,16460,196,8.7,4.6
2022,10,14,07:40,UTC,7,1015.5,-,93,0,-1,10.3,9.3,10640,200,7.6,4.5
2022,10,14,07:50,UTC,7,1015.6,-,94,0,-1,10.2,9.2,9460,202,8.2,5.3
2022,10,14,08:00,UTC,7,1015.5,0.1,96,0.4,-1,10.1,9.5,9810,201,7.3,4.3
2022,10,14,08:10,UTC,7,1015.5,-,96,0.1,-1,10.1,9.5,9410,200,7.8,4.3
2022,10,14,08:20,UTC,7,1015.5,-,96,0,-1,10.1,9.4,12030,205,9.1,5.5
2022,10,14,08:30,UTC,7,1015.5,-,96,0.5,-1,10.1,9.4,11630,208,8.4,5.8
2022,10,14,08:40,UTC,7,1015.5,-,97,0.1,-1,10.1,9.6,11070,205,8.5,4.7
2022,10,14,08:50,UTC,7,1015.4,-,96,0.4,-1,10.2,9.5,11210,207,9.1,5.8
2022,10,14,09:00,UTC,7,1015.4,0.2,96,0,-1,10.2,9.5,11350,203,8,5
2022,10,14,09:10,UTC,7,1015.4,-,96,0.5,-1,10.1,9.5,10820,201,7.3,3.7
2022,10,14,09:20,UTC,7,1015.4,-,97,0.4,-1,10,9.5,10720,205,8.8,5
2022,10,14,09:30,UTC,7,1015.3,-,97,1,-1,10.2,9.8,8390,199,7.8,4.6
2022,10,14,09:40,UTC,7,1015.2,-,97,0.8,-1,10.3,9.8,8940,199,8.2,4.5
2022,10,14,09:50,UTC,7,1015.2,-,97,0.5,-1,10.2,9.7,10140,206,8.2,5.1
2022,10,14,10:00,UTC,8,1015.1,0.7,98,0.5,-1,10.2,9.8,9570,202,8.3,4.4
2022,10,14,10:10,UTC,7,1015,-,98,0.4,-1,10.1,9.9,9420,202,7.6,4
2022,10,14,10:20,UTC,7,1015,-,98,0.7,-1,10.1,9.8,9000,-,-,-
2022,10,14,10:30,UTC,7,1014.9,-,98,0.7,-1,10.3,10,9620,201,7,4.2
2022,10,14,10:40,UTC,7,1014.9,-,97,0.4,-1,10.4,9.9,9930,208,8.3,5.2
2022,10,14,10:50,UTC,7,1014.9,-,97,0.6,-1,10.3,9.9,9610,208,7.7,4.9
2022,10,14,11:00,UTC,7,1014.9,0.6,98,0.8,-1,10.3,10.1,8650,209,7.5,4.3
2022,10,14,11:10,UTC,7,1014.8,-,98,0.8,-1,10.3,10.1,8930,215,7.5,4.4
2022,10,14,11:20,UTC,7,1014.8,-,98,0.5,-1,10.4,10.1,9610,207,7.2,4.5
2022,10,14,11:30,UTC,7,1014.8,-,97,0,-1,10.4,9.9,11760,205,7.2,4.1
2022,10,14,11:40,UTC,7,1014.7,-,97,0.8,-1,10.3,9.9,10880,208,6.1,3.9
2022,10,14,11:50,UTC,7,1014.7,-,97,0.8,-1,10.3,9.9,10720,198,6.5,3.8
2022,10,14,12:00,UTC,8,1014.6,0.5,97,0.1,-1,10.3,9.9,10850,198,5.9,3.4
2022,10,14,12:10,UTC,7,1014.5,-,97,0.5,-1,10.3,9.9,11170,195,5.8,3.8
2022,10,14,12:20,UTC,7,1014.5,-,96,0,-1,10.3,9.7,11500,199,6.7,3.5
2022,10,14,12:30,UTC,7,1014.4,-,96,0,-1,10.3,9.7,13680,192,6.3,3.7
2022,10,14,12:40,UTC,7,1014.3,-,96,0,-1,10.4,9.8,15860,194,6.4,4.4
2022,10,14,12:50,UTC,7,1014.2,-,96,0.4,-1,10.5,9.9,11700,196,7.6,4
2022,10,14,13:00,UTC,7,1014.2,0.2,96,0.2,-1,10.5,9.8,13550,201,8.1,4.5
2022,10,14,13:10,UTC,7,1014.1,-,96,0,-1,10.4,9.7,12490,200,7.1,4.7
2022,10,14,13:20,UTC,7,1014.1,-,96,0.5,-1,10.2,9.7,11410,197,7.4,4.7
2022,10,14,13:30,UTC,7,1014,-,98,0.5,-1,10.1,9.8,9750,198,7.8,4.2
2022,10,14,13:40,UTC,7,1013.9,-,98,0.7,-1,10.1,9.8,8740,199,7.7,4.6
2022,10,14,13:50,UTC,7,1014,-,99,0.8,-1,10,9.8,7970,187,8.1,4.2
2022,10,14,14:00,UTC,7,1013.9,0.6,99,1,-1,9.9,9.7,7870,191,5.9,3.7
2022,10,14,14:10,UTC,8,1013.9,-,99,0.8,-1,9.8,9.7,7730,199,6,3.6
2022,10,14,14:20,UTC,7,1013.8,-,99,1.3,-1,9.8,9.7,7310,198,6,3.4
2022,10,14,14:30,UTC,7,1013.8,-,99,1,-1,9.8,9.7,7110,193,7.3,5.1
2022,10,14,14:40,UTC,8,1013.8,-,100,1,-1,9.8,9.8,6720,188,8.7,4.6
2022,10,14,14:50,UTC,8,1013.7,-,100,0.4,-1,9.8,9.8,5660,192,7.6,4.2
2022,10,14,15:00,UTC,8,1013.7,0.8,100,0.1,-1,9.8,9.8,7410,197,6.3,4
2022,10,14,15:10,UTC,8,1013.7,-,100,0.6,-1,9.8,9.8,8340,199,7.6,4.3
2022,10,14,15:20,UTC,8,1013.6,-,100,0,-1,9.8,9.8,7280,200,9.1,5.7
2022,10,14,15:30,UTC,7,1013.5,-,100,0,-1,9.8,9.8,5890,201,10.2,6.1
2022,10,14,15:40,UTC,7,1013.5,-,100,1.4,-1,9.8,9.8,5450,198,9.4,5.4
2022,10,14,15:50,UTC,7,1013.5,-,100,0.5,-1,9.9,9.9,10900,205,10.2,5.3
2022,10,14,16:00,UTC,7,1013.5,0.4,99,0,-1,10,9.8,14280,206,8.6,5.4
2022,10,14,16:10,UTC,7,1013.6,-,100,0,-1,9.9,9.9,10590,215,7.3,4.4
2022,10,14,16:20,UTC,7,1013.6,-,100,0,-1,10,9.9,10620,220,8.9,4.9
2022,10,14,16:30,UTC,7,1013.5,-,100,0,-1,9.9,9.9,11670,218,8.5,3.9
2022,10,14,16:40,UTC,7,1013.5,-,100,0,-1,10,9.9,11000,222,7.5,3.9
2022,10,14,16:50,UTC,7,1013.5,-,99,0,-1,10,9.9,13260,217,7.2,4
2022,10,14,17:00,UTC,7,1013.5,0,100,0,-1,10,9.9,12050,222,7.2,3.9
2022,10,14,17:10,UTC,7,1013.4,-,99,0,-1,10,9.9,12620,220,7.2,4.2
2022,10,14,17:20,UTC,7,1013.5,-,99,0,-1,10,9.8,9820,219,6.2,3.9
2022,10,14,17:30,UTC,7,1013.5,-,99,0,-1,9.9,9.8,5650,222,6.6,4.1
2022,10,14,17:40,UTC,7,1013.4,-,100,0.3,-1,9.9,9.9,7610,216,7.7,4.3
2022,10,14,17:50,UTC,7,1013.4,-,100,0.1,-1,9.9,9.9,10400,216,7,4.2
2022,10,14,18:00,UTC,7,1013.4,0.1,99,0,-1,9.9,9.8,12110,221,8,4.5
2022,10,14,18:10,UTC,7,1013.5,-,100,0,-1,9.9,9.8,11800,223,7.7,4.4
2022,10,14,18:20,UTC,7,1013.4,-,99,0,-1,9.9,9.7,12680,224,8.6,4.6
2022,10,14,18:30,UTC,7,1013.5,-,98,0,-1,9.9,9.7,13000,226,7.8,4.6
2022,10,14,18:40,UTC,7,1013.5,-,98,0,-1,10,9.7,13930,227,8.5,5.3
2022,10,14,18:50,UTC,7,1013.5,-,98,0,-1,9.9,9.6,12510,226,8.4,4.6
2022,10,14,19:00,UTC,7,1013.6,0,98,0,-1,10,9.7,12940,229,8.7,5
2022,10,14,19:10,UTC,8,1013.6,-,98,0,-1,10,9.7,11900,232,7.1,4.6
2022,10,14,19:20,UTC,7,1013.6,-,98,0,-1,9.8,9.4,11850,244,8.5,5.3
2022,10,14,19:30,UTC,7,1013.6,-,98,0,-1,9.8,9.5,12910,236,7.3,4.2
2022,10,14,19:40,UTC,7,1013.5,-,99,0,-1,9.8,9.6,11050,233,6.9,3.7
2022,10,14,19:50,UTC,7,1013.6,-,99,0,-1,9.9,9.7,10350,231,5.6,2.9
2022,10,14,20:00,UTC,7,1013.5,0,99,0,-1,9.9,9.8,10230,232,5.7,3
2022,10,14,20:10,UTC,8,1013.5,-,99,0,-1,9.9,9.8,9950,225,4.9,3.1
2022,10,14,20:20,UTC,8,1013.5,-,99,0,-1,9.9,9.8,9900,226,5.2,2.9
2022,10,14,20:30,UTC,7,1013.5,-,99,0,-1,9.9,9.8,9930,228,4.2,2.8
2022,10,14,20:40,UTC,8,1013.4,-,99,0,-1,9.9,9.8,9770,225,4.3,2
2022,10,14,20:50,UTC,7,1013.4,-,99,0,-1,10,9.9,10170,215,5.4,3.2
2022,10,14,21:00,UTC,7,1013.4,0,99,0,-1,10,9.8,10330,223,5.5,3.3
2022,10,14,21:10,UTC,8,1013.3,-,99,0,-1,10,9.8,10170,213,5.8,3.1
2022,10,14,21:20,UTC,8,1013.2,-,99,0,-1,10,9.8,9910,213,6.1,3.5
2022,10,14,21:30,UTC,7,1013.2,-,99,0,-1,10,9.9,8950,214,5.2,2.9
2022,10,14,21:40,UTC,8,1013.2,-,99,0,-1,10.1,10,9120,209,6.3,3.7
2022,10,14,21:50,UTC,7,1013.1,-,99,0,-1,10.1,10,6240,212,5.9,3.4
2022,10,14,22:00,UTC,8,1013.1,0,100,0,-1,10.1,10.1,6010,206,6.5,4
2022,10,14,22:10,UTC,8,1013.1,-,100,0,-1,10,10,4030,206,6.5,4
2022,10,14,22:20,UTC,8,1013.1,-,100,0.4,-1,10,10,3690,204,5.9,3.9
2022,10,14,22:30,UTC,7,1013.1,-,100,0.1,-1,10,10,3640,202,6,3.7
2022,10,14,22:40,UTC,7,1013,-,100,3,-1,10,10,2860,201,5.6,3.2
2022,10,14,22:50,UTC,7,1013,-,100,1.8,-1,10,10,4080,195,4.8,3.1
2022,10,14,23:00,UTC,8,1013,0.9,100,0,-1,10,10,4180,199,7.1,3.4
2022,10,14,23:10,UTC,8,1013,-,100,0,-1,10.1,10.1,4660,203,7.9,4.3
2022,10,14,23:20,UTC,7,1012.9,-,100,0,-1,10.2,10.2,5670,209,6.6,4
2022,10,14,23:30,UTC,7,1012.8,-,100,0,-1,10.2,10.2,5860,216,7.2,4.1
2022,10,14,23:40,UTC,8,1012.8,-,100,0,-1,10.3,10.3,7130,218,8.2,4.2
2022,10,14,23:50,UTC,7,1012.8,-,100,0,-1,10.3,10.3,7850,216,7.1,3.6
2022,10,15,00:00,UTC,7,1012.8,0,100,0,-1,10.4,10.4,8320,214,7.4,3.8
2022,10,15,00:10,UTC,8,1012.8,-,99,0,-1,10.4,10.3,7930,215,7.1,4
2022,10,15,00:20,UTC,7,1012.8,-,98,0,-1,10.4,10.2,7580,213,7.2,4.1
2022,10,15,00:30,UTC,7,1012.8,-,99,0,-1,10.4,10.2,7080,215,6.6,4.2
2022,10,15,00:40,UTC,8,1012.8,-,99,0,-1,10.4,10.2,8080,208,7,4.3
2022,10,15,00:50,UTC,7,1012.8,-,98,0,-1,10.4,10.1,9540,208,7,4.4
2022,10,15,01:00,UTC,7,1012.8,0,99,0,-1,10.3,10.2,8470,206,7.2,4.3
2022,10,15,01:10,UTC,8,1012.7,-,99,0,-1,10.4,10.3,8380,213,7.2,4.1
2022,10,15,01:20,UTC,7,1012.7,-,100,0,-1,10.3,10.3,7740,213,7.1,3.5
2022,10,15,01:30,UTC,7,1012.7,-,100,0,-1,10.4,10.4,7790,212,7.3,4.2
2022,10,15,01:40,UTC,8,1012.7,-,100,0,-1,10.4,10.3,7550,213,6.3,3.6
2022,10,15,01:50,UTC,8,1012.7,-,100,0,-1,10.4,10.3,7330,215,6.8,3.5
2022,10,15,02:00,UTC,8,1012.6,0,100,0,-1,10.4,10.3,7040,221,6.2,3.7
2022,10,15,02:10,UTC,8,1012.6,-,100,0,-1,10.3,10.3,6590,212,7.1,4
2022,10,15,02:20,UTC,8,1012.6,-,100,0,-1,10.4,10.4,7150,208,6.4,4
2022,10,15,02:30,UTC,7,1012.6,-,100,0,-1,10.3,10.3,7160,207,5.3,3.5
2022,10,15,02:40,UTC,7,1012.5,-,100,0,-1,10.4,10.3,6880,204,6.3,4.1
2022,10,15,02:50,UTC,8,1012.4,-,100,0,-1,10.3,10.3,6900,207,7.2,4.3
2022,10,15,03:00,UTC,8,1012.4,0,100,0,-1,10.3,10.3,5950,208,7.4,4.8
2022,10,15,03:10,UTC,7,1012.4,-,100,0,-1,10.3,10.3,6590,202,5.9,3.8
2022,10,15,03:20,UTC,8,1012.4,-,100,0,-1,10.3,10.3,7470,205,7.5,4.7
2022,10,15,03:30,UTC,7,1012.3,-,100,0,-1,10.3,10.3,7190,204,6.2,3.9
2022,10,15,03:40,UTC,7,1012.3,-,100,0,-1,10.3,10.3,7730,203,6.8,4.5
2022,10,15,03:50,UTC,8,1012.3,-,100,0,-1,10.3,10.3,6800,197,7.2,4.6
2022,10,15,04:00,UTC,8,1012.3,0.1,100,0.4,-1,10.3,10.3,5590,200,6.5,4.3
2022,10,15,04:10,UTC,8,1012.4,-,100,0.1,-1,10.2,10.2,5420,204,6.9,4.3
2022,10,15,04:20,UTC,8,1012.4,-,100,0,-1,10.2,10.2,5850,203,7,4.7
2022,10,15,04:30,UTC,7,1012.3,-,100,0,-1,10.2,10.2,6030,200,6.8,4.5
2022,10,15,04:40,UTC,7,1012.4,-,100,0,-1,10.1,10.1,5290,202,6.2,3.7
2022,10,15,04:50,UTC,7,1012.3,-,100,0.3,-1,10.1,10.1,4980,196,5.8,3.4
2022,10,15,05:00,UTC,8,1012.3,0.2,100,0.5,-1,10.1,10.1,4770,189,6.3,4.1
2022,10,15,05:10,UTC,8,1012.4,-,100,0,-1,10,10,5230,201,7.9,4.3
2022,10,15,05:20,UTC,8,1012.4,-,100,0,-1,10,10,6220,204,7.2,4.6
2022,10,15,05:30,UTC,7,1012.4,-,100,0,-1,10,10,6240,199,7.4,4.2
2022,10,15,05:40,UTC,7,1012.4,-,100,0,-1,10,10,6690,198,7.4,4.4
2022,10,15,05:50,UTC,7,1012.4,-,100,0,-1,10,10,7000,203,7.9,5.3
2022,10,15,06:00,UTC,7,1012.4,0,100,0,-1,10,9.9,6550,207,8.4,5
2022,10,15,06:10,UTC,7,1012.4,-,99,0,-1,10,9.9,6380,193,8,4.8
2022,10,15,06:20,UTC,8,1012.5,-,99,0,-1,9.9,9.8,5360,205,8,4.9
2022,10,15,06:30,UTC,7,1012.5,-,99,0,-1,9.8,9.7,4610,199,8.4,5.4
2022,10,15,06:40,UTC,7,1012.6,-,99,0,-1,9.7,9.6,4010,197,7.8,4.8
2022,10,15,06:50,UTC,8,1012.7,-,99,0,-1,9.7,9.6,3790,198,7.5,4.9
2022,10,15,07:00,UTC,8,1012.6,0,100,0,-1,9.6,9.6,3480,200,6.7,4.8
2022,10,15,07:10,UTC,8,1012.8,-,100,0,-1,9.6,9.6,3350,209,6.4,3.8
2022,10,15,07:20,UTC,8,1012.8,-,100,0,-1,9.5,9.5,3220,197,5.7,3.7
2022,10,15,07:30,UTC,7,1012.9,-,100,0,-1,9.4,9.3,3670,206,7.4,4.6
2022,10,15,07:40,UTC,7,1012.9,-,99,0,-1,9.3,9.2,3780,210,7.1,5.1
2022,10,15,07:50,UTC,8,1012.9,-,99,0,-1,9.4,9.3,3690,210,6.6,4.2
2022,10,15,08:00,UTC,8,1013,0,100,0,-1,9.3,9.3,2970,203,7.3,4.3
2022,10,15,08:10,UTC,8,1013,-,100,0,-1,9.4,9.4,2950,200,6.6,3.7
2022,10,15,08:20,UTC,8,1013,-,99,0,-1,9.3,9.2,3100,197,5.4,3.6
2022,10,15,08:30,UTC,7,1013.1,-,100,0,-1,9.3,9.3,3100,201,6.1,3.9
2022,10,15,08:40,UTC,7,1013.1,-,99,0,-1,9.5,9.4,3790,199,6.2,4
2022,10,15,08:50,UTC,7,1013.1,-,98,0,-1,9.7,9.4,5040,211,6,3.2
2022,10,15,09:00,UTC,8,1013,0,96,0,-1,10,9.4,5510,206,5.8,3.1
2022,10,15,09:10,UTC,7,1013,-,95,0,-1,10,9.3,6250,196,5.3,3.4
2022,10,15,09:20,UTC,7,1013,-,96,0,-1,9.9,9.2,5360,169,5.9,3.9
2022,10,15,09:30,UTC,7,1013,-,95,0,-1,9.9,9.2,5690,176,5.1,3.5
2022,10,15,09:40,UTC,7,1013.2,-,96,0,-1,9.7,9.2,5510,178,5.1,3
2022,10,15,09:50,UTC,8,1013.1,-,96,0,-1,9.7,9.1,6150,175,5.5,3.2
2022,10,15,10:00,UTC,8,1013.2,0,96,0,-1,9.6,9,5950,183,5.6,3.4
2022,10,15,10:10,UTC,8,1013.1,-,95,0,-1,9.8,9.1,6160,201,5.4,2.7
2022,10,15,10:20,UTC,8,1013.1,-,95,0,-1,9.8,9.1,6760,202,5.4,3.6
2022,10,15,10:30,UTC,7,1013.1,-,95,0,-1,9.8,9.1,6590,205,6.5,3.7
2022,10,15,10:40,UTC,7,1013.1,-,94,0,-1,9.8,8.9,6680,203,5.8,3.9
2022,10,15,10:50,UTC,8,1013.1,-,95,0,-1,9.8,9,6310,202,6.4,3.3
2022,10,15,11:00,UTC,8,1013.2,0,94,0,-1,9.8,8.9,6210,203,6.7,4.5
2022,10,15,11:10,UTC,8,1013.1,-,95,0,-1,9.9,9.1,6190,202,6.9,4.1
2022,10,15,11:20,UTC,8,1013.2,-,94,0,-1,10,9.2,6280,180,4.5,2.5
2022,10,15,11:30,UTC,8,1013.1,-,94,0,-1,10,9.1,6330,193,5.8,3.3
2022,10,15,11:40,UTC,7,1013.2,-,94,0,-1,9.9,9.1,6180,201,6.3,4
2022,10,15,11:50,UTC,8,1013.2,-,95,0,-1,9.8,9,6300,213,6.2,4.3
2022,10,15,12:00,UTC,8,1013.1,0,95,0,-1,9.9,9.1,6270,208,6.1,4.1
2022,10,15,12:10,UTC,8,1013.1,-,94,0,-1,9.9,9.1,6610,196,6,3.9
2022,10,15,12:20,UTC,8,1013.1,-,94,0,-1,10,9.1,6760,202,6.7,3.7
2022,10,15,12:30,UTC,8,1013,-,95,0,-1,9.9,9.1,6550,201,7.3,4.8
2022,10,15,12:40,UTC,7,1013,-,94,0,-1,9.9,9.1,6650,207,7.6,4
2022,10,15,12:50,UTC,8,1012.9,-,94,0,-1,10,9.1,6900,202,5.6,4.2
2022,10,15,13:00,UTC,8,1012.8,0,94,0,-1,10,9,6970,197,6.2,4.3
2022,10,15,13:10,UTC,8,1012.8,-,94,0,-1,10.1,9.2,7380,194,6.1,4
2022,10,15,13:20,UTC,7,1012.9,-,94,0,-1,10.3,9.4,7600,201,5.4,3
2022,10,15,13:30,UTC,7,1012.9,-,93,0,-1,10.4,9.4,8230,195,5.2,2.9
2022,10,15,13:40,UTC,7,1012.8,-,92,0,-1,10.4,9.2,8450,185,6.1,3.3
2022,10,15,13:50,UTC,7,1012.8,-,94,0,-1,10.3,9.4,8000,177,5,3.4
2022,10,15,14:00,UTC,8,1012.6,0,94,0,-1,10.4,9.4,7780,160,4.7,2.8
2022,10,15,14:10,UTC,8,1012.6,-,94,0,-1,10.4,9.4,8340,163,4.1,2.8
2022,10,15,14:20,UTC,8,1012.7,-,93,0,-1,10.5,9.4,8760,181,4.5,2.3
2022,10,15,14:30,UTC,8,1012.6,-,93,0,-1,10.5,9.5,9100,177,5,3.3
2022,10,15,14:40,UTC,7,1012.7,-,94,0,-1,10.5,9.5,9030,166,3.5,2.1
2022,10,15,14:50,UTC,7,1012.7,-,94,0,-1,10.5,9.5,9170,168,3.7,2.3
2022,10,15,15:00,UTC,7,1012.8,0,94,0,-1,10.5,9.5,9100,165,3.1,1.7
2022,10,15,15:10,UTC,7,1012.7,-,94,0,-1,10.5,9.6,8700,167,4.2,2.4
2022,10,15,15:20,UTC,7,1012.7,-,93,0,-1,10.6,9.6,8620,152,4.5,3
2022,10,15,15:30,UTC,8,1012.5,-,94,0,-1,10.5,9.6,8870,139,4.3,3.2
2022,10,15,15:40,UTC,7,1012.7,-,94,0,-1,10.5,9.6,8480,141,4.2,3
2022,10,15,15:50,UTC,7,1012.6,-,94,0,-1,10.5,9.6,8920,139,3.4,2.5
2022,10,15,16:00,UTC,7,1012.6,0,94,0,-1,10.5,9.7,9080,146,3.9,2.8
2022,10,15,16:10,UTC,7,1012.6,-,95,0,-1,10.5,9.7,9330,151,4.5,2.7
2022,10,15,16:20,UTC,7,1012.6,-,94,0,-1,10.7,9.7,10050,157,5.1,3.4
2022,10,15,16:30,UTC,8,1012.6,-,93,0,-1,10.7,9.7,10610,161,5.3,3.4
2022,10,15,16:40,UTC,7,1012.5,-,92,0,-1,10.9,9.7,10990,161,6.3,4
2022,10,15,16:50,UTC,7,1012.5,-,92,0,-1,10.9,9.7,10730,167,6,4.3
2022,10,15,17:00,UTC,7,1012.4,0,93,0,-1,10.8,9.7,10580,171,5.9,3.5
2022,10,15,17:10,UTC,7,1012.3,-,92,0,-1,10.9,9.7,12190,167,6.2,4.1
2022,10,15,17:20,UTC,8,1012.4,-,92,0,-1,10.9,9.5,12390,171,6.4,4
2022,10,15,17:30,UTC,7,1012.4,-,92,0,-1,10.7,9.4,13200,175,5,3.1
2022,10,15,17:40,UTC,5,1012.4,-,93,0,-1,10.5,9.4,13690,172,5.8,3.6
2022,10,15,17:50,UTC,5,1012.4,-,94,0,-1,10.3,9.3,12350,174,6.5,4.2
2022,10,15,18:00,UTC,5,1012.4,0,94,0,-1,10.3,9.5,12440,175,6.4,3.9
2022,10,15,18:10,UTC,5,1012.4,-,94,0,-1,10.6,9.6,13610,179,7.7,4.5
2022,10,15,18:20,UTC,7,1012.4,-,93,0,-1,10.7,9.6,13470,186,6.4,4
2022,10,15,18:30,UTC,7,1012.3,-,93,0,-1,10.7,9.6,13840,177,6.8,4.3
2022,10,15,18:40,UTC,7,1012.4,-,92,0,-1,10.8,9.6,14090,183,6.4,3.8
2022,10,15,18:50,UTC,7,1012.3,-,92,0,-1,10.8,9.5,14570,176,6.5,4.5
2022,10,15,19:00,UTC,7,1012.3,0,92,0,-1,10.8,9.5,15460,177,6.6,4.4
2022,10,15,19:10,UTC,7,1012.5,-,93,0,-1,10.7,9.6,13800,184,6,3.5
2022,10,15,19:20,UTC,7,1012.4,-,93,0,-1,10.8,9.6,13890,189,5.7,3.4
2022,10,15,19:30,UTC,7,1012.4,-,93,0,-1,10.7,9.7,13520,187,5.1,3.3
2022,10,15,19:40,UTC,7,1012.4,-,93,0,-1,10.7,9.7,13410,182,6.9,4
2022,10,15,19:50,UTC,8,1012.4,-,93,0,-1,10.8,9.7,13790,190,7,4.5
2022,10,15,20:00,UTC,7,1012.4,0,93,0,-1,10.9,9.8,13260,193,6.8,3.5
2022,10,15,20:10,UTC,7,1012.5,-,93,0,-1,11,9.9,12170,205,7,4.1
2022,10,15,20:20,UTC,7,1012.5,-,92,0,-1,11.1,9.9,11150,220,9.4,4.7
2022,10,15,20:30,UTC,7,1012.4,-,92,0,-1,11.2,9.9,10340,222,8.7,4.9
2022,10,15,20:40,UTC,7,1012.5,-,93,0,-1,11.1,10,9620,222,5.9,3.3
2022,10,15,20:50,UTC,7,1012.5,-,93,0,-1,11,10,9480,227,5.8,3.5
2022,10,15,21:00,UTC,7,1012.5,0,94,0,-1,11,10.1,9470,213,4.8,3
2022,10,15,21:10,UTC,7,1012.5,-,95,0,-1,11,10.2,9320,206,6.3,3.7
2022,10,15,21:20,UTC,8,1012.5,-,94,0,-1,11.1,10.2,9620,208,5.8,3.3
2022,10,15,21:30,UTC,7,1012.4,-,94,0,-1,11,10.2,9190,205,5,3
2022,10,15,21:40,UTC,7,1012.4,-,94,0,-1,11.1,10.1,9530,202,5.8,3.6
2022,10,15,21:50,UTC,7,1012.4,-,94,0,-1,11.2,10.2,9950,205,7,4.3
2022,10,15,22:00,UTC,7,1012.4,0,94,0,-1,11.2,10.2,9900,201,8.1,4.1
2022,10,15,22:10,UTC,7,1012.4,-,94,0,-1,11.1,10.1,9940,205,7.8,4.5
2022,10,15,22:20,UTC,7,1012.4,-,94,0,-1,11.1,10.1,10120,203,7.1,3.9
2022,10,15,22:30,UTC,8,1012.4,-,92,0,-1,11.2,10,10520,205,8,5.1
2022,10,15,22:40,UTC,7,1012.4,-,93,0,-1,11.1,9.9,10410,204,7.1,4.1
2022,10,15,22:50,UTC,7,1012.3,-,93,0,-1,11,9.9,10490,192,5.4,3.3
2022,10,15,23:00,UTC,8,1012.3,0,93,0,-1,10.9,9.8,10140,178,4.7,3.1
2022,10,15,23:10,UTC,7,1012.2,-,94,0,-1,10.7,9.8,9690,171,5.4,3.7
2022,10,15,23:20,UTC,8,1012.2,-,95,0,-1,10.6,9.8,9840,170,4.5,3
2022,10,15,23:30,UTC,7,1012.3,-,95,0,-1,10.6,9.9,10080,181,4.7,2.9
2022,10,15,23:40,UTC,7,1012.4,-,95,0,-1,10.6,9.9,9920,196,5.5,3
2022,10,15,23:50,UTC,7,1012.2,-,95,0,-1,10.7,9.8,9700,186,6,3
2022,10,16,00:00,UTC,7,1012.2,0,95,0,-1,10.6,9.8,9780,181,5.4,3
2022,10,16,00:10,UTC,7,1012,-,95,0,-1,10.6,9.9,9320,183,6.1,3
2022,10,16,00:20,UTC,7,1011.9,-,96,0,-1,10.5,9.8,9230,185,6.8,3.7
2022,10,16,00:30,UTC,7,1011.8,-,96,0,-1,10.5,9.8,9080,180,5.6,3.3
2022,10,16,00:40,UTC,7,1011.8,-,96,0,-1,10.4,9.8,8700,181,5.3,3.3
2022,10,16,00:50,UTC,7,1011.7,-,96,0,-1,10.3,9.7,8620,190,6.7,3.8
2022,10,16,01:00,UTC,8,1011.6,0,97,0,-1,10.3,9.8,8460,191,7.1,3.4
2022,10,16,01:10,UTC,8,1011.6,-,96,0,-1,10.4,9.8,8120,191,7.8,4.9
2022,10,16,01:20,UTC,7,1011.6,-,96,0,-1,10.4,9.9,7690,192,7.8,4.3
2022,10,16,01:30,UTC,7,1011.5,-,96,0,-1,10.4,9.9,7120,194,7.1,4.1
2022,10,16,01:40,UTC,7,1011.4,-,96,0,-1,10.5,9.9,6700,191,7.8,4.1
2022,10,16,01:50,UTC,7,1011.2,-,96,0,-1,10.5,10,6310,184,7.7,4.5
2022,10,16,02:00,UTC,8,1011.3,0,97,0,-1,10.5,9.9,6060,180,6,3.6
2022,10,16,02:10,UTC,7,1011.3,-,97,0,-1,10.5,10,6140,193,7.6,3.5
2022,10,16,02:20,UTC,7,1011.2,-,96,0,-1,10.6,10,6300,188,6.5,3.7
2022,10,16,02:30,UTC,7,1011.2,-,96,0,-1,10.5,9.9,6270,181,5.2,3.3
2022,10,16,02:40,UTC,7,1010.9,-,96,0,-1,10.5,9.9,6460,177,7.3,4.5
2022,10,16,02:50,UTC,7,1011,-,96,0,-1,10.5,9.8,7200,182,8.3,4.4
2022,10,16,03:00,UTC,8,1010.9,0,95,0,-1,10.5,9.7,8520,181,8,4.8
2022,10,16,03:10,UTC,8,1010.8,-,95,0,-1,10.5,9.7,9070,175,6.9,4.3
2022,10,16,03:20,UTC,7,1010.7,-,95,0,-1,10.4,9.7,9270,175,7.8,5
2022,10,16,03:30,UTC,7,1010.6,-,96,0,-1,10.4,9.7,8470,174,8.1,4.7
2022,10,16,03:40,UTC,7,1010.6,-,96,0.3,-1,10.3,9.7,7530,177,8.8,5.1
2022,10,16,03:50,UTC,7,1010.5,-,97,0.2,-1,10.2,9.8,6090,177,8,4.5
2022,10,16,04:00,UTC,8,1010.5,0.5,98,2.6,-1,10.1,9.9,4510,176,8.4,4.9
2022,10,16,04:10,UTC,8,1010.4,-,99,1.9,-1,10.2,9.9,4490,171,7.9,4.3
2022,10,16,04:20,UTC,8,1010.4,-,99,1.5,-1,10.1,10.1,4580,177,8.3,4.4
2022,10,16,04:30,UTC,8,1010.2,-,100,1.9,-1,10.1,10.1,3630,178,7.6,4.4
2022,10,16,04:40,UTC,7,1010.2,-,100,2,-1,10.2,10.2,3560,182,8.6,4.8
2022,10,16,04:50,UTC,7,1010.1,-,100,4,-1,10.2,10.2,2630,177,8.5,5
2022,10,16,05:00,UTC,7,1010,2.4,100,3.2,-1,10.1,10.1,3600,181,8.5,5.2
2022,10,16,05:10,UTC,7,1009.9,-,100,1.3,-1,10.1,10.1,3620,181,9.9,5.6
2022,10,16,05:20,UTC,7,1009.8,-,100,3,-1,10.1,10.1,3230,182,9.8,6.1
2022,10,16,05:30,UTC,7,1009.8,-,100,2,-1,10.1,10.1,2600,182,9.3,5.5
2022,10,16,05:40,UTC,7,1009.7,-,100,1.4,-1,10.1,10.1,2390,182,9.7,5.6
2022,10,16,05:50,UTC,7,1009.7,-,100,1,-1,10.2,10.2,2670,190,8.2,4.8
2022,10,16,06:00,UTC,7,1009.7,1.6,100,0.7,-1,10.2,10.2,2700,189,8,5.3
2022,10,16,06:10,UTC,7,1009.8,-,100,0.5,-1,10.4,10.4,3540,199,9,5.3
2022,10,16,06:20,UTC,8,1009.8,-,100,0.3,-1,10.6,10.6,5990,202,10.3,5.9
2022,10,16,06:30,UTC,7,1009.8,-,100,0,-1,10.7,10.7,6260,207,11.2,5.8
2022,10,16,06:40,UTC,7,1009.9,-,100,0,-1,10.8,10.8,6950,210,11.1,6.9
2022,10,16,06:50,UTC,7,1010,-,100,0,-1,10.8,10.8,5970,208,11,6.8
2022,10,16,07:00,UTC,7,1010,0.3,100,0.7,-1,10.9,10.9,5400,208,10.2,6.3
2022,10,16,07:10,UTC,8,1010,-,100,0,-1,10.9,10.9,6770,208,11.5,6.5
2022,10,16,07:20,UTC,8,1010,-,100,0.4,-1,11,11,4270,207,11.2,6.4
2022,10,16,07:30,UTC,8,1009.9,-,100,0.2,-1,11,11,4200,208,10.6,5.7
2022,10,16,07:40,UTC,8,1009.9,-,100,0,-1,11.1,11.1,5400,205,10.9,6.5
2022,10,16,07:50,UTC,7,1010,-,100,0.3,-1,11.2,11.2,5730,209,10.3,6.5
2022,10,16,08:00,UTC,8,1010.1,0.2,100,0,-1,11.3,11.3,5370,211,10.4,5.9
2022,10,16,08:10,UTC,8,1010,-,100,0,-1,11.3,11.3,4300,211,10.7,6.8
2022,10,16,08:20,UTC,8,1010,-,100,0,-1,11.4,11.4,3950,208,9.8,6.2
2022,10,16,08:30,UTC,8,1010.1,-,100,0,-1,11.4,11.4,3540,208,11.3,6.5
2022,10,16,08:40,UTC,8,1010.1,-,100,0.3,-1,11.4,11.4,2750,206,11.7,6.9
2022,10,16,08:50,UTC,7,1010.1,-,100,0,-1,11.3,11.3,2760,207,11.5,6.7
2022,10,16,09:00,UTC,8,1010.2,0.1,100,0.4,-1,11.4,11.4,2810,209,10.7,6.1
2022,10,16,09:10,UTC,8,1010.3,-,100,0.2,-1,11.6,11.6,3840,214,11.6,5.8
2022,10,16,09:20,UTC,8,1010.3,-,100,0,-1,11.7,11.7,4710,221,13.4,5.7
2022,10,16,09:30,UTC,7,1010.3,-,100,0,-1,11.7,11.7,4930,220,10.1,5.9
2022,10,16,09:40,UTC,7,1010.3,-,100,0,-1,11.7,11.7,4980,223,12.4,6.8
2022,10,16,09:50,UTC,7,1010.3,-,100,0,-1,11.9,11.9,5500,223,10.2,5.5
2022,10,16,10:00,UTC,7,1010.1,0,100,0,-1,11.9,11.9,4790,221,9.3,5.1
2022,10,16,10:10,UTC,7,1010,-,100,0,-1,12.1,12.1,5460,222,9.1,5.3
2022,10,16,10:20,UTC,7,1010,-,98,0,-1,12.3,12.1,6340,217,8.8,5.2
2022,10,16,10:30,UTC,7,1009.9,-,97,0,-1,12.3,11.9,6640,212,8.7,5.2
2022,10,16,10:40,UTC,7,1009.9,-,97,0,-1,12.2,11.8,6570,208,9.5,5.3
2022,10,16,10:50,UTC,7,1009.8,-,97,0,-1,12.2,11.7,6590,205,7.5,4.6
2022,10,16,11:00,UTC,7,1009.7,0,97,0,-1,12,11.6,6700,-,-,-
2022,10,16,11:10,UTC,8,1009.6,-,97,0,-1,11.9,11.5,6590,205,7.2,4.8
2022,10,16,11:20,UTC,7,1009.5,-,98,0,-1,12,11.7,6890,206,7.7,4.6
2022,10,16,11:30,UTC,7,1009.5,-,97,0,-1,11.9,11.5,6890,197,6.3,3.9
2022,10,16,11:40,UTC,7,1009.4,-,98,0,-1,12,11.6,6860,200,6.2,3.8
2022,10,16,11:50,UTC,7,1009.2,-,97,0,-1,12.1,11.7,7330,196,6.6,3.8
2022,10,16,12:00,UTC,7,1009.1,0,96,0,-1,12.3,11.7,8160,199,8.4,4.6
2022,10,16,12:10,UTC,7,1009,-,95,0,-1,12.1,11.4,7860,194,9.2,4.9
2022,10,16,12:20,UTC,8,1009,-,96,0,-1,12,11.3,7570,193,8.2,5
2022,10,16,12:30,UTC,8,1008.9,-,96,0,-1,12,11.3,7900,195,8.5,5
2022,10,16,12:40,UTC,7,1008.8,-,95,0,-1,12,11.3,7380,190,8.5,4.7
2022,10,16,12:50,UTC,7,1008.6,-,95,0,-1,12.1,11.3,8430,-,-,-
2022,10,16,13:00,UTC,8,1008.4,0,93,0,-1,12.4,11.2,9700,196,8.9,5.5
2022,10,16,13:10,UTC,8,1008.3,-,93,0,-1,12.4,11.4,7980,200,9.5,5.3
2022,10,16,13:20,UTC,8,1008.2,-,95,0.4,-1,12.3,11.6,6030,200,12.3,6.8
2022,10,16,13:30,UTC,8,1008.1,-,96,0.7,-1,12.3,11.8,5900,200,12.3,7.1
2022,10,16,13:40,UTC,8,1008,-,97,0.1,-1,12.2,11.7,5140,192,10.8,5.9
2022,10,16,13:50,UTC,7,1008,-,98,2.2,-1,12,11.7,3800,194,11.5,6.1
2022,10,16,14:00,UTC,7,1007.9,1,99,2.3,-1,12,11.9,3640,191,11.6,7.1
2022,10,16,14:10,UTC,8,1007.8,-,100,0.7,-1,11.8,11.7,2890,193,12.8,6.6
2022,10,16,14:20,UTC,8,1007.8,-,100,1.4,-1,11.8,11.8,2710,203,13.1,7.1
2022,10,16,14:30,UTC,8,1007.8,-,100,0,-1,11.8,11.8,2400,207,10.4,5.6
2022,10,16,14:40,UTC,7,1007.7,-,100,0.9,-1,12,12,2540,215,11.3,7.1
2022,10,16,14:50,UTC,7,1007.7,-,100,0.4,-1,12.2,12.2,2810,219,15.2,6.4
2022,10,16,15:00,UTC,7,1007.7,0.7,100,1,-1,12.3,12.3,4670,225,13.1,8
2022,10,16,15:10,UTC,7,1007.6,-,100,0.1,-1,12.2,12.2,5630,220,13,7.1
2022,10,16,15:20,UTC,7,1007.6,-,100,5.8,-1,12.1,12.1,2760,220,12.4,6.8
2022,10,16,15:30,UTC,7,1007.6,-,100,2.5,-1,12.1,12.1,3640,232,11.9,7
2022,10,16,15:40,UTC,7,1007.7,-,100,1.1,-1,11.9,11.9,4110,245,13.6,7.6
2022,10,16,15:50,UTC,7,1007.7,-,100,0.4,-1,11.8,11.8,5390,241,13.6,8.1
2022,10,16,16:00,UTC,7,1007.8,1.6,100,0,-1,11.8,11.8,5710,241,11.2,7.2
2022,10,16,16:10,UTC,7,1007.8,-,100,0,-1,11.8,11.8,5860,241,11.3,7
2022,10,16,16:20,UTC,7,1007.8,-,100,0,-1,11.8,11.8,6100,242,10.1,6.6
2022,10,16,16:30,UTC,7,1007.8,-,100,0,-1,11.8,11.8,5350,242,8.9,5.6
2022,10,16,16:40,UTC,8,1007.7,-,100,0,-1,11.8,11.8,5650,241,9.8,6.6
2022,10,16,16:50,UTC,7,1007.7,-,100,0,-1,11.9,11.9,6130,241,11.8,7.2
2022,10,16,17:00,UTC,7,1007.6,0,100,0,-1,11.8,11.7,6280,239,9.5,6.7
2022,10,16,17:10,UTC,7,1007.5,-,100,0,-1,11.7,11.7,6010,232,9.2,4.9
2022,10,16,17:20,UTC,7,1007.5,-,99,0,-1,11.7,11.6,7280,235,11.8,6
2022,10,16,17:30,UTC,7,1007.4,-,99,0,-1,11.7,11.5,7910,233,10.2,5.8
2022,10,16,17:40,UTC,8,1007.4,-,99,0,-1,11.7,11.5,7360,227,10.8,6.5
2022,10,16,17:50,UTC,7,1007.3,-,99,0,-1,11.7,11.5,7470,231,11,6.4
2022,10,16,18:00,UTC,7,1007.1,0,99,0,-1,11.7,11.5,6970,228,12.7,6.4
2022,10,16,18:10,UTC,7,1007.2,-,99,0,-1,11.6,11.4,7320,231,10,6.3
2022,10,16,18:20,UTC,7,1007.1,-,98,0,-1,11.7,11.4,8250,227,11.4,7.2
2022,10,16,18:30,UTC,7,1006.9,-,97,0,-1,11.7,11.2,9910,230,12.4,6.5
2022,10,16,18:40,UTC,8,1006.6,-,95,0,-1,11.9,11.1,12640,227,11,7.4
2022,10,16,18:50,UTC,7,1006.3,-,95,0,-1,11.8,11,13130,223,11.4,6
2022,10,16,19:00,UTC,7,1006.4,0,93,0,-1,11.8,10.8,16400,225,11,7.2
2022,10,16,19:10,UTC,7,1006.1,-,93,0,-1,11.8,10.7,18700,227,13,8
2022,10,16,19:20,UTC,7,1006,-,95,0,-1,11.7,10.8,16830,228,11.2,7.3
2022,10,16,19:30,UTC,7,1005.9,-,94,0,-1,11.8,10.9,16450,229,11.7,7.3
2022,10,16,19:40,UTC,8,1005.7,-,94,0,-1,11.9,10.9,17380,229,12.2,7.8
2022,10,16,19:50,UTC,7,1005.7,-,93,0,-1,11.8,10.8,16670,230,14.8,8.2
2022,10,16,20:00,UTC,7,1005.4,0,93,0,-1,11.7,10.6,16500,225,14.6,8.8
2022,10,16,20:10,UTC,7,1005,-,93,0,-1,11.7,10.6,16770,218,12.5,7.1
2022,10,16,20:20,UTC,7,1004.8,-,94,0,-1,11.6,10.7,15600,214,11.5,7.2
2022,10,16,20:30,UTC,8,1004.4,-,94,0,-1,11.8,10.8,15700,214,12.6,6.3
2022,10,16,20:40,UTC,7,1004.3,-,94,0,-1,11.7,10.7,11890,204,11.6,7
2022,10,16,20:50,UTC,7,1005,-,91,8.3,-1,10.3,8.8,3340,250,22.5,11.2
2022,10,16,21:00,UTC,7,1004.8,1.6,90,1.5,-1,9.4,7.8,9430,275,19.1,10.7
2022,10,16,21:10,UTC,7,1004.4,-,91,0.7,-1,9.1,7.7,50000,278,11.1,6.7
2022,10,16,21:20,UTC,7,1004.7,-,89,0,-1,9.1,7.5,50000,259,10,6.3
2022,10,16,21:30,UTC,7,1004.8,-,88,0,-1,9,7.1,50000,255,10.5,6.1
2022,10,16,21:40,UTC,7,1005.2,-,88,0,-1,9,7,50000,252,12.4,6.8
2022,10,16,21:50,UTC,7,1005.4,-,87,0,-1,9,6.9,50000,246,13.4,7.5
2022,10,16,22:00,UTC,7,1005.4,0.1,86,0,-1,9.4,7.1,50000,240,12.8,7.7
2022,10,16,22:10,UTC,7,1005.3,-,87,0,-1,9.5,7.5,45300,245,13.6,9.4
2022,10,16,22:20,UTC,7,1005.3,-,89,0,-1,9.6,7.9,33230,240,13.6,8.4
2022,10,16,22:30,UTC,7,1005.4,-,88,0,-1,10,8.1,29770,246,13.8,9.7
2022,10,16,22:40,UTC,7,1005.4,-,88,0,-1,10.1,8.2,41630,248,14.4,10.2
2022,10,16,22:50,UTC,7,1005.5,-,87,0,-1,10.2,8.1,38850,252,16.4,10.2
2022,10,16,23:00,UTC,5,1005.5,0,87,0,-1,9.9,7.8,42040,256,14.5,9.5
2022,10,16,23:10,UTC,1,1005.4,-,86,0,-1,10,7.7,44720,257,17,10.7
2022,10,16,23:20,UTC,1,1005.4,-,85,0,-1,10.1,7.7,39340,257,15.5,9.6
2022,10,16,23:30,UTC,3,1005.4,-,86,0,-1,10.3,8,35680,252,13.3,7.3
2022,10,16,23:40,UTC,5,1005.3,-,86,0,-1,10.3,8.1,39240,255,14.7,8.2
2022,10,16,23:50,UTC,5,1005.3,-,87,0,-1,10.2,8,35110,253,13,8.2
2022,10,17,00:00,UTC,5,1005.2,0,85,0,-1,10.4,7.9,33380,254,13,8.2
2022,10,17,00:10,UTC,7,1005.1,-,84,0,-1,10.3,7.7,33070,254,14.9,8.8
2022,10,17,00:20,UTC,5,1004.9,-,84,0,-1,10,7.4,29370,253,11.6,7.5
2022,10,17,00:30,UTC,3,1005,-,83,0,-1,9.9,7.1,27030,253,12.5,8.9
2022,10,17,00:40,UTC,1,1005,-,82,0,-1,10,7.1,27780,251,12.6,7.8
2022,10,17,00:50,UTC,3,1005.1,-,83,0,-1,10.1,7.3,27990,249,16,9.8
2022,10,17,01:00,UTC,5,1005.1,0,82,0,-1,10.4,7.4,25570,249,13.1,9.3
2022,10,17,01:10,UTC,7,1005,-,82,0,-1,10.4,7.4,24690,251,13.4,8.4
2022,10,17,01:20,UTC,7,1005,-,84,0,-1,10.3,7.7,24030,249,13.7,8.8
2022,10,17,01:30,UTC,7,1005,-,81,0,-1,10.3,7.2,28770,253,14.6,9.1
2022,10,17,01:40,UTC,5,1004.9,-,80,0,-1,10.4,7,30710,251,14,8.6
2022,10,17,01:50,UTC,7,1004.7,-,81,0,-1,10.4,7.2,32740,248,12.9,7.8
2022,10,17,02:00,UTC,7,1004.7,0,81,0,-1,10.2,7.2,29600,253,12.6,7.7
2022,10,17,02:10,UTC,7,1004.7,-,79,0,-1,10.3,6.9,35260,255,14.1,8.5
2022,10,17,02:20,UTC,7,1004.8,-,78,0,-1,10.3,6.6,35410,264,14.3,8.4
2022,10,17,02:30,UTC,7,1004.9,-,77,0,-1,10.4,6.5,41570,269,14.3,8.9
2022,10,17,02:40,UTC,7,1004.9,-,76,0,-1,10.4,6.4,43950,263,14.5,8.3
2022,10,17,02:50,UTC,7,1005,-,76,0,-1,10.3,6.3,44860,262,13.1,7.2
2022,10,17,03:00,UTC,7,1005,0,76,0,-1,10.3,6.2,43890,265,16.2,10.7
2022,10,17,03:10,UTC,7,1005.1,-,83,0.8,-1,9.6,6.9,12980,267,15.6,7.4
2022,10,17,03:20,UTC,8,1005,-,80,0.1,-1,9.8,6.5,18240,266,17.2,9.8
2022,10,17,03:30,UTC,8,1005.1,-,81,0.3,-1,9.7,6.5,18780,268,15.1,8.4
2022,10,17,03:40,UTC,8,1005.2,-,83,0.4,-1,9.4,6.7,13390,268,16.2,9.5
2022,10,17,03:50,UTC,8,1005.3,-,86,0.7,-1,9.1,6.9,11800,268,12.8,7.8
2022,10,17,04:00,UTC,7,1005.4,0.5,88,0.8,-1,9,7.1,12460,267,13.7,7.8
2022,10,17,04:10,UTC,7,1005.5,-,88,0.5,-1,9.1,7.2,12930,270,13,8
2022,10,17,04:20,UTC,7,1005.7,-,89,0,-1,9,7.3,14450,269,13.9,8.7
2022,10,17,04:30,UTC,7,1005.8,-,89,0.6,-1,9,7.3,15270,271,12.5,7.8
2022,10,17,04:40,UTC,7,1006,-,89,0.2,-1,9.1,7.3,17860,273,13.6,8.6
2022,10,17,04:50,UTC,8,1006.3,-,88,0,-1,9.2,7.2,15880,273,14.6,8.8
2022,10,17,05:00,UTC,7,1006.6,0.3,90,0.3,-1,9,7.5,12240,276,15.2,8.7
2022,10,17,05:10,UTC,7,1007,-,91,0.1,-1,8.9,7.6,13520,277,13.8,8.1
2022,10,17,05:20,UTC,7,1007.5,-,92,0,-1,8.9,7.6,15100,282,15.3,9.1
2022,10,17,05:30,UTC,8,1007.8,-,93,0.9,-1,8.8,7.7,9920,282,12.9,8.9
2022,10,17,05:40,UTC,8,1008.1,-,95,1.7,-1,8.6,7.9,8970,282,12.5,8.2
2022,10,17,05:50,UTC,8,1008.4,-,95,1.6,-1,8.6,7.9,12360,282,12.2,8
2022,10,17,06:00,UTC,7,1008.7,0.8,95,0.8,-1,8.5,7.8,20950,279,10.3,7.3
2022,10,17,06:10,UTC,5,1009,-,96,0,-1,8.4,7.8,40160,277,9.7,6.3
2022,10,17,06:20,UTC,5,1009.3,-,95,0,-1,8.4,7.7,50000,279,12.2,7.1
2022,10,17,06:30,UTC,5,1009.5,-,94,0,-1,8.6,7.8,50000,277,12.8,7.3
2022,10,17,06:40,UTC,3,1009.9,-,94,0,-1,8.7,7.8,50000,279,11.7,7.7
2022,10,17,06:50,UTC,3,1010.2,-,93,0,-1,9.1,8,50000,278,12.6,8.2
2022,10,17,07:00,UTC,5,1010.4,0,93,0,-1,9,7.9,50000,279,13,8.3
2022,10,17,07:10,UTC,7,1010.8,-,92,0,-1,9.5,8.2,48240,278,11.8,7.6
2022,10,17,07:20,UTC,7,1011.1,-,90,0,-1,9.4,7.9,50000,280,11.1,7.9
2022,10,17,07:30,UTC,8,1011.3,-,92,0,-1,9.4,8.2,50000,278,11.5,7.2
2022,10,17,07:40,UTC,7,1011.4,-,91,0,-1,9.6,8.2,3920,280,12.8,8.5
2022,10,17,07:50,UTC,7,1011.6,-,89,0,-1,9.8,8.2,50000,279,11.3,8
2022,10,17,08:00,UTC,7,1011.8,0,90,0,-1,9.9,8.4,48130,280,11.3,7.7
2022,10,17,08:10,UTC,7,1012,-,90,0,-1,10,8.4,44240,276,11.9,8.2
2022,10,17,08:20,UTC,7,1012.2,-,89,0,-1,10.2,8.5,48400,277,11.5,7.6
2022,10,17,08:30,UTC,8,1012.5,-,89,0,-1,10.2,8.5,45680,280,13.8,8.9
2022,10,17,08:40,UTC,8,1012.6,-,88,0,-1,10.3,8.4,47540,279,10.9,7.7
2022,10,17,08:50,UTC,7,1012.8,-,85,0,-1,10.3,7.9,42060,279,11.8,8.1
2022,10,17,09:00,UTC,7,1013.1,0,86,0,-1,10.3,8,47850,279,11.6,7.8
2022,10,17,09:10,UTC,8,1013.3,-,86,0,-1,10.2,8,42200,276,10.8,8.1
2022,10,17,09:20,UTC,8,1013.5,-,85,0,-1,10.3,7.8,47380,279,12.3,7.8
2022,10,17,09:30,UTC,8,1013.8,-,85,0,-1,10,7.6,21840,278,14.3,8.4
2022,10,17,09:40,UTC,8,1014,-,84,0,-1,10.1,7.6,41330,277,12.4,7.5
2022,10,17,09:50,UTC,8,1014.2,-,84,0,-1,10.1,7.5,24010,282,12.7,7.4
2022,10,17,10:00,UTC,7,1014.4,0,87,0,-1,9.9,7.8,15670,280,13,9
2022,10,17,10:10,UTC,8,1014.5,-,87,0,-1,9.9,7.8,21370,283,10,6.9
2022,10,17,10:20,UTC,7,1014.6,-,85,0,-1,10.2,7.7,44910,281,12.2,8.1
2022,10,17,10:30,UTC,7,1014.6,-,83,0,-1,10.5,7.8,43130,283,11.3,7.5
2022,10,17,10:40,UTC,7,1014.6,-,81,0,-1,10.5,7.5,50000,286,10.4,7.2
2022,10,17,10:50,UTC,8,1014.8,-,80,0,-1,10.6,7.3,49540,283,11.8,8
2022,10,17,11:00,UTC,7,1014.9,0,80,0,-1,10.7,7.3,50000,279,13,8.6
2022,10,17,11:10,UTC,7,1015.2,-,78,0,-1,10.7,7,50000,284,11.9,8.1
2022,10,17,11:20,UTC,8,1015.3,-,78,0,-1,10.6,6.9,50000,279,11.5,8.1
2022,10,17,11:30,UTC,8,1015.5,-,77,0,-1,10.6,6.8,50000,284,10.8,7.6
2022,10,17,11:40,UTC,8,1015.6,-,76,0,-1,10.6,6.5,50000,281,10.6,7.2
2022,10,17,11:50,UTC,8,1015.6,-,76,0,-1,10.6,6.6,50000,280,10.7,7.6
2022,10,17,12:00,UTC,7,1015.9,0,76,0,-1,10.6,6.5,50000,284,10.6,6.6
2022,10,17,12:10,UTC,8,1015.9,-,77,0,-1,10.7,6.8,50000,280,11.4,6.7
2022,10,17,12:20,UTC,7,1016.1,-,76,0,-1,10.7,6.6,48620,284,9.8,6.7
2022,10,17,12:30,UTC,7,1016.1,-,76,0,-1,10.7,6.7,50000,279,11,6.7
2022,10,17,12:40,UTC,8,1016.1,-,75,0,-1,10.7,6.5,50000,280,12.5,7.3
2022,10,17,12:50,UTC,7,1016.3,-,77,0,-1,10.6,6.7,50000,279,10.9,7.3
2022,10,17,13:00,UTC,7,1016.2,0,74,0,-1,10.8,6.3,50000,277,10.1,6.7
2022,10,17,13:10,UTC,5,1016.2,-,74,0,-1,10.8,6.3,50000,278,13.2,7.6
2022,10,17,13:20,UTC,5,1016.3,-,75,0,-1,10.9,6.6,50000,281,11.8,6.8
2022,10,17,13:30,UTC,5,1016.4,-,75,0,-1,10.7,6.5,50000,286,11.5,6.5
2022,10,17,13:40,UTC,7,1016.5,-,75,0,-1,10.7,6.5,50000,293,9.4,4.8
2022,10,17,13:50,UTC,7,1016.6,-,75,0,-1,10.7,6.4,50000,289,10.4,5.8
2022,10,17,14:00,UTC,7,1016.7,0,76,0,-1,10.6,6.5,50000,288,7.8,4.4
2022,10,17,14:10,UTC,8,1016.7,-,76,0,-1,10.5,6.4,50000,283,9.2,5.7
2022,10,17,14:20,UTC,7,1016.7,-,77,0,-1,10.3,6.5,50000,282,8.2,5
2022,10,17,14:30,UTC,3,1016.8,-,79,0,-1,9.9,6.5,50000,273,6,3.6
2022,10,17,14:40,UTC,3,1017,-,79,0,-1,9.8,6.4,50000,278,7.6,5.1
2022,10,17,14:50,UTC,1,1017.1,-,81,0,-1,9.4,6.4,50000,271,8.3,5.2
2022,10,17,15:00,UTC,1,1017.2,0,81,0,-1,9.6,6.4,50000,271,9.8,6.6
2022,10,17,15:10,UTC,1,1017.3,-,80,0,-1,9.6,6.4,50000,267,8.6,5.7
2022,10,17,15:20,UTC,3,1017.5,-,81,0,-1,9.4,6.4,50000,270,8.4,6
2022,10,17,15:30,UTC,5,1017.6,-,82,0,-1,9.3,6.3,50000,269,8.1,5.2
2022,10,17,15:40,UTC,7,1017.6,-,83,0,-1,8.9,6.2,50000,266,8.1,5.3
2022,10,17,15:50,UTC,3,1017.7,-,84,0,-1,8.7,6.2,50000,267,8,5.5
2022,10,17,16:00,UTC,1,1017.7,0,85,0,-1,8.7,6.3,50000,269,7.9,5.6
2022,10,17,16:10,UTC,0,1017.7,-,85,0,-1,8.7,6.3,50000,269,7.9,5.3
2022,10,17,16:20,UTC,3,1017.7,-,86,0,-1,8.7,6.4,50000,269,8.4,5.1
2022,10,17,16:30,UTC,5,1017.8,-,85,0,-1,8.8,6.4,50000,270,7.9,5.7
2022,10,17,16:40,UTC,7,1017.7,-,86,0,-1,8.8,6.6,50000,273,8.5,5.6
2022,10,17,16:50,UTC,7,1017.8,-,86,0,-1,8.8,6.5,50000,270,9.9,5.8
2022,10,17,17:00,UTC,7,1017.9,0,86,0,-1,8.9,6.6,50000,273,10.4,6.2
2022,10,17,17:10,UTC,7,1017.9,-,86,0,-1,9,6.7,50000,272,8.5,6.3
2022,10,17,17:20,UTC,7,1017.8,-,86,0,-1,8.9,6.7,50000,276,9.7,7
2022,10,17,17:30,UTC,7,1017.8,-,86,0,-1,8.9,6.7,50000,274,10.6,7.1
2022,10,17,17:40,UTC,7,1017.7,-,87,0,-1,8.9,6.8,50000,274,8.6,5.8
2022,10,17,17:50,UTC,7,1017.7,-,87,0,-1,8.9,6.8,50000,274,9.4,6.7
2022,10,17,18:00,UTC,7,1018,0,87,0,-1,8.8,6.7,50000,272,8.5,6.1
2022,10,17,18:10,UTC,7,1017.9,-,88,0,-1,8.7,6.8,50000,272,8.7,5.3
2022,10,17,18:20,UTC,7,1017.8,-,88,0,-1,8.7,6.9,50000,273,8.5,5.6
2022,10,17,18:30,UTC,8,1017.7,-,88,0,-1,8.8,6.9,50000,277,8.9,6
2022,10,17,18:40,UTC,7,1017.7,-,88,0,-1,8.8,6.9,50000,280,10.1,6.1
2022,10,17,18:50,UTC,7,1017.6,-,89,0,-1,8.6,6.9,50000,276,9.1,5.9
2022,10,17,19:00,UTC,7,1017.6,0,89,0,-1,8.5,6.8,50000,278,8.8,5.8
2022,10,17,19:10,UTC,7,1017.6,-,90,0,-1,8.4,6.8,50000,273,7.3,4.4
2022,10,17,19:20,UTC,7,1017.4,-,90,0,-1,8.4,6.9,50000,271,6.5,4.5
2022,10,17,19:30,UTC,7,1017.3,-,90,0,-1,8.5,7,50000,278,6.7,4.6
2022,10,17,19:40,UTC,7,1017.3,-,91,0,-1,8.2,6.8,50000,276,6.4,4.4
2022,10,17,19:50,UTC,7,1017.2,-,92,0,-1,8.3,7,50000,263,5.7,3.5
2022,10,17,20:00,UTC,7,1017.1,0,92,0,-1,8.3,7,50000,255,5.9,3.2
2022,10,17,20:10,UTC,7,1017,-,93,0,-1,8.3,7.2,50000,249,6.1,4.3
2022,10,17,20:20,UTC,8,1016.9,-,92,0,-1,8.3,7.1,50000,251,5.7,3.8
2022,10,17,20:30,UTC,7,1016.7,-,93,0,-1,8.3,7.1,50000,246,5.7,3.3
2022,10,17,20:40,UTC,7,1016.6,-,93,0,-1,8.3,7.2,50000,255,5.5,3.5
2022,10,17,20:50,UTC,7,1016.6,-,93,0,-1,8.1,7.1,50000,251,5,3.3
2022,10,17,21:00,UTC,7,1016.5,0,94,0,-1,8.2,7.3,50000,245,5.3,3.3
2022,10,17,21:10,UTC,7,1016.4,-,95,0,-1,8.1,7.4,45440,245,5.6,3.5
2022,10,17,21:20,UTC,7,1016.4,-,96,0,-1,8,7.4,45400,247,5.6,3.1
2022,10,17,21:30,UTC,7,1016.3,-,96,0,-1,8,7.5,41550,245,5,3.2
2022,10,17,21:40,UTC,7,1016.2,-,97,0,-1,8,7.6,42860,245,5.4,3.5
2022,10,17,21:50,UTC,7,1016.3,-,97,0,-1,8.2,7.8,33920,245,5.4,3.6
2022,10,17,22:00,UTC,7,1016.2,0,98,0,-1,8.3,8,30770,252,5.9,3.7
2022,10,17,22:10,UTC,7,1016,-,98,0,-1,8.5,8.2,24120,254,5.9,4.1
2022,10,17,22:20,UTC,7,1015.6,-,99,0,-1,8.6,8.4,22060,267,6.3,4.2
2022,10,17,22:30,UTC,7,1015.5,-,98,0,-1,8.6,8.3,20870,267,6.3,4.4
2022,10,17,22:40,UTC,7,1015.4,-,98,0,-1,8.6,8.3,21180,269,7.1,4.4
2022,10,17,22:50,UTC,8,1015.4,-,98,0,-1,8.7,8.4,21530,258,6.9,4.4
2022,10,17,23:00,UTC,7,1015.2,0,97,0,-1,8.8,8.4,20090,253,7.6,5.5
2022,10,17,23:10,UTC,7,1015,-,97,0,-1,8.8,8.4,19690,255,6.8,4.8
2022,10,17,23:20,UTC,8,1014.8,-,97,0,-1,8.9,8.5,17660,254,6.7,4.6
2022,10,17,23:30,UTC,8,1014.7,-,98,0,-1,8.9,8.5,18200,249,5.8,3.7
2022,10,17,23:40,UTC,7,1014.6,-,97,0,-1,8.9,8.6,18000,257,7.2,5
2022,10,17,23:50,UTC,8,1014.5,-,97,0,-1,9.1,8.6,19000,260,6.8,4.8
2022,10,18,00:00,UTC,7,1014.3,0,97,0,-1,9.1,8.7,17090,255,6,3.7
2022,10,18,00:10,UTC,7,1014.1,-,97,0,-1,9.2,8.7,17090,253,7.2,4.7
2022,10,18,00:20,UTC,7,1013.9,-,97,0,-1,9.1,8.6,17340,254,6.9,4.3
2022,10,18,00:30,UTC,7,1013.9,-,94,0,-1,9.3,8.3,22710,257,9.6,6.3
2022,10,18,00:40,UTC,8,1013.6,-,90,0,-1,9.3,7.8,32360,258,9.1,5.6
2022,10,18,00:50,UTC,8,1013.6,-,88,0,-1,9.2,7.4,40380,260,8.4,5.6
2022,10,18,01:00,UTC,8,1013.4,0,87,0,-1,9.1,7.2,42160,257,7.7,5.2
2022,10,18,01:10,UTC,7,1013.2,-,88,0,-1,9,7.1,39770,254,7.1,5
2022,10,18,01:20,UTC,8,1013.1,-,88,0,-1,8.9,7.1,35260,251,8,5.5
2022,10,18,01:30,UTC,8,1013.1,-,90,0,-1,8.8,7.2,26310,251,7.3,5
2022,10,18,01:40,UTC,8,1012.8,-,92,0,-1,8.6,7.4,25640,241,6.4,4.1
2022,10,18,01:50,UTC,8,1012.8,-,94,0.4,-1,8.3,7.5,22910,256,5.8,3.6
2022,10,18,02:00,UTC,8,1012.7,0.1,95,0.3,-1,8.3,7.6,23690,252,6.8,4.4
2022,10,18,02:10,UTC,7,1012.3,-,96,0.4,-1,8.2,7.5,25610,244,6.1,3.2
2022,10,18,02:20,UTC,8,1012.3,-,97,0,-1,8.1,7.6,30220,257,5,2.9
2022,10,18,02:30,UTC,8,1012.4,-,98,0,-1,8,7.7,30720,264,5.6,3.6
2022,10,18,02:40,UTC,8,1012.3,-,98,0,-1,8.1,7.7,23580,256,6,3.7
2022,10,18,02:50,UTC,7,1012.1,-,98,0,-1,8,7.7,28320,255,5.7,3.5
2022,10,18,03:00,UTC,8,1012,0.1,98,0.3,-1,8,7.7,34610,248,4.4,3.1
2022,10,18,03:10,UTC,7,1012.1,-,99,0.1,-1,8,7.8,29600,258,5.9,3.6
2022,10,18,03:20,UTC,8,1011.8,-,99,0,-1,7.9,7.7,27180,263,5.4,3.1
2022,10,18,03:30,UTC,8,1011.7,-,99,0.9,-1,8,7.8,12670,266,6.7,3.8
2022,10,18,03:40,UTC,8,1011.7,-,100,1.6,-1,7.9,7.8,13840,270,6.9,3.7
2022,10,18,03:50,UTC,8,1011.7,-,100,2.4,-1,7.9,7.9,6970,272,4.8,2.9
2022,10,18,04:00,UTC,8,1011.5,1.2,100,2.2,-1,7.8,7.8,13090,265,5.4,3.3
2022,10,18,04:10,UTC,7,1011.5,-,100,0.4,-1,7.8,7.8,18180,275,3.9,2.6
2022,10,18,04:20,UTC,8,1011.4,-,100,0.3,-1,7.8,7.8,15670,275,5.1,3.2
2022,10,18,04:30,UTC,8,1011.6,-,100,0.3,-1,7.8,7.8,22180,284,5.3,3.8
2022,10,18,04:40,UTC,8,1011.4,-,100,0,-1,7.8,7.7,42860,280,5.6,3.7
2022,10,18,04:50,UTC,8,1011.5,-,100,0,-1,7.8,7.8,37550,268,6.3,3.9
2022,10,18,05:00,UTC,8,1011.6,0.2,99,0.4,-1,7.8,7.7,34510,277,6.1,4
2022,10,18,05:10,UTC,7,1011.7,-,100,0.8,-1,7.7,7.7,16550,292,6.3,4.3
2022,10,18,05:20,UTC,8,1011.7,-,100,0.3,-1,7.8,7.7,12960,289,7.3,4.3
2022,10,18,05:30,UTC,8,1011.7,-,100,0.8,-1,7.7,7.7,11270,287,5.8,4.5
2022,10,18,05:40,UTC,8,1011.7,-,100,1.5,-1,7.7,7.7,11540,286,5.3,3.9
2022,10,18,05:50,UTC,7,1011.7,-,100,1,-1,7.7,7.7,17130,294,5.8,3.8
2022,10,18,06:00,UTC,7,1011.6,0.8,100,0.2,-1,7.7,7.7,20970,298,5.5,3.1
2022,10,18,06:10,UTC,7,1011.6,-,100,0.6,-1,7.8,7.8,15820,300,5.5,3.2
2022,10,18,06:20,UTC,7,1011.6,-,100,0.2,-1,7.8,7.8,20760,299,5.9,3.6
2022,10,18,06:30,UTC,7,1011.7,-,98,0.3,-1,7.8,7.6,20320,299,7.4,4.2
2022,10,18,06:40,UTC,8,1011.6,-,97,0.2,-1,7.7,7.3,36590,298,6.3,3.5
2022,10,18,06:50,UTC,8,1011.7,-,97,0.4,-1,7.8,7.4,46160,294,5,3.5
2022,10,18,07:00,UTC,7,1011.7,0.3,97,0.2,-1,8,7.5,34290,293,5.4,3.2
2022,10,18,07:10,UTC,7,1011.7,-,97,0,-1,8.1,7.7,38290,-,-,-
2022,10,18,07:20,UTC,8,1011.7,-,96,0,-1,8.2,7.7,50000,298,6.1,3.4
2022,10,18,07:30,UTC,8,1011.7,-,96,0,-1,8.2,7.5,50000,301,5.8,3.9
2022,10,18,07:40,UTC,7,1011.7,-,94,0,-1,8.2,7.3,50000,302,6.2,4.1
2022,10,18,07:50,UTC,8,1011.8,-,94,0,-1,8.3,7.4,50000,298,5.7,3.5
2022,10,18,08:00,UTC,7,1011.8,0,94,0,-1,8.2,7.3,50000,294,5.8,3.7
2022,10,18,08:10,UTC,7,1011.9,-,93,0,-1,8.2,7.2,50000,288,6.3,3.8
2022,10,18,08:20,UTC,7,1011.8,-,94,0,-1,8.3,7.3,50000,285,6.3,4.1
2022,10,18,08:30,UTC,8,1011.9,-,94,0,-1,8.3,7.3,50000,286,6.4,4.5
2022,10,18,08:40,UTC,8,1012,-,94,0,-1,8.3,7.5,50000,286,5.7,3.5
2022,10,18,08:50,UTC,7,1012.1,-,95,0,-1,8.5,7.7,50000,280,6.1,3.8
2022,10,18,09:00,UTC,7,1012,0,92,0,-1,8.5,7.3,34310,279,7.6,4.2
2022,10,18,09:10,UTC,7,1012,-,93,0,-1,8.7,7.7,50000,279,5.7,3.9
2022,10,18,09:20,UTC,7,1011.9,-,91,0,-1,8.6,7.3,50000,283,6.4,4.2
2022,10,18,09:30,UTC,7,1011.9,-,92,0,-1,8.8,7.6,50000,279,6.2,3.8
2022,10,18,09:40,UTC,7,1011.9,-,91,0,-1,8.9,7.6,50000,279,6.2,4.1
2022,10,18,09:50,UTC,7,1011.9,-,90,0,-1,9.1,7.5,50000,279,7.3,4.5
2022,10,18,10:00,UTC,7,1011.9,0,89,0,-1,9.3,7.5,50000,279,8.1,4.3
2022,10,18,10:10,UTC,7,1011.8,-,89,0,-1,9.1,7.4,47030,281,7.8,4.7
2022,10,18,10:20,UTC,7,1011.8,-,90,0,-1,8.9,7.4,27590,276,7.3,5
2022,10,18,10:30,UTC,7,1011.8,-,92,0,-1,8.9,7.7,28720,275,7.3,4.6
2022,10,18,10:40,UTC,7,1011.7,-,89,0,-1,9.4,7.6,50000,277,8.7,5.1
2022,10,18,10:50,UTC,7,1011.6,-,83,0,-1,9.7,7.1,50000,276,8.3,5.1
2022,10,18,11:00,UTC,7,1011.6,0,86,0,-1,9.6,7.2,37550,285,8.8,5.5
2022,10,18,11:10,UTC,7,1011.6,-,84,0,-1,9.8,7.2,50000,289,8.1,5.3
2022,10,18,11:20,UTC,7,1011.7,-,81,-,-1,9.8,6.7,50000,291,9.3,6.1
2022,10,18,11:30,UTC,7,1011.7,-,81,-,-1,9.9,6.8,48460,282,8.9,6.5
2022,10,18,11:40,UTC,7,1011.7,-,80,0,-1,9.9,6.6,50000,283,10.5,6.9
2022,10,18,11:50,UTC,7,1011.6,-,81,0,-1,9.8,6.7,50000,285,9.4,6.4
2022,10,18,12:00,UTC,7,1011.5,-,82,0,-1,9.8,6.8,47630,285,8.6,5.9
2022,10,18,12:10,UTC,7,1011.5,-,89,1.3,-1,9.4,7.7,8930,297,8.3,5
2022,10,18,12:20,UTC,7,1011.4,-,88,0.2,-1,9.6,7.7,50000,307,5.6,3.5
2022,10,18,12:30,UTC,7,1011.4,-,88,0,-1,9.5,7.6,50000,295,7.1,4.2
2022,10,18,12:40,UTC,7,1011.4,-,85,0,-1,9.7,7.3,50000,290,5.8,3.6
2022,10,18,12:50,UTC,7,1011.4,-,84,0,-1,9.6,7,50000,293,6.9,4.4
2022,10,18,13:00,UTC,7,1011.3,0.3,82,0,-1,9.6,6.8,50000,281,8,5.5
2022,10,18,13:10,UTC,7,1011.3,-,82,0,-1,9.9,6.9,50000,288,9.1,6.1
2022,10,18,13:20,UTC,7,1011.3,-,83,0,-1,9.9,7.1,30690,299,8,4.2
2022,10,18,13:30,UTC,5,1011.2,-,83,0,-1,9.6,6.8,50000,294,7.6,4.8
2022,10,18,13:40,UTC,3,1011.1,-,82,0,-1,9.8,6.8,50000,290,8.3,5.7
2022,10,18,13:50,UTC,5,1011.1,-,81,0,-1,9.9,6.8,50000,287,6.9,4.9
2022,10,18,14:00,UTC,3,1011.1,0,81,0,-1,9.7,6.6,50000,283,7.7,5.3
2022,10,18,14:10,UTC,5,1011.2,-,84,0,-1,9.6,7,50000,275,7.5,5.3
2022,10,18,14:20,UTC,5,1011.3,-,88,0,-1,9.2,7.3,13020,274,9.2,5.5
2022,10,18,14:30,UTC,7,1011.3,-,92,2.7,-1,8.7,7.4,16210,282,9.1,5.3
2022,10,18,14:40,UTC,7,1011.2,-,94,0,-1,8.5,7.6,50000,287,6.9,4.4
2022,10,18,14:50,UTC,7,1011.2,-,93,0,-1,8.5,7.5,50000,287,6.5,4.1
2022,10,18,15:00,UTC,7,1011.2,0.5,93,0,-1,8.5,7.4,50000,286,6.7,4.3
2022,10,18,15:10,UTC,7,1011.2,-,93,0,-1,8.3,7.3,40540,286,5.9,3.8
2022,10,18,15:20,UTC,7,1011.4,-,93,0,-1,8.6,7.5,50000,301,6.1,4.2
2022,10,18,15:30,UTC,8,1011.5,-,87,1.5,-1,8.4,6.4,12400,336,8.7,5
2022,10,18,15:40,UTC,7,1011.6,-,90,1.5,-1,7.7,6.2,12710,315,10.2,6
2022,10,18,15:50,UTC,8,1011.5,-,93,3.5,-1,7,5.9,5570,310,10.3,5.6
2022,10,18,16:00,UTC,7,1011.4,1.5,96,2.5,-1,6.7,6.1,40370,308,5.1,3.2
2022,10,18,16:10,UTC,7,1011.4,-,97,0,-1,6.6,6.2,50000,296,5.1,3.4
2022,10,18,16:20,UTC,7,1011.4,-,98,0,-1,6.7,6.3,50000,291,6.1,4
2022,10,18,16:30,UTC,7,1011.3,-,96,0,-1,6.7,6.1,50000,296,6.6,4
2022,10,18,16:40,UTC,7,1011.3,-,95,0,-1,6.6,5.9,50000,299,6.6,4.1
2022,10,18,16:50,UTC,7,1011.3,-,95,0,-1,6.7,6,50000,300,7.2,4.5
2022,10,18,17:00,UTC,7,1011.3,0,94,0,-1,6.8,5.9,50000,297,7.3,4.3
2022,10,18,17:10,UTC,7,1011.4,-,95,0,-1,6.6,5.9,50000,303,6.8,3.9
2022,10,18,17:20,UTC,7,1011.4,-,96,0,-1,6.6,6,50000,304,6.1,3.2
2022,10,18,17:30,UTC,8,1011.5,-,97,0,-1,6.7,6.2,50000,312,5.4,3.3
2022,10,18,17:40,UTC,8,1011.4,-,95,0,-1,6.8,6.1,50000,314,6.4,3.5
2022,10,18,17:50,UTC,7,1011.4,-,95,0,-1,6.7,6,50000,305,6.5,3.5
2022,10,18,18:00,UTC,7,1011.4,0,96,0,-1,6.5,5.9,50000,310,6,3.6
2022,10,18,18:10,UTC,7,1011.4,-,96,0,-1,6.4,5.7,50000,317,6.2,3.7
2022,10,18,18:20,UTC,7,1011.4,-,96,0,-1,6.3,5.7,50000,322,5.9,3.8
2022,10,18,18:30,UTC,7,1011.4,-,97,0,-1,6.1,5.7,50000,324,4.8,3.1
2022,10,18,18:40,UTC,7,1011.4,-,97,0,-1,6,5.6,50000,323,5.9,3.3
2022,10,18,18:50,UTC,7,1011.3,-,97,0,-1,6,5.5,50000,331,5.9,3.2
2022,10,18,19:00,UTC,7,1011.3,0,97,0,-1,5.9,5.4,50000,333,5.6,3.5
2022,10,18,19:10,UTC,7,1011.3,-,96,0,-1,5.9,5.3,50000,334,6.1,3.8
2022,10,18,19:20,UTC,7,1011.4,-,95,0,-1,5.9,5.2,50000,341,6.8,4
2022,10,18,19:30,UTC,7,1011.4,-,94,0,-1,5.8,5,50000,342,6.9,4
2022,10,18,19:40,UTC,7,1011.4,-,93,0,-1,5.8,4.8,50000,342,7.3,4.3
2022,10,18,19:50,UTC,7,1011.5,-,93,0,-1,5.7,4.8,50000,347,7.1,4.1
2022,10,18,20:00,UTC,8,1011.5,0,93,0,-1,5.6,4.6,50000,350,8.3,4.4
2022,10,18,20:10,UTC,7,1011.6,-,94,0,-1,5.5,4.5,50000,349,7.2,4.3
2022,10,18,20:20,UTC,7,1011.6,-,94,0,-1,5.5,4.6,50000,349,6.8,4.3
2022,10,18,20:30,UTC,7,1011.6,-,93,0,-1,5.4,4.4,50000,346,7.8,4.6
2022,10,18,20:40,UTC,7,1011.7,-,93,0,-1,5.3,4.3,50000,353,6.2,3.8
2022,10,18,20:50,UTC,7,1011.7,-,93,0,-1,5.2,4.2,50000,352,7.3,4
2022,10,18,21:00,UTC,7,1011.7,0,94,0,-1,5.1,4.1,50000,359,6.6,3.7
2022,10,18,21:10,UTC,5,1011.7,-,91,0,-1,5.1,3.8,50000,4,7.1,3.3
2022,10,18,21:20,UTC,3,1011.8,-,91,0,-1,4.8,3.4,50000,1,6.1,3.3
2022,10,18,21:30,UTC,1,1011.8,-,88,0,-1,4.5,2.7,50000,360,5.6,3.6
2022,10,18,21:40,UTC,1,1011.8,-,87,0,-1,4.3,2.3,50000,2,6.9,4.1
2022,10,18,21:50,UTC,3,1011.9,-,86,0,-1,4.2,2,50000,360,9.1,4.3
2022,10,18,22:00,UTC,3,1011.9,0,84,0,-1,4.1,1.7,50000,7,7.5,4.6
2022,10,18,22:10,UTC,1,1012,-,84,0,-1,3.9,1.4,50000,4,8.2,4.8
2022,10,18,22:20,UTC,1,1012,-,84,0,-1,3.8,1.3,50000,6,6.7,4.4
2022,10,18,22:30,UTC,1,1012,-,86,0,-1,3.5,1.4,50000,354,7.3,4.2
2022,10,18,22:40,UTC,5,1012,-,87,0,-1,3.4,1.4,50000,351,6,3.7
2022,10,18,22:50,UTC,7,1012,-,87,0,-1,3.4,1.4,50000,351,6.7,3.9
2022,10,18,23:00,UTC,7,1012.1,0,87,0,-1,3.4,1.5,50000,347,6.6,4
2022,10,18,23:10,UTC,7,1012.1,-,88,0,-1,3.3,1.5,50000,351,8.3,4.5
2022,10,18,23:20,UTC,7,1012.2,-,89,0,-1,3.2,1.5,50000,353,7.2,3.8
2022,10,18,23:30,UTC,5,1012.2,-,89,0,-1,3.1,1.4,50000,1,7.6,4.4
2022,10,18,23:40,UTC,3,1012.3,-,89,0,-1,3,1.4,50000,354,7.8,4.3
2022,10,18,23:50,UTC,1,1012.2,-,89,0,-1,2.9,1.3,50000,-,-,-
2022,10,19,00:00,UTC,0,1012.3,0,90,0,-1,2.7,1.2,50000,350,7.1,3.5
2022,10,19,00:10,UTC,0,1012.4,-,90,0,-1,2.6,1.2,50000,344,7.8,4.5
2022,10,19,00:20,UTC,0,1012.5,-,91,0,-1,2.5,1.2,50000,341,7.3,3.7
2022,10,19,00:30,UTC,0,1012.7,-,91,0,-1,2.3,1.1,50000,341,6.1,4
2022,10,19,00:40,UTC,0,1012.8,-,92,0,-1,2.3,1.1,50000,340,6.6,4.1
2022,10,19,00:50,UTC,0,1012.9,-,93,0,-1,2.2,1.1,50000,341,6.1,4
2022,10,19,01:00,UTC,0,1012.9,0,92,0,-1,2.1,1,50000,345,6.6,3.8
2022,10,19,01:10,UTC,0,1012.9,-,93,0,-1,2,1,50000,345,6.4,3.5
2022,10,19,01:20,UTC,0,1012.9,-,93,0,-1,2,1,50000,345,6.6,3.8
2022,10,19,01:30,UTC,0,1013,-,92,0,-1,2.2,1,50000,345,6.8,4.1
2022,10,19,01:40,UTC,0,1013.1,-,92,0,-1,2.2,1,50000,349,7.1,4.2
2022,10,19,01:50,UTC,0,1013.1,-,92,0,-1,2.1,0.9,50000,338,8.1,4.5
2022,10,19,02:00,UTC,0,1013.1,0,92,0,-1,2,0.9,50000,340,8.5,4.6
2022,10,19,02:10,UTC,0,1013.2,-,93,0,-1,1.9,0.8,50000,341,7.5,4.7
2022,10,19,02:20,UTC,0,1013.2,-,93,0,-1,1.8,0.8,50000,338,7.9,4.5
2022,10,19,02:30,UTC,0,1013.2,-,94,0,-1,1.8,1,50000,337,7.6,4.7
2022,10,19,02:40,UTC,0,1013.3,-,93,0,-1,1.9,0.8,50000,341,7.9,3.7
2022,10,19,02:50,UTC,0,1013.4,-,93,0,-1,1.7,0.7,50000,338,7.1,4.6
2022,10,19,03:00,UTC,0,1013.4,0,94,0,-1,1.7,0.8,50000,336,7.8,4.8
2022,10,19,03:10,UTC,0,1013.5,-,93,0,-1,1.7,0.7,50000,336,9.6,4.8
2022,10,19,03:20,UTC,0,1013.6,-,93,0,-1,1.7,0.7,50000,336,7.2,4.5
2022,10,19,03:30,UTC,0,1013.7,-,93,0,-1,1.6,0.6,50000,338,7.5,4.5
2022,10,19,03:40,UTC,0,1013.7,-,94,0,-1,1.6,0.6,50000,338,7.9,4.7
2022,10,19,03:50,UTC,0,1013.8,-,93,0,-1,1.6,0.5,50000,341,7.8,4.6
2022,10,19,04:00,UTC,0,1014,0,93,0,-1,1.6,0.6,50000,343,6.6,3.5
2022,10,19,04:10,UTC,0,1014,-,93,0,-1,1.7,0.6,50000,343,9.9,4.4
2022,10,19,04:20,UTC,1,1014.1,-,92,0,-1,1.7,0.6,50000,346,9.1,3.8
2022,10,19,04:30,UTC,0,1014.2,-,92,0,-1,1.5,0.4,50000,353,7.9,5
2022,10,19,04:40,UTC,0,1014.3,-,92,0,-1,1.5,0.4,50000,352,9.3,5
2022,10,19,04:50,UTC,0,1014.3,-,92,0,-1,1.5,0.4,50000,350,8.4,4.2
2022,10,19,05:00,UTC,0,1014.4,0,92,0,-1,1.5,0.3,50000,350,7.6,4
2022,10,19,05:10,UTC,0,1014.5,-,92,0,-1,1.4,0.2,50000,-,-,-
2022,10,19,05:20,UTC,0,1014.6,-,93,0,-1,1.3,0.2,50000,348,8.3,4.2
2022,10,19,05:30,UTC,0,1014.6,-,92,0,-1,1.4,0.2,50000,356,7.4,4.5
2022,10,19,05:40,UTC,0,1014.8,-,93,0,-1,1.3,0.3,50000,352,7.3,4
2022,10,19,05:50,UTC,0,1014.9,-,92,0,-1,1.5,0.3,50000,351,6.9,3.6
2022,10,19,06:00,UTC,0,1015,0,91,0,-1,1.6,0.3,50000,357,8.9,4.5
2022,10,19,06:10,UTC,0,1015.2,-,90,0,-1,1.7,0.3,50000,359,9.1,5.1
2022,10,19,06:20,UTC,0,1015.3,-,89,0,-1,1.9,0.3,50000,1,8.8,4.5
2022,10,19,06:30,UTC,0,1015.3,-,87,0,-1,2.3,0.3,50000,-,-,-
2022,10,19,06:40,UTC,0,1015.4,-,84,0,-1,2.6,0.3,50000,8,8,4.8
2022,10,19,06:50,UTC,0,1015.6,-,83,0,-1,2.9,0.3,50000,2,7.6,4.1
2022,10,19,07:00,UTC,0,1015.8,0,81,0,-1,3.1,0.1,50000,9,11.5,5.8
2022,10,19,07:10,UTC,0,1016,-,79,0,-1,3.5,0.2,50000,8,9.9,5
2022,10,19,07:20,UTC,0,1016,-,79,0,-1,3.6,0.3,50000,1,8.2,4.7
2022,10,19,07:30,UTC,0,1016.1,-,79,0,-1,3.8,0.5,50000,358,8.4,4.1
2022,10,19,07:40,UTC,0,1016.2,-,79,0,-1,4,0.6,50000,3,8.1,4.5
2022,10,19,07:50,UTC,0,1016.2,-,78,0,-1,4.1,0.6,50000,360,8.1,3.9
2022,10,19,08:00,UTC,0,1016.3,0,77,0,-1,4.3,0.6,50000,6,9.5,4.9
2022,10,19,08:10,UTC,0,1016.4,-,78,0,-1,4.5,0.9,50000,1,9.7,5
2022,10,19,08:20,UTC,1,1016.4,-,77,0,-1,4.7,1,49150,5,8.7,4.3
2022,10,19,08:30,UTC,1,1016.4,-,76,0,-1,5,1,50000,3,8.1,4
2022,10,19,08:40,UTC,1,1016.4,-,75,0,-1,5,0.9,49860,5,9,4.9
2022,10,19,08:50,UTC,1,1016.5,-,74,0,-1,5,0.7,42390,10,10,5.3
2022,10,19,09:00,UTC,0,1016.5,0,74,0,-1,5.2,0.9,48400,9,10.8,5.4
2022,10,19,09:10,UTC,0,1016.6,-,74,0,-1,5.4,1,50000,-,-,-
2022,10,19,09:20,UTC,1,1016.7,-,72,0,-1,5.6,0.9,50000,-,-,-
2022,10,19,09:30,UTC,1,1016.7,-,70,0,-1,5.7,0.6,48900,3,11.2,5.6
2022,10,19,09:40,UTC,1,1016.9,-,71,0,-1,5.8,1,50000,5,11,5.4
2022,10,19,09:50,UTC,5,1017,-,71,0,-1,5.7,0.8,50000,359,8.2,5.2
2022,10,19,10:00,UTC,5,1017,0,70,0,-1,5.8,0.8,50000,-,-,-
2022,10,19,10:10,UTC,3,1017.1,-,70,0,-1,6,1,50000,-,-,-
2022,10,19,10:20,UTC,3,1017.1,-,67,0,-1,6.3,0.7,50000,9,11.2,5.3
2022,10,19,10:30,UTC,3,1017.1,-,70,0,-1,6,1,50000,-,-,-
2022,10,19,10:40,UTC,5,1017.2,-,69,0,-1,5.9,0.7,50000,5,11.1,6.3
2022,10,19,10:50,UTC,3,1017.2,-,67,0,-1,6.3,0.7,50000,-,-,-
2022,10,19,11:00,UTC,5,1017.3,0,67,0,-1,6.4,0.8,50000,-,-,-
2022,10,19,11:10,UTC,1,1017.3,-,65,0,-1,6.7,0.6,50000,-,-,-
2022,10,19,11:20,UTC,1,1017.3,-,67,0,-1,6.4,0.6,50000,-,-,-
2022,10,19,11:30,UTC,1,1017.3,-,66,0,-1,6.6,0.6,50000,9,13,6
2022,10,19,11:40,UTC,3,1017.4,-,64,0,-1,6.6,0.2,50000,-,-,-
2022,10,19,11:50,UTC,5,1017.3,-,67,0,-1,6.8,1,50000,-,-,-
2022,10,19,12:00,UTC,5,1017.3,0,64,0,-1,7,0.8,50000,360,9,5.6
2022,10,19,12:10,UTC,3,1017.2,-,66,-,-1,6.6,0.7,50000,23,10,5.2
2022,10,19,12:20,UTC,1,1017.2,-,66,0,-1,6.6,0.7,50000,-,-,-
2022,10,19,12:30,UTC,1,1017.3,-,66,0,-1,6.8,0.8,50000,8,9.3,4.8
2022,10,19,12:40,UTC,1,1017.3,-,64,0,-1,6.8,0.5,50000,16,9.9,4.8
2022,10,19,12:50,UTC,3,1017.3,-,66,0,-1,6.8,0.8,50000,10,9.7,4.4
2022,10,19,13:00,UTC,3,1017.4,-,64,0,-1,7.2,0.9,50000,2,8.5,4.2
2022,10,19,13:10,UTC,1,1017.4,-,67,0,-1,6.9,1.2,50000,340,7.8,5
2022,10,19,13:20,UTC,1,1017.4,-,66,0,-1,6.9,1,50000,349,8.5,4.8
2022,10,19,13:30,UTC,1,1017.4,-,67,0,-1,6.8,1.1,50000,354,8.1,3.9
2022,10,19,13:40,UTC,1,1017.5,-,68,0,-1,6.6,1.1,50000,355,7.8,3.5
2022,10,19,13:50,UTC,1,1017.5,-,68,0,-1,6.4,0.9,50000,341,7.5,4.7
2022,10,19,14:00,UTC,3,1017.5,0,69,0,-1,6.3,1,50000,351,7.1,4
2022,10,19,14:10,UTC,5,1017.6,-,69,0,-1,6.2,1,50000,336,6.9,4.2
2022,10,19,14:20,UTC,7,1017.7,-,70,0,-1,6,1,50000,339,7.1,3.7
2022,10,19,14:30,UTC,3,1017.8,-,72,0,-1,5.8,1.1,50000,337,7.4,4.4
2022,10,19,14:40,UTC,1,1017.9,-,72,0,-1,5.5,1,50000,341,5.8,3.2
2022,10,19,14:50,UTC,1,1017.9,-,75,0,-1,5.1,1.1,50000,336,5.5,3.2
2022,10,19,15:00,UTC,0,1018,0,76,0,-1,4.9,1,50000,331,5.2,3
2022,10,19,15:10,UTC,0,1018.1,-,79,0,-1,4.3,1.1,50000,321,4.7,3.1
2022,10,19,15:20,UTC,1,1018.1,-,81,0,-1,4,1.1,50000,317,4.3,2.9
2022,10,19,15:30,UTC,1,1018.3,-,81,0,-1,4.1,1.2,50000,316,5.8,3.9
2022,10,19,15:40,UTC,1,1018.3,-,82,0,-1,3.8,1.1,50000,317,5.4,3.7
2022,10,19,15:50,UTC,0,1018.3,-,84,0,-1,3.5,1.1,50000,311,5,3.7
2022,10,19,16:00,UTC,0,1018.3,0,84,0,-1,3.5,1,50000,309,5.6,3.8
2022,10,19,16:10,UTC,3,1018.3,-,82,0,-1,3.9,1.1,50000,311,6.2,4.3
2022,10,19,16:20,UTC,5,1018.4,-,81,0,-1,4,1,50000,311,5.4,3.8
2022,10,19,16:30,UTC,5,1018.4,-,82,0,-1,3.6,0.8,50000,311,5.6,3.4
2022,10,19,16:40,UTC,3,1018.4,-,82,0,-1,3.4,0.7,50000,306,5,3.4
2022,10,19,16:50,UTC,1,1018.4,-,83,0,-1,3.1,0.6,50000,300,5.2,3.6
2022,10,19,17:00,UTC,1,1018.4,0,83,0,-1,3.1,0.5,50000,304,5.3,3.7
2022,10,19,17:10,UTC,1,1018.4,-,84,0,-1,2.9,0.5,50000,298,4.9,3.5
2022,10,19,17:20,UTC,1,1018.5,-,85,0,-1,2.8,0.5,50000,298,5.3,3.8
2022,10,19,17:30,UTC,1,1018.4,-,84,0,-1,2.8,0.4,50000,296,5.3,3.8
2022,10,19,17:40,UTC,1,1018.4,-,86,0,-1,2.6,0.5,50000,296,6.1,4.1
2022,10,19,17:50,UTC,0,1018.5,-,86,0,-1,2.6,0.5,50000,300,5.7,3.9
2022,10,19,18:00,UTC,0,1018.6,0,88,0,-1,2.4,0.5,50000,299,5.9,3.9
2022,10,19,18:10,UTC,0,1018.7,-,89,0,-1,2.2,0.6,50000,294,5.8,4.1
2022,10,19,18:20,UTC,0,1018.6,-,88,0,-1,2.2,0.5,50000,292,6.2,4.1
2022,10,19,18:30,UTC,0,1018.5,-,88,0,-1,2.2,0.4,50000,294,6.2,4.4
2022,10,19,18:40,UTC,0,1018.5,-,87,0,-1,2.4,0.5,50000,293,6.4,4.5
2022,10,19,18:50,UTC,0,1018.6,-,86,0,-1,2.7,0.5,50000,292,6.7,4.9
2022,10,19,19:00,UTC,0,1018.6,0,88,0,-1,2.3,0.5,50000,295,6.2,4.3
2022,10,19,19:10,UTC,0,1018.5,-,88,0,-1,2.1,0.4,50000,293,6,4.3
2022,10,19,19:20,UTC,0,1018.6,-,89,0,-1,2.2,0.5,50000,291,6.6,4.6
2022,10,19,19:30,UTC,0,1018.5,-,88,0,-1,2.3,0.6,50000,287,6.6,5.1
2022,10,19,19:40,UTC,0,1018.5,-,89,0,-1,2.3,0.6,50000,288,6.7,5.3
2022,10,19,19:50,UTC,0,1018.4,-,88,0,-1,2.5,0.7,50000,288,6.2,4.9
2022,10,19,20:00,UTC,0,1018.4,0,88,0,-1,2.4,0.7,50000,288,6.2,5
2022,10,19,20:10,UTC,0,1018.3,-,89,0,-1,2.4,0.8,50000,286,6.3,4.8
2022,10,19,20:20,UTC,0,1018.2,-,90,0,-1,2.4,0.9,50000,285,6.4,5.1
2022,10,19,20:30,UTC,0,1018.2,-,90,0,-1,2.5,1,50000,287,6.1,4.8
2022,10,19,20:40,UTC,0,1018.2,-,91,0,-1,2.3,0.9,50000,286,6.4,4.9
2022,10,19,20:50,UTC,0,1018.1,-,92,0,-1,2.3,1.1,50000,290,6.8,5.2
2022,10,19,21:00,UTC,0,1018.2,0,93,0,-1,2.4,1.3,50000,290,6.7,5
2022,10,19,21:10,UTC,0,1018.1,-,92,0,-1,2.4,1.3,50000,290,6.1,4.8
2022,10,19,21:20,UTC,0,1018,-,92,0,-1,2.4,1.2,50000,288,7.1,5.2
2022,10,19,21:30,UTC,0,1017.9,-,93,0,-1,2.4,1.3,50000,290,6.8,5.1
2022,10,19,21:40,UTC,1,1017.9,-,93,0,-1,2.4,1.4,50000,294,6,4.3
2022,10,19,21:50,UTC,3,1017.8,-,94,0,-1,2.5,1.6,50000,288,6.7,4.8
2022,10,19,22:00,UTC,3,1017.8,0,94,0,-1,2.4,1.5,50000,288,6,4.7
2022,10,19,22:10,UTC,1,1017.7,-,93,0,-1,2.3,1.3,50000,290,6.4,4.8
2022,10,19,22:20,UTC,1,1017.7,-,94,0,-1,2.5,1.6,50000,288,6.8,5
2022,10,19,22:30,UTC,0,1017.6,-,93,0,-1,2.7,1.7,50000,290,7.1,5.1
2022,10,19,22:40,UTC,1,1017.6,-,92,0,-1,3.1,2,50000,287,7.6,5.1
2022,10,19,22:50,UTC,0,1017.6,-,92,0,-1,3,1.9,50000,286,7.2,4.9
2022,10,19,23:00,UTC,0,1017.6,0,93,0,-1,2.7,1.8,50000,288,7.6,5.5
2022,10,19,23:10,UTC,0,1017.6,-,94,0,-1,2.7,1.8,50000,289,8.1,5.8
2022,10,19,23:20,UTC,0,1017.6,-,94,0,-1,2.6,1.8,50000,292,8.3,5.4
2022,10,19,23:30,UTC,0,1017.6,-,95,0,-1,2.5,1.7,50000,292,7,5.1
2022,10,19,23:40,UTC,0,1017.6,-,96,0,-1,2.5,1.9,50000,294,6.7,4.5
2022,10,19,23:50,UTC,0,1017.6,-,95,0,-1,2.2,1.6,50000,291,7.2,5
2022,10,20,00:00,UTC,0,1017.6,0,96,0,-1,2.2,1.7,50000,291,6.7,4.9
2022,10,20,00:10,UTC,0,1017.5,-,97,0,-1,2.3,1.9,50000,293,6.6,4.9
2022,10,20,00:20,UTC,0,1017.5,-,97,0,-1,2.4,2,50000,295,6.9,4.7
2022,10,20,00:30,UTC,0,1017.4,-,98,0,-1,2.5,2.2,50000,293,7.1,5.1
2022,10,20,00:40,UTC,0,1017.4,-,98,0,-1,2.8,2.5,50000,291,7.7,5.4
2022,10,20,00:50,UTC,0,1017.5,-,97,0,-1,2.7,2.4,50000,290,7.1,5.5
2022,10,20,01:00,UTC,0,1017.4,0,97,0,-1,2.9,2.4,50000,289,7.1,5.5
2022,10,20,01:10,UTC,0,1017.5,-,97,0,-1,2.7,2.3,50000,290,6.6,5
2022,10,20,01:20,UTC,0,1017.5,-,98,0,-1,2.6,2.2,50000,292,6.4,4.8
2022,10,20,01:30,UTC,0,1017.5,-,98,0,-1,2.6,2.3,50000,292,6.3,4.6
2022,10,20,01:40,UTC,0,1017.4,-,98,0,-1,2.8,2.6,50000,295,6.8,4.8
2022,10,20,01:50,UTC,0,1017.4,-,98,0,-1,2.5,2.2,50000,295,7,4.9
2022,10,20,02:00,UTC,0,1017.4,0,98,0,-1,2.5,2.2,50000,293,6.7,4.8
2022,10,20,02:10,UTC,0,1017.4,-,99,0,-1,2.4,2.2,50000,295,6.7,4.4
2022,10,20,02:20,UTC,0,1017.4,-,99,0,-1,2.4,2.3,50000,294,6.4,4.5
2022,10,20,02:30,UTC,0,1017.3,-,100,0,-1,2.6,2.5,50000,294,7,4.6
2022,10,20,02:40,UTC,0,1017.3,-,99,0,-1,2.7,2.6,50000,294,6.5,4.5
2022,10,20,02:50,UTC,0,1017.4,-,100,0,-1,2.6,2.5,50000,291,7.1,5.1
2022,10,20,03:00,UTC,3,1017.4,0,100,0,-1,2.8,2.8,50000,294,7.1,4.6
2022,10,20,03:10,UTC,5,1017.4,-,100,0,-1,3.1,3.1,50000,291,6.1,4.6
2022,10,20,03:20,UTC,7,1017.3,-,100,0,-1,3.3,3.3,50000,295,5.8,4
2022,10,20,03:30,UTC,3,1017.4,-,99,0,-1,3.2,3.1,50000,293,6.3,4.4
2022,10,20,03:40,UTC,1,1017.4,-,99,0,-1,2.8,2.6,50000,299,6.5,4.4
2022,10,20,03:50,UTC,1,1017.4,-,99,0,-1,2.9,2.8,50000,298,6.8,4.3
2022,10,20,04:00,UTC,0,1017.4,0,100,0,-1,2.7,2.7,50000,295,6.5,4.2
2022,10,20,04:10,UTC,0,1017.4,-,100,0,-1,2.9,2.9,50000,293,7.2,4.5
2022,10,20,04:20,UTC,1,1017.3,-,100,0,-1,3.1,3.1,50000,298,6.2,4.5
2022,10,20,04:30,UTC,1,1017.3,-,100,0,-1,3,3,50000,296,6.1,4.4
2022,10,20,04:40,UTC,1,1017.3,-,100,0,-1,3,3,50000,295,6.3,4.3
2022,10,20,04:50,UTC,0,1017.4,-,100,0,-1,3.1,3.1,50000,294,6.4,4.5
2022,10,20,05:00,UTC,0,1017.5,0,100,0,-1,3.2,3.2,50000,293,6.8,4.8
2022,10,20,05:10,UTC,0,1017.5,-,100,0,-1,3,3,50000,299,6.8,4.5
2022,10,20,05:20,UTC,0,1017.5,-,100,0,-1,3.1,3.1,50000,296,6.8,4.3
2022,10,20,05:30,UTC,0,1017.5,-,100,0,-1,3.2,3.2,49690,296,6.7,4.2
2022,10,20,05:40,UTC,0,1017.6,-,100,0,-1,3.2,3.2,46430,301,6.9,4.2
2022,10,20,05:50,UTC,0,1017.6,-,100,0,-1,3.3,3.3,49010,305,6.4,4
2022,10,20,06:00,UTC,0,1017.6,0,100,0,-1,3.4,3.3,48660,306,6.2,4
2022,10,20,06:10,UTC,0,1017.6,-,100,0,-1,3.4,3.3,46700,307,6,4.2
2022,10,20,06:20,UTC,0,1017.6,-,99,0,-1,3.8,3.7,46600,308,6.1,4
2022,10,20,06:30,UTC,0,1017.7,-,99,0,-1,4,3.8,43430,308,6.9,4.2
2022,10,20,06:40,UTC,0,1017.8,-,98,0,-1,4.4,4.1,48240,308,5.7,3.7
2022,10,20,06:50,UTC,0,1017.9,-,96,0,-1,4.9,4.3,50000,303,6.3,4.2
2022,10,20,07:00,UTC,0,1018,0,94,0,-1,5.2,4.3,42500,310,5.5,3.7
2022,10,20,07:10,UTC,0,1018.1,-,92,0,-1,5.6,4.4,47610,315,6.2,3.3
2022,10,20,07:20,UTC,0,1018.2,-,90,0,-1,6,4.5,42720,315,5.2,3.3
2022,10,20,07:30,UTC,0,1018.2,-,88,0,-1,6.2,4.4,50000,316,5.7,3.4
2022,10,20,07:40,UTC,0,1018.3,-,87,0,-1,6.5,4.6,46670,309,5.6,3.4
2022,10,20,07:50,UTC,0,1018.4,-,85,0,-1,6.8,4.5,41640,318,6.2,3.3
2022,10,20,08:00,UTC,0,1018.5,0,85,0,-1,7,4.7,39600,321,6.1,3.2
2022,10,20,08:10,UTC,0,1018.6,-,84,0,-1,7.2,4.7,45780,321,6.3,3.2
2022,10,20,08:20,UTC,0,1018.7,-,82,0,-1,7.5,4.7,50000,318,5.6,3
2022,10,20,08:30,UTC,0,1018.7,-,82,0,-1,7.7,4.9,47780,321,5.7,3.2
2022,10,20,08:40,UTC,0,1018.7,-,81,0,-1,7.9,4.9,47180,329,5.2,3.4
2022,10,20,08:50,UTC,0,1018.7,-,80,0,-1,8,4.8,41910,327,6.1,3.3
2022,10,20,09:00,UTC,1,1018.8,0,79,0,-1,8.4,4.9,46440,318,5.2,2.9
2022,10,20,09:10,UTC,1,1018.7,-,79,0,-1,8.7,5.2,36670,326,6.1,3.3
2022,10,20,09:20,UTC,1,1018.7,-,75,0,-1,8.8,4.7,40150,340,7,3.4
2022,10,20,09:30,UTC,1,1018.7,-,76,0,-1,9.1,5.1,47030,329,6,3.4
2022,10,20,09:40,UTC,1,1018.7,-,75,0,-1,9,4.7,50000,325,6.1,3.5
2022,10,20,09:50,UTC,1,1018.8,-,75,0,-1,8.9,4.6,49440,333,5.9,3.3
2022,10,20,10:00,UTC,1,1018.8,0,72,0,-1,9.2,4.4,50000,340,6.6,3.8
2022,10,20,10:10,UTC,1,1018.8,-,72,0,-1,9.3,4.5,46130,349,5.9,3.9
2022,10,20,10:20,UTC,1,1018.8,-,70,0,-1,9.5,4.3,47940,352,6.7,3.9
2022,10,20,10:30,UTC,0,1018.8,-,71,0,-1,9.2,4.2,50000,343,6.9,4.4
2022,10,20,10:40,UTC,1,1018.9,-,72,0,-1,8.9,4,50000,338,6.6,3.9
2022,10,20,10:50,UTC,1,1018.8,-,71,0,-1,9.2,4.1,50000,331,6.9,4
2022,10,20,11:00,UTC,5,1018.7,0,66,0,-1,10.2,4.3,50000,329,6.2,3.2
2022,10,20,11:10,UTC,5,1018.8,-,67,0,-1,10,4.2,50000,327,6,2.9
2022,10,20,11:20,UTC,5,1018.7,-,67,0,-1,9.6,3.9,50000,352,6,2.9
2022,10,20,11:30,UTC,5,1018.6,-,68,0,-1,9.6,4,50000,339,5.2,3.1
2022,10,20,11:40,UTC,3,1018.8,-,69,0,-1,9.1,3.8,50000,339,5.3,3.6
2022,10,20,11:50,UTC,5,1018.7,-,69,0,-1,9.2,3.7,50000,344,4.8,3
2022,10,20,12:00,UTC,5,1018.8,0,70,0,-1,9.2,4,50000,332,4.4,2.5
2022,10,20,12:10,UTC,5,1018.7,-,67,0,-1,9.6,3.8,50000,312,4,2
2022,10,20,12:20,UTC,7,1018.9,-,66,0,-1,9.8,3.7,50000,331,5.1,2.6
2022,10,20,12:30,UTC,7,1018.8,-,64,0,-1,10,3.6,50000,332,4.9,2.6
2022,10,20,12:40,UTC,7,1018.8,-,68,0,-1,9.7,4.1,50000,313,6.1,3.4
2022,10,20,12:50,UTC,8,1018.8,-,66,0,-1,9.7,3.7,50000,315,6,2.8
2022,10,20,13:00,UTC,8,1018.8,0,65,0,-1,9.8,3.5,50000,356,4.2,2.1
2022,10,20,13:10,UTC,7,1018.8,-,66,0,-1,9.6,3.6,50000,340,4.4,2.2
2022,10,20,13:20,UTC,7,1018.9,-,68,0,-1,9.4,3.8,50000,324,4.5,2.7
2022,10,20,13:30,UTC,8,1019,-,70,0,-1,9.2,4.1,50000,315,4.9,2.7
2022,10,20,13:40,UTC,7,1019,-,70,0,-1,9.2,4,50000,309,4.5,2.8
2022,10,20,13:50,UTC,8,1019,-,69,0,-1,9.2,3.9,50000,321,3.9,2.9
2022,10,20,14:00,UTC,8,1019.1,0,70,0,-1,9.2,4,50000,318,3.4,2
2022,10,20,14:10,UTC,8,1019.2,-,71,0,-1,9,4,50000,310,3.5,2.2
2022,10,20,14:20,UTC,8,1019.3,-,71,0,-1,9,4.1,50000,317,4.4,2.4
2022,10,20,14:30,UTC,8,1019.2,-,72,0,-1,8.8,3.9,50000,300,4.2,2.4
2022,10,20,14:40,UTC,7,1019.3,-,72,0,-1,8.7,4,50000,311,3.1,2.2
2022,10,20,14:50,UTC,8,1019.3,-,75,0,-1,8.4,4.3,50000,306,3,2
2022,10,20,15:00,UTC,8,1019.4,0,74,0,-1,8.5,4.2,50000,310,3.1,2
2022,10,20,15:10,UTC,8,1019.4,-,75,0,-1,8.6,4.3,50000,310,3.6,2.3
2022,10,20,15:20,UTC,8,1019.4,-,75,0,-1,8.5,4.2,50000,320,3,1.8
2022,10,20,15:30,UTC,8,1019.4,-,75,0,-1,8.3,4.1,50000,321,2.8,1.6
2022,10,20,15:40,UTC,7,1019.4,-,75,0,-1,8.2,4,50000,315,2.8,1.8
2022,10,20,15:50,UTC,8,1019.3,-,74,0,-1,8.2,3.9,50000,314,1.9,1.4
2022,10,20,16:00,UTC,8,1019.3,0,74,0,-1,8.3,3.8,50000,290,2.7,1.4
2022,10,20,16:10,UTC,8,1019.3,-,77,0,-1,8,4.1,50000,292,3,1.6
2022,10,20,16:20,UTC,8,1019.3,-,78,0,-1,7.9,4.3,50000,288,3.6,2.2
2022,10,20,16:30,UTC,8,1019.3,-,79,0,-1,7.9,4.4,50000,291,4,2.4
2022,10,20,16:40,UTC,7,1019.3,-,81,0,-1,7.8,4.8,50000,282,4.9,3.3
2022,10,20,16:50,UTC,8,1019.3,-,81,0,-1,7.8,4.7,50000,279,5.2,3.3
2022,10,20,17:00,UTC,8,1019.3,0,79,0,-1,8,4.6,50000,288,4,2.5
2022,10,20,17:10,UTC,8,1019.4,-,79,0,-1,8,4.6,50000,288,4,2.3
2022,10,20,17:20,UTC,8,1019.4,-,80,0,-1,7.8,4.7,50000,282,4.8,2.8
2022,10,20,17:30,UTC,8,1019.4,-,80,0,-1,8,4.7,50000,281,5.3,3.5
2022,10,20,17:40,UTC,7,1019.4,-,81,0,-1,7.9,4.8,50000,273,5.6,3.5
2022,10,20,17:50,UTC,8,1019.4,-,81,0,-1,7.9,4.8,50000,272,5.9,3.5
2022,10,20,18:00,UTC,8,1019.3,0,80,0,-1,7.9,4.8,50000,278,5.6,3.4
2022,10,20,18:10,UTC,8,1019.4,-,80,0,-1,8.1,4.8,50000,281,5.6,3.3
2022,10,20,18:20,UTC,8,1019.3,-,81,0,-1,7.9,4.9,50000,288,5.7,3.5
2022,10,20,18:30,UTC,8,1019.4,-,83,0,-1,7.8,5,50000,296,5.2,2.9
2022,10,20,18:40,UTC,7,1019.4,-,82,0,-1,7.8,4.9,50000,298,5.3,2.9
2022,10,20,18:50,UTC,8,1019.4,-,83,0,-1,7.7,5,50000,298,4.4,2.7
2022,10,20,19:00,UTC,8,1019.3,0,85,0,-1,7.5,5.1,50000,296,3.6,2
2022,10,20,19:10,UTC,8,1019.2,-,84,0,-1,7.5,5.1,50000,295,4.2,2.4
2022,10,20,19:20,UTC,8,1019.1,-,85,0,-1,7.5,5.1,50000,294,3.7,2.3
2022,10,20,19:30,UTC,8,1019.1,-,85,0,-1,7.5,5.1,50000,290,4.1,2.3
2022,10,20,19:40,UTC,7,1019.1,-,85,0,-1,7.5,5.2,50000,295,4.5,2.5
2022,10,20,19:50,UTC,8,1019.2,-,85,0,-1,7.5,5.1,50000,297,3.7,2.2
2022,10,20,20:00,UTC,8,1019.3,0,86,0,-1,7.4,5.2,50000,300,3.6,2.6
2022,10,20,20:10,UTC,8,1019.2,-,86,0,-1,7.4,5.2,50000,298,4.5,2.5
2022,10,20,20:20,UTC,8,1019.1,-,86,0,-1,7.4,5.1,50000,292,3.2,2
2022,10,20,20:30,UTC,8,1019.1,-,86,0,-1,7.3,5.2,50000,293,3.7,2.3
2022,10,20,20:40,UTC,7,1019.1,-,87,0,-1,7.3,5.3,50000,298,4.1,2.3
2022,10,20,20:50,UTC,8,1019.2,-,87,0,-1,7.4,5.3,50000,291,4.4,2.8
2022,10,20,21:00,UTC,8,1019.3,0,87,0,-1,7.4,5.3,50000,297,4.3,2.5
2022,10,20,21:10,UTC,8,1019.3,-,87,0,-1,7.3,5.3,50000,295,4.4,2.7
2022,10,20,21:20,UTC,8,1019.2,-,87,0,-1,7.3,5.2,50000,295,4.2,2.5
2022,10,20,21:30,UTC,8,1019.2,-,88,0,-1,7.2,5.3,50000,296,4.3,2.5
2022,10,20,21:40,UTC,7,1019.3,-,87,0,-1,7.2,5.2,50000,292,4.5,2.8
2022,10,20,21:50,UTC,8,1019.2,-,88,0,-1,7.2,5.3,50000,294,4.8,2.8
2022,10,20,22:00,UTC,8,1019.3,0,87,0,-1,7.2,5.2,50000,284,5.1,3.5
2022,10,20,22:10,UTC,8,1019.2,-,87,0,-1,7.3,5.3,50000,293,5,2.8
2022,10,20,22:20,UTC,8,1019.1,-,87,0,-1,7.2,5.3,50000,294,4.2,2.5
2022,10,20,22:30,UTC,8,1019.1,-,88,0,-1,7.1,5.3,50000,291,4.3,2.7
2022,10,20,22:40,UTC,7,1019.1,-,88,0,-1,7.2,5.3,50000,298,4.7,2.8
2022,10,20,22:50,UTC,8,1019,-,87,0,-1,7.2,5.2,50000,295,4.5,2.8
2022,10,20,23:00,UTC,8,1018.9,0,87,0,-1,7.1,5.1,50000,293,4.8,2.8
2022,10,20,23:10,UTC,8,1018.8,-,88,0,-1,7,5.2,50000,297,3.8,2.2
2022,10,20,23:20,UTC,8,1018.9,-,87,0,-1,7.1,5.1,50000,296,4.3,2.6
2022,10,20,23:30,UTC,8,1018.8,-,88,0,-1,7,5.1,50000,297,4.1,2.4
2022,10,20,23:40,UTC,7,1018.8,-,87,0,-1,7.1,5,50000,302,3.9,2.3
2022,10,20,23:50,UTC,7,1018.8,-,87,0,-1,7,5.1,50000,299,4.3,2.8
2022,10,21,00:00,UTC,8,1018.8,0,86,0,-1,7.1,5,50000,291,5.4,3.4
2022,10,21,00:10,UTC,8,1018.8,-,86,0,-1,7.1,5,50000,299,5.4,2.9
2022,10,21,00:20,UTC,8,1018.7,-,87,0,-1,7,5,50000,306,3.9,2.4
2022,10,21,00:30,UTC,8,1018.7,-,87,0,-1,7,5,50000,294,3.9,2.4
2022,10,21,00:40,UTC,7,1018.9,-,88,0,-1,6.9,5.1,50000,303,4.4,2.8
2022,10,21,00:50,UTC,7,1018.8,-,85,0,-1,7.2,4.9,50000,313,4.1,2.4
2022,10,21,01:00,UTC,8,1018.6,0,86,0,-1,7,4.8,50000,317,4,2.5
2022,10,21,01:10,UTC,8,1018.4,-,87,0,-1,6.8,4.8,50000,316,3.4,2.1
2022,10,21,01:20,UTC,8,1018.2,-,85,0,-1,6.9,4.6,50000,319,2.2,1.5
2022,10,21,01:30,UTC,8,1018.2,-,85,0,-1,6.8,4.5,50000,315,2.3,1.5
2022,10,21,01:40,UTC,7,1018.3,-,87,0,-1,6.6,4.7,50000,298,3.1,1.5
2022,10,21,01:50,UTC,7,1018.5,-,89,0,-1,6.5,4.9,50000,299,4.4,2.3
2022,10,21,02:00,UTC,8,1018.5,0,87,0,-1,6.7,4.7,50000,298,4.9,2.9
2022,10,21,02:10,UTC,8,1018.3,-,88,0,-1,6.6,4.8,50000,284,4.5,2.7
2022,10,21,02:20,UTC,8,1018.3,-,88,0,-1,6.7,4.8,50000,291,4.4,2.9
2022,10,21,02:30,UTC,8,1018,-,86,0,-1,6.8,4.6,50000,295,3.7,2.1
2022,10,21,02:40,UTC,7,1018,-,88,0,-1,6.6,4.7,50000,282,4.7,3
2022,10,21,02:50,UTC,7,1018.1,-,86,0,-1,6.7,4.5,50000,279,6.3,4.1
2022,10,21,03:00,UTC,8,1018,0,85,0,-1,6.8,4.4,50000,276,5.8,3.5
2022,10,21,03:10,UTC,8,1018.1,-,83,0,-1,6.9,4.2,50000,288,5.2,3.1
2022,10,21,03:20,UTC,8,1018.1,-,84,0,-1,6.8,4.3,50000,302,3.8,2.7
2022,10,21,03:30,UTC,8,1018.1,-,84,0,-1,6.8,4.2,50000,300,3,1.8
2022,10,21,03:40,UTC,7,1018.1,-,86,0,-1,6.6,4.4,50000,293,3.3,2.1
2022,10,21,03:50,UTC,7,1018.1,-,84,0,-1,6.7,4.2,50000,288,3.6,2.3
2022,10,21,04:00,UTC,8,1017.9,0,85,0,-1,6.6,4.2,50000,284,4.3,2.5
2022,10,21,04:10,UTC,8,1018,-,83,0,-1,6.8,4.2,50000,281,4.1,2.4
2022,10,21,04:20,UTC,8,1018,-,82,0,-1,6.9,4,50000,291,4.7,2.6
2022,10,21,04:30,UTC,8,1018,-,82,0,-1,6.9,4.1,50000,301,3.4,2.2
2022,10,21,04:40,UTC,7,1018,-,83,0,-1,6.8,4.2,50000,306,2.7,1.9
2022,10,21,04:50,UTC,7,1018,-,85,0,-1,6.7,4.3,45990,288,4.3,2.4
2022,10,21,05:00,UTC,8,1017.9,0,83,0,-1,6.9,4.1,50000,282,4.5,2.6
2022,10,21,05:10,UTC,8,1017.9,-,82,0,-1,6.9,4.1,50000,296,4,2.5
2022,10,21,05:20,UTC,8,1017.9,-,82,0,-1,6.9,4,50000,304,3.1,1.8
2022,10,21,05:30,UTC,8,1017.9,-,83,0,-1,6.7,4.1,50000,295,3.4,1.9
2022,10,21,05:40,UTC,7,1017.8,-,83,0,-1,6.8,4.1,50000,284,5.1,3
2022,10,21,05:50,UTC,7,1017.8,-,83,0,-1,6.9,4.2,50000,288,4.6,2.7
2022,10,21,06:00,UTC,8,1017.7,0,84,0,-1,6.9,4.4,50000,287,4.7,2.7
2022,10,21,06:10,UTC,8,1017.7,-,83,0,-1,7,4.3,50000,283,4.8,3.1
2022,10,21,06:20,UTC,8,1017.8,-,83,0,-1,7.1,4.4,50000,291,4.5,2.7
2022,10,21,06:30,UTC,8,1017.8,-,83,0,-1,7.2,4.4,50000,294,3.8,2.1
2022,10,21,06:40,UTC,7,1017.8,-,83,0,-1,7.1,4.5,50000,288,3.6,2
2022,10,21,06:50,UTC,7,1017.7,-,81,0,-1,7.3,4.4,50000,299,2.9,1.4
2022,10,21,07:00,UTC,8,1017.7,0,81,0,-1,7.3,4.3,50000,308,1.8,1.1
2022,10,21,07:10,UTC,8,1017.7,-,84,0,-1,7.3,4.7,50000,270,5.3,2
2022,10,21,07:20,UTC,8,1017.8,-,82,0,-1,7.4,4.6,50000,251,5.2,2.9
2022,10,21,07:30,UTC,8,1017.8,-,83,0,-1,7.6,4.9,50000,243,2.7,1.4
2022,10,21,07:40,UTC,7,1017.9,-,80,0,-1,7.8,4.6,50000,294,2.4,1.1
2022,10,21,07:50,UTC,7,1018,-,80,0,-1,8,4.8,50000,259,3.9,1.8
2022,10,21,08:00,UTC,8,1017.9,0,80,0,-1,8.1,4.8,50000,263,4.2,2.3
2022,10,21,08:10,UTC,8,1018,-,79,0,-1,8.3,4.8,50000,260,3.6,2
2022,10,21,08:20,UTC,8,1018.1,-,77,0,-1,8.3,4.5,50000,266,3.8,2.5
2022,10,21,08:30,UTC,8,1018.4,-,77,0,-1,8.3,4.5,50000,306,2.8,1.8
2022,10,21,08:40,UTC,8,1018.4,-,77,0,-1,8.2,4.5,50000,329,2.2,1.3
2022,10,21,08:50,UTC,7,1018.1,-,78,0,-1,8.1,4.4,50000,14,1.9,1.2
2022,10,21,09:00,UTC,8,1018,0,76,0,-1,8.2,4.3,50000,78,2.8,1.3
2022,10,21,09:10,UTC,8,1018.1,-,77,0,-1,8.2,4.4,50000,68,1.3,0.6
2022,10,21,09:20,UTC,8,1018.1,-,77,0,-1,8.3,4.4,50000,6,1.5,0.7
2022,10,21,09:30,UTC,8,1018.2,-,76,0,-1,8.4,4.4,50000,200,1.3,0.5
2022,10,21,09:40,UTC,8,1018.1,-,76,0,-1,8.5,4.5,32810,187,1.1,0.7
2022,10,21,09:50,UTC,7,1018.1,-,77,0,-1,8.6,4.7,29910,140,1.7,0.9
2022,10,21,10:00,UTC,7,1018,0,76,0,-1,9,5,34930,121,3.2,1.6
2022,10,21,10:10,UTC,7,1018,-,73,0,-1,9.1,4.6,41700,101,4.1,2.4
2022,10,21,10:20,UTC,7,1017.9,-,70,0,-1,9.8,4.5,22310,125,3.5,2
2022,10,21,10:30,UTC,7,1017.9,-,68,0,-1,9.7,4.2,45250,132,3.1,1.8
2022,10,21,10:40,UTC,3,1018,-,69,0,-1,9.4,4.1,50000,40,3.4,1.6
2022,10,21,10:50,UTC,5,1017.9,-,71,0,-1,9.1,4.1,50000,32,3.4,1.8
2022,10,21,11:00,UTC,5,1017.8,0,70,0,-1,9,3.8,50000,51,3.5,1.6
2022,10,21,11:10,UTC,7,1017.6,-,68,0,-1,9.6,3.9,45600,64,4.8,2.3
2022,10,21,11:20,UTC,7,1017.6,-,66,0,-1,9.8,3.8,50000,72,4.5,2.7
2022,10,21,11:30,UTC,8,1017.6,-,68,0,-1,9.8,4.2,46270,79,3.9,1.7
2022,10,21,11:40,UTC,7,1017.6,-,65,0,-1,9.7,3.6,42420,104,4,2.3
2022,10,21,11:50,UTC,7,1017.6,-,67,0,-1,9.6,3.8,48110,62,3.6,1.6
2022,10,21,12:00,UTC,8,1017.6,0,67,0,-1,9.5,3.6,50000,82,3.8,1.4
2022,10,21,12:10,UTC,7,1017.6,-,67,0,-1,9.3,3.5,50000,131,3.2,1.9
2022,10,21,12:20,UTC,7,1017.6,-,70,0,-1,9.2,3.9,43690,142,3.2,2
2022,10,21,12:30,UTC,8,1017.7,-,70,0,-1,9,3.8,50000,158,2.1,1.3
2022,10,21,12:40,UTC,7,1017.7,-,71,0,-1,8.8,3.7,50000,196,2.3,1.5
2022,10,21,12:50,UTC,7,1017.7,-,73,0,-1,8.7,4,50000,170,2.7,1.7
2022,10,21,13:00,UTC,8,1017.7,0,75,0,-1,8.6,4.3,50000,176,3.4,2.5
2022,10,21,13:10,UTC,8,1017.7,-,77,0,-1,8.5,4.7,50000,158,3.7,2.5
2022,10,21,13:20,UTC,8,1017.6,-,80,0,-1,8.4,5.2,50000,-,-,-
2022,10,21,13:30,UTC,8,1017.6,-,80,0,-1,8.4,5.2,50000,158,3.6,2.7
2022,10,21,13:40,UTC,8,1017.6,-,80,0,-1,8.4,5.2,50000,178,4.3,2.6
2022,10,21,13:50,UTC,7,1017.6,-,80,0,-1,8.4,5.2,50000,160,4.8,3
2022,10,21,14:00,UTC,8,1017.6,0,81,0,-1,8.3,5.2,50000,160,4.3,3
2022,10,21,14:10,UTC,8,1017.7,-,81,0,-1,8.3,5.2,50000,169,4,2.4
2022,10,21,14:20,UTC,8,1017.7,-,80,0,-1,8.2,5,50000,173,4,2.5
2022,10,21,14:30,UTC,8,1017.7,-,81,0,-1,8.1,5,50000,161,3.4,2.1
2022,10,21,14:40,UTC,8,1017.7,-,82,0,-1,8.1,5.1,50000,156,3.3,2
2022,10,21,14:50,UTC,7,1017.8,-,81,0,-1,7.9,5,50000,180,3.7,2.4
2022,10,21,15:00,UTC,8,1017.8,0,81,0,-1,8,5,50000,166,3.5,2.2
2022,10,21,15:10,UTC,8,1017.8,-,82,0,-1,8,5,50000,152,3.3,2.1
2022,10,21,15:20,UTC,8,1017.7,-,81,0,-1,8,4.9,50000,154,3.5,2.7
2022,10,21,15:30,UTC,8,1017.7,-,81,0,-1,7.8,4.8,50000,152,3.4,2.5
2022,10,21,15:40,UTC,7,1017.8,-,83,0,-1,7.8,5.1,50000,150,3.4,2.5
2022,10,21,15:50,UTC,7,1017.8,-,84,0,-1,7.8,5.3,50000,157,3.2,2.1
2022,10,21,16:00,UTC,8,1017.8,0,84,0,-1,7.8,5.3,50000,141,2.8,2.1
2022,10,21,16:10,UTC,8,1017.8,-,84,0,-1,7.8,5.3,50000,144,2.7,2.2
2022,10,21,16:20,UTC,8,1017.9,-,84,0,-1,7.9,5.4,50000,148,3.4,2.1
2022,10,21,16:30,UTC,8,1017.9,-,83,0,-1,8,5.3,50000,148,3.1,2
2022,10,21,16:40,UTC,8,1017.9,-,84,0,-1,8,5.4,50000,146,3.1,2.3
2022,10,21,16:50,UTC,7,1017.9,-,85,0,-1,7.9,5.5,50000,143,2.9,2.2
2022,10,21,17:00,UTC,8,1017.9,0,85,0,-1,8,5.6,50000,140,2.7,2
2022,10,21,17:10,UTC,8,1017.9,-,85,0,-1,8,5.7,50000,147,2.9,2
2022,10,21,17:20,UTC,8,1017.9,-,86,0,-1,8,5.7,50000,160,3,1.9
2022,10,21,17:30,UTC,8,1017.9,-,84,0,-1,8,5.4,50000,159,2.7,1.8
2022,10,21,17:40,UTC,8,1017.8,-,81,0,-1,7.9,4.9,50000,192,3.2,1.9
2022,10,21,17:50,UTC,7,1017.8,-,79,0,-1,7.9,4.5,50000,183,3.2,2
2022,10,21,18:00,UTC,8,1017.8,0,79,0,-1,7.9,4.5,50000,172,2.9,2
2022,10,21,18:10,UTC,8,1017.7,-,79,0,-1,7.9,4.5,50000,192,3.4,2.5
2022,10,21,18:20,UTC,7,1017.7,-,80,0,-1,7.8,4.5,50000,159,3.3,2.4
2022,10,21,18:30,UTC,7,1017.8,-,80,0,-1,7.7,4.6,50000,178,2.9,1.8
2022,10,21,18:40,UTC,7,1017.8,-,82,0,-1,7.5,4.6,50000,164,2.1,1.5
2022,10,21,18:50,UTC,7,1017.8,-,85,0,-1,6.9,4.6,50000,236,3.7,2.1
2022,10,21,19:00,UTC,5,1017.8,0,87,0,-1,6.6,4.5,50000,236,2.4,1.7
2022,10,21,19:10,UTC,1,1017.9,-,89,0,-1,6.4,4.7,50000,241,2.7,1.8
2022,10,21,19:20,UTC,1,1017.9,-,90,0,-1,6.1,4.5,50000,235,2.8,1.9
2022,10,21,19:30,UTC,1,1017.9,-,91,0,-1,6.1,4.8,50000,245,3.4,2
2022,10,21,19:40,UTC,1,1017.9,-,91,0,-1,6,4.6,50000,250,3.5,2.4
2022,10,21,19:50,UTC,0,1018,-,92,0,-1,5.8,4.6,50000,256,3.6,2.6
2022,10,21,20:00,UTC,0,1017.9,0,93,0,-1,5.5,4.5,50000,273,3.5,2.7
2022,10,21,20:10,UTC,0,1017.9,-,94,0,-1,5.5,4.6,50000,297,2.4,1.8
2022,10,21,20:20,UTC,1,1017.8,-,94,0,-1,5.3,4.4,50000,302,2,1.6
2022,10,21,20:30,UTC,0,1017.8,-,94,0,-1,5,4.1,50000,302,1.4,0.9
2022,10,21,20:40,UTC,0,1017.8,-,96,0,-1,5,4.3,42390,142,1.8,0.9
2022,10,21,20:50,UTC,0,1017.9,-,95,0,-1,5.2,4.4,50000,136,1.3,0.8
2022,10,21,21:00,UTC,1,1018,0,96,0,-1,5,4.4,47460,315,0.6,0.3
2022,10,21,21:10,UTC,3,1017.9,-,96,0,-1,4.7,4.2,47710,151,0.8,0.5
2022,10,21,21:20,UTC,5,1017.9,-,97,0,-1,4.8,4.3,42610,122,0.8,0.5
2022,10,21,21:30,UTC,7,1017.8,-,97,0,-1,4.8,4.4,46390,56,1,0.4
2022,10,21,21:40,UTC,8,1017.8,-,97,0,-1,4.9,4.4,39530,103,1.6,0.9
2022,10,21,21:50,UTC,7,1017.7,-,96,0,-1,5.2,4.5,46980,108,2.3,1.6
2022,10,21,22:00,UTC,7,1017.7,0,95,0,-1,5.5,4.7,42870,113,2.4,2
2022,10,21,22:10,UTC,8,1017.6,-,94,0,-1,5.4,4.5,50000,114,2.4,2.1
2022,10,21,22:20,UTC,8,1017.6,-,95,0,-1,5.2,4.5,47090,116,2.6,2.2
2022,10,21,22:30,UTC,8,1017.5,-,94,0,-1,5.4,4.5,47890,105,2.2,1.9
2022,10,21,22:40,UTC,8,1017.5,-,95,0,-1,5.1,4.3,49290,107,2.6,2.2
2022,10,21,22:50,UTC,7,1017.4,-,95,0,-1,5.1,4.4,45730,114,2.1,1.8
2022,10,21,23:00,UTC,7,1017.3,0,96,0,-1,5.3,4.7,50000,111,2.4,2
2022,10,21,23:10,UTC,8,1017.2,-,95,0,-1,5.4,4.7,50000,116,2.4,2.2
2022,10,21,23:20,UTC,8,1017.2,-,94,0,-1,5.6,4.7,44720,130,2.7,2.4
2022,10,21,23:30,UTC,8,1017.1,-,92,0,-1,6,4.8,45260,127,2.9,2.6
2022,10,21,23:40,UTC,8,1017.1,-,92,0,-1,5.9,4.7,50000,121,2.5,2.3
2022,10,21,23:50,UTC,7,1017,-,92,0,-1,5.9,4.8,47800,125,2.9,2.6
2022,10,22,00:00,UTC,7,1017,0,91,0,-1,6.2,4.8,48550,129,3.1,2.7
2022,10,22,00:10,UTC,8,1017,-,91,0,-1,6.1,4.7,50000,136,3.1,2.8
2022,10,22,00:20,UTC,8,1016.8,-,90,0,-1,6.4,4.8,50000,139,2.8,2.4
2022,10,22,00:30,UTC,8,1016.7,-,90,0,-1,6.4,4.8,50000,147,2.6,2.3
2022,10,22,00:40,UTC,8,1016.6,-,89,0,-1,6.7,5.1,50000,144,2.4,2
2022,10,22,00:50,UTC,7,1016.5,-,90,0,-1,6.5,5,50000,145,3,2.3
2022,10,22,01:00,UTC,7,1016.5,0,91,0,-1,6.6,5.2,50000,161,3,2.3
2022,10,22,01:10,UTC,8,1016.5,-,91,0,-1,6.6,5.3,50000,165,4,2.9
2022,10,22,01:20,UTC,8,1016.5,-,91,0,-1,6.8,5.4,50000,177,3.9,2.9
2022,10,22,01:30,UTC,8,1016.4,-,91,0,-1,7.1,5.7,50000,186,3.6,2.4
2022,10,22,01:40,UTC,8,1016.4,-,90,0,-1,7.2,5.6,50000,181,3.2,2.2
2022,10,22,01:50,UTC,7,1016.4,-,91,0,-1,7.3,5.9,50000,171,3.5,2.6
2022,10,22,02:00,UTC,7,1016.4,0,90,0,-1,7.4,5.9,50000,164,3.4,2.2
2022,10,22,02:10,UTC,8,1016.3,-,89,0,-1,7.4,5.8,50000,149,2.6,1.8
2022,10,22,02:20,UTC,8,1016.1,-,90,0,-1,7.2,5.7,50000,145,2.4,1.8
2022,10,22,02:30,UTC,7,1016,-,90,0,-1,7.2,5.7,50000,147,3,2
2022,10,22,02:40,UTC,8,1016,-,90,0,-1,7.3,5.8,50000,150,2.8,2.3
2022,10,22,02:50,UTC,7,1016,-,90,0,-1,7.2,5.7,50000,164,3.2,2.4
2022,10,22,03:00,UTC,7,1015.9,0,91,0,-1,7.3,6,50000,178,3,2.2
2022,10,22,03:10,UTC,8,1015.9,-,91,0,-1,7.4,6,50000,202,3.2,1.8
2022,10,22,03:20,UTC,8,1015.8,-,92,0,-1,7.6,6.4,50000,216,3.5,2.6
2022,10,22,03:30,UTC,8,1015.7,-,92,0,-1,7.7,6.6,50000,226,3.3,2.3
2022,10,22,03:40,UTC,8,1015.6,-,92,0,-1,7.8,6.6,50000,222,2.8,2.1
2022,10,22,03:50,UTC,7,1015.7,-,93,0,-1,7.9,6.8,50000,219,4.2,2.9
2022,10,22,04:00,UTC,7,1015.6,0,93,0,-1,7.9,6.9,50000,219,3.9,2.7
2022,10,22,04:10,UTC,8,1015.5,-,93,0,-1,8.1,7,50000,214,3.6,2.4
2022,10,22,04:20,UTC,8,1015.5,-,94,0,-1,7.9,6.9,50000,216,4,2.5
2022,10,22,04:30,UTC,8,1015.5,-,93,0,-1,8,6.9,50000,226,4.2,2.5
2022,10,22,04:40,UTC,8,1015.4,-,93,0,-1,8.1,6.9,50000,222,3.8,2.3
2022,10,22,04:50,UTC,7,1015.4,-,92,0,-1,8.1,6.9,50000,217,4,2.6
2022,10,22,05:00,UTC,7,1015.4,0,92,0,-1,8.1,6.8,50000,217,3.9,2.3
2022,10,22,05:10,UTC,7,1015.4,-,91,0,-1,8.2,6.8,50000,215,4.8,2.6
2022,10,22,05:20,UTC,8,1015.4,-,90,0,-1,8.2,6.7,50000,215,4,2.4
2022,10,22,05:30,UTC,8,1015.4,-,90,0,-1,8.3,6.8,50000,224,5.5,3.1
2022,10,22,05:40,UTC,8,1015.3,-,90,0,-1,8.3,6.8,50000,222,4.7,3
2022,10,22,05:50,UTC,8,1015.3,-,89,0,-1,8.3,6.6,50000,224,4.8,3.5
2022,10,22,06:00,UTC,7,1015.3,0,88,0,-1,8.2,6.3,50000,226,5.2,3.5
2022,10,22,06:10,UTC,8,1015.3,-,87,0,-1,8.3,6.2,50000,225,5.8,3.7
2022,10,22,06:20,UTC,8,1015.3,-,89,0,-1,8.3,6.5,50000,224,8.2,4.6
2022,10,22,06:30,UTC,7,1015.3,-,89,0,-1,8.2,6.4,50000,220,5.5,4
2022,10,22,06:40,UTC,8,1015.3,-,89,0,-1,8.2,6.5,44060,228,5.3,3.5
2022,10,22,06:50,UTC,8,1015.4,-,90,0,-1,8.2,6.6,47390,225,5.1,3.2
2022,10,22,07:00,UTC,7,1015.4,0,88,0,-1,8.2,6.4,44120,225,6.7,4
2022,10,22,07:10,UTC,8,1015.4,-,88,0,-1,8.3,6.3,45570,224,5.5,3.3
2022,10,22,07:20,UTC,8,1015.4,-,88,0,-1,8.3,6.4,45130,227,4.7,2.7
2022,10,22,07:30,UTC,8,1015.3,-,86,0,-1,8.3,6.1,49250,228,5.5,3.4
2022,10,22,07:40,UTC,8,1015.4,-,82,0,-1,8.3,5.5,50000,230,7.3,4.5
2022,10,22,07:50,UTC,8,1015.4,-,81,0,-1,8.3,5.3,50000,221,6.5,4.3
2022,10,22,08:00,UTC,7,1015.4,0,80,0,-1,8.3,5,50000,230,7.7,5.1
2022,10,22,08:10,UTC,8,1015.4,-,78,0,-1,8.2,4.6,50000,232,7.8,4.8
2022,10,22,08:20,UTC,7,1015.4,-,78,0,-1,8.1,4.5,50000,222,8,5.3
2022,10,22,08:30,UTC,7,1015.4,-,78,0,-1,8,4.4,50000,224,8.7,6.4
2022,10,22,08:40,UTC,8,1015.4,-,77,0,-1,8,4.2,50000,230,7.8,5.3
2022,10,22,08:50,UTC,8,1015.3,-,76,0,-1,8.1,4.1,47120,233,9.2,5.2
2022,10,22,09:00,UTC,7,1015.2,0,75,0,-1,8.1,4,50000,228,7.7,5.6
2022,10,22,09:10,UTC,8,1015.2,-,74,0,-1,8.1,3.8,50000,229,7.6,5.4
2022,10,22,09:20,UTC,7,1015.1,-,72,0,-1,8.3,3.6,50000,227,6.2,4.2
2022,10,22,09:30,UTC,8,1015.1,-,70,0,-1,8.3,3.1,50000,220,8.3,5.6
2022,10,22,09:40,UTC,7,1015,-,69,0,-1,8.5,3.1,50000,222,9.4,5.3
2022,10,22,09:50,UTC,7,1014.9,-,70,0,-1,8.5,3.4,50000,224,7.2,4.7
2022,10,22,10:00,UTC,7,1014.8,0,69,0,-1,8.5,3.2,50000,232,7.8,4.5
2022,10,22,10:10,UTC,8,1014.6,-,71,0,-1,8.6,3.5,50000,227,8,4.7
2022,10,22,10:20,UTC,8,1014.5,-,67,0,-1,8.8,3,50000,214,6.9,4.1
2022,10,22,10:30,UTC,8,1014.4,-,66,0,-1,8.8,2.9,50000,208,8,4.7
2022,10,22,10:40,UTC,8,1014.2,-,66,0,-1,9.4,3.4,50000,202,7.6,4.1
2022,10,22,10:50,UTC,5,1014.1,-,67,0,-1,9,3.3,40200,197,8.3,5.2
2022,10,22,11:00,UTC,3,1014,0,67,0,-1,9.1,3.3,41810,194,8.5,5.3
2022,10,22,11:10,UTC,1,1013.9,-,67,0,-1,8.8,2.9,48900,208,8,6.1
2022,10,22,11:20,UTC,1,1013.7,-,69,0,-1,8.8,3.3,45700,201,7.4,5.2
2022,10,22,11:30,UTC,0,1013.7,-,67,0,-1,9.1,3.3,47930,195,6.6,4.4
2022,10,22,11:40,UTC,0,1013.5,-,64,0,-1,8.8,2.4,39500,194,8.5,5.4
2022,10,22,11:50,UTC,0,1013.4,-,66,0,-1,9.2,3.1,50000,174,5.7,2.8
2022,10,22,12:00,UTC,0,1013.3,0,65,0,-1,8.7,2.5,45670,180,8,5.3
2022,10,22,12:10,UTC,0,1013.1,-,66,0,-1,8.8,2.9,42480,182,6.6,4.3
2022,10,22,12:20,UTC,0,1013,-,65,0,-1,9.1,2.8,50000,186,5.8,3.5
2022,10,22,12:30,UTC,0,1012.9,-,66,0,-1,8.9,2.9,50000,195,7.3,4.8
2022,10,22,12:40,UTC,0,1012.7,-,65,0,-1,8.9,2.6,50000,190,6.6,4.3
2022,10,22,12:50,UTC,0,1012.6,-,66,0,-1,8.7,2.7,50000,176,6.8,3.9
2022,10,22,13:00,UTC,0,1012.6,0,66,0,-1,8.7,2.7,48420,174,6.9,4.1
2022,10,22,13:10,UTC,0,1012.4,-,67,0,-1,8.3,2.5,50000,172,7.2,5.2
2022,10,22,13:20,UTC,1,1012.2,-,70,0,-1,7.9,2.8,50000,175,6.5,4.1
2022,10,22,13:30,UTC,1,1012.1,-,71,0,-1,8,3,50000,172,7.2,4.2
2022,10,22,13:40,UTC,3,1011.9,-,71,0,-1,8,3,50000,164,5.9,3.9
2022,10,22,13:50,UTC,7,1011.8,-,71,0,-1,8.1,3.2,50000,162,6.3,4.2
2022,10,22,14:00,UTC,7,1011.7,0,71,0,-1,8.1,3.1,50000,-,-,-
2022,10,22,14:10,UTC,7,1011.6,-,71,0,-1,7.9,3,50000,160,6.3,3.7
2022,10,22,14:20,UTC,5,1011.5,-,72,0,-1,7.7,2.9,50000,161,5.8,3.8
2022,10,22,14:30,UTC,5,1011.4,-,72,0,-1,7.7,2.9,50000,160,6.1,3.6
2022,10,22,14:40,UTC,5,1011.4,-,74,0,-1,7.5,3.1,50000,159,4.8,3
2022,10,22,14:50,UTC,5,1011.3,-,74,0,-1,7.2,3,50000,164,4.6,3
2022,10,22,15:00,UTC,5,1011.3,0,76,0,-1,7.2,3.2,50000,160,4.3,2.7
2022,10,22,15:10,UTC,1,1011.3,-,77,0,-1,7,3.2,50000,182,5.8,3
2022,10,22,15:20,UTC,1,1011.3,-,75,0,-1,6.8,2.8,50000,190,4.7,2.6
2022,10,22,15:30,UTC,0,1011.3,-,74,0,-1,7,2.6,50000,195,5,3.3
2022,10,22,15:40,UTC,0,1011.2,-,75,0,-1,7,2.8,50000,193,4.9,3.1
2022,10,22,15:50,UTC,0,1011.2,-,75,0,-1,7,2.9,50000,193,4.8,2.8
2022,10,22,16:00,UTC,0,1011.2,0,76,0,-1,6.9,2.9,50000,196,4.5,3.2
2022,10,22,16:10,UTC,0,1011,-,76,0,-1,6.8,2.8,50000,195,4.4,3.2
2022,10,22,16:20,UTC,0,1011,-,76,0,-1,6.9,3,50000,183,3.9,2.7
2022,10,22,16:30,UTC,1,1010.9,-,76,0,-1,7,3,50000,192,4.8,2.9
2022,10,22,16:40,UTC,3,1010.8,-,77,0,-1,6.9,3.1,50000,187,4,2.7
2022,10,22,16:50,UTC,5,1010.7,-,77,0,-1,7.1,3.3,50000,189,4.5,3
2022,10,22,17:00,UTC,5,1010.7,0,78,0,-1,6.8,3.2,50000,203,4.3,2.6
2022,10,22,17:10,UTC,3,1010.7,-,78,0,-1,7,3.4,49930,211,4.5,2.5
2022,10,22,17:20,UTC,5,1010.5,-,76,0,-1,7.3,3.4,50000,201,4.9,2.8
2022,10,22,17:30,UTC,5,1010.4,-,76,0,-1,7.6,3.6,50000,201,5.1,3.1
2022,10,22,17:40,UTC,7,1010.2,-,76,0,-1,7.6,3.7,50000,216,5.1,3
2022,10,22,17:50,UTC,7,1010,-,76,0,-1,7.7,3.6,50000,208,5.3,2.4
2022,10,22,18:00,UTC,7,1009.9,0,74,0,-1,7.9,3.5,50000,217,5.8,3.1
2022,10,22,18:10,UTC,7,1009.9,-,73,0,-1,8,3.5,50000,219,5.4,3.6
2022,10,22,18:20,UTC,7,1009.9,-,75,0,-1,7.9,3.7,50000,235,6.2,3.1
2022,10,22,18:30,UTC,7,1009.6,-,74,0,-1,7.9,3.6,50000,229,6.7,4.1
2022,10,22,18:40,UTC,7,1009.4,-,73,0,-1,8.1,3.4,50000,219,7.7,4.5
2022,10,22,18:50,UTC,7,1009.5,-,73,0,-1,8.1,3.5,50000,220,6.8,4
2022,10,22,19:00,UTC,7,1009.5,0,74,0,-1,8,3.7,50000,226,6.7,4.3
2022,10,22,19:10,UTC,7,1009.4,-,74,0,-1,8.1,3.7,50000,224,7,5
2022,10,22,19:20,UTC,7,1009.4,-,76,0,-1,8.1,4,50000,226,7.8,4.7
2022,10,22,19:30,UTC,7,1009.4,-,76,0,-1,8.2,4.1,50000,232,7.9,5.3
2022,10,22,19:40,UTC,7,1009.2,-,75,0,-1,8.2,4.1,50000,236,8.9,5.2
2022,10,22,19:50,UTC,8,1009.2,-,77,0,-1,8,4.2,50000,229,8.1,3.5
2022,10,22,20:00,UTC,7,1009.2,0,78,0,-1,8,4.4,50000,246,7.2,4.2
2022,10,22,20:10,UTC,7,1009.1,-,79,0,-1,7.9,4.6,50000,253,6.4,4
2022,10,22,20:20,UTC,7,1009,-,80,0,-1,7.8,4.5,50000,259,6.2,4.3
2022,10,22,20:30,UTC,7,1009,-,80,0,-1,7.6,4.5,50000,261,6.3,3.6
2022,10,22,20:40,UTC,7,1009,-,82,0,-1,7.4,4.4,50000,280,4.2,2.5
2022,10,22,20:50,UTC,7,1008.8,-,81,0,-1,7.3,4.3,50000,284,4.5,2
2022,10,22,21:00,UTC,7,1008.8,0,83,0,-1,7,4.3,50000,278,4.2,2.1
2022,10,22,21:10,UTC,7,1008.8,-,80,0,-1,7.2,4,50000,287,3.7,1.6
2022,10,22,21:20,UTC,7,1008.7,-,80,0,-1,7.2,3.9,50000,264,3.4,1.7
2022,10,22,21:30,UTC,7,1008.6,-,81,0,-1,7.1,4.1,50000,251,4.6,1.9
2022,10,22,21:40,UTC,7,1008.5,-,82,0,-1,7.1,4.2,50000,260,4.4,2.7
2022,10,22,21:50,UTC,7,1008.4,-,82,0,-1,7.2,4.3,50000,250,5,3.3
2022,10,22,22:00,UTC,7,1008.3,0,82,0,-1,7.2,4.4,50000,252,5.5,2.9
2022,10,22,22:10,UTC,7,1008.2,-,82,0,-1,7.3,4.4,50000,267,5.2,3.4
2022,10,22,22:20,UTC,7,1008.1,-,83,0,-1,7.2,4.6,50000,276,4.6,2.5
2022,10,22,22:30,UTC,8,1008,-,84,0,-1,7.1,4.5,50000,274,3.9,1.8
2022,10,22,22:40,UTC,8,1007.9,-,84,0,-1,7.1,4.6,50000,275,3.9,2
2022,10,22,22:50,UTC,8,1007.8,-,84,0,-1,7.1,4.7,50000,257,4.6,2.1
2022,10,22,23:00,UTC,7,1007.6,0,85,0,-1,7.2,4.8,50000,254,3.9,2.4
2022,10,22,23:10,UTC,7,1007.6,-,85,0,-1,7.3,4.8,50000,253,4.6,2.7
2022,10,22,23:20,UTC,7,1007.5,-,86,0,-1,7.2,4.9,50000,258,4.6,2.8
2022,10,22,23:30,UTC,7,1007.4,-,86,0,-1,7.1,5,50000,248,4.4,2.8
2022,10,22,23:40,UTC,7,1007.4,-,86,0,-1,7.2,5,50000,248,5.3,3.1
2022,10,22,23:50,UTC,7,1007.2,-,86,0,-1,7.3,5.1,50000,242,4.6,2.7
2022,10,23,00:00,UTC,7,1007.2,0,87,0,-1,7.2,5.1,49400,246,4.3,2.3
2022,10,23,00:10,UTC,7,1007.2,-,88,0,-1,7.1,5.2,50000,256,4.4,2.6
2022,10,23,00:20,UTC,7,1007.1,-,88,0,-1,7.1,5.2,50000,260,4.6,2.6
2022,10,23,00:30,UTC,8,1007,-,88,0,-1,7,5.2,50000,259,3.8,2.3
2022,10,23,00:40,UTC,7,1006.9,-,89,0,-1,7.2,5.5,50000,254,4.4,2.7
2022,10,23,00:50,UTC,7,1006.8,-,89,0,-1,7.2,5.6,48920,257,5.2,3
2022,10,23,01:00,UTC,8,1006.7,0,89,0,-1,7.3,5.6,47820,255,4.7,2.9
2022,10,23,01:10,UTC,7,1006.7,-,89,0,-1,7.4,5.7,47970,252,5,2.9
2022,10,23,01:20,UTC,7,1006.6,-,89,0,-1,7.4,5.7,46370,256,4.9,3.2
2022,10,23,01:30,UTC,7,1006.6,-,89,0,-1,7.4,5.7,44480,253,5,3.1
2022,10,23,01:40,UTC,8,1006.6,-,90,0,-1,7.4,5.8,42980,254,5.5,3.2
2022,10,23,01:50,UTC,8,1006.5,-,90,0,-1,7.5,6,38590,258,6.6,3.5
2022,10,23,02:00,UTC,8,1006.6,0,91,0,-1,7.4,6,32730,265,5.8,3.2
2022,10,23,02:10,UTC,7,1006.6,-,91,0,-1,7.5,6.1,23810,262,6,3.9
2022,10,23,02:20,UTC,7,1006.6,-,92,0,-1,7.4,6.2,20970,264,6,3.3
2022,10,23,02:30,UTC,7,1006.5,-,93,0,-1,7.3,6.3,14190,263,5.8,3.7
2022,10,23,02:40,UTC,8,1006.5,-,95,0,-1,7.2,6.4,12600,268,5.3,3.1
2022,10,23,02:50,UTC,8,1006.5,-,95,0,-1,7.2,6.5,11690,270,5,2.8
2022,10,23,03:00,UTC,8,1006.5,0.1,96,0.3,-1,7.2,6.6,7710,262,4.9,2.5
2022,10,23,03:10,UTC,7,1006.5,-,97,0.1,-1,7.2,6.7,7680,271,5,3.6
2022,10,23,03:20,UTC,7,1006.5,-,98,0,-1,7.2,6.8,8650,277,5.4,3.7
2022,10,23,03:30,UTC,7,1006.4,-,98,0,-1,7.2,6.8,8350,279,6.5,4.1
2022,10,23,03:40,UTC,7,1006.4,-,98,0,-1,7.2,6.8,7430,283,6,4.1
2022,10,23,03:50,UTC,7,1006.4,-,98,0,-1,7.2,6.8,7760,284,5.2,3.3
2022,10,23,04:00,UTC,8,1006.4,0,98,0,-1,7.1,6.8,5820,286,5.4,3.5
2022,10,23,04:10,UTC,7,1006.4,-,98,0,-1,7.1,6.8,5630,283,5.8,3.6
2022,10,23,04:20,UTC,7,1006.4,-,99,0,-1,7,6.8,5190,282,5.4,3.6
2022,10,23,04:30,UTC,8,1006.4,-,99,0,-1,7,6.8,7360,280,5.3,3.8
2022,10,23,04:40,UTC,8,1006.4,-,99,0,-1,7,6.8,8370,285,5.3,4
2022,10,23,04:50,UTC,7,1006.4,-,99,0,-1,7,6.9,8850,284,5.3,3.8
2022,10,23,05:00,UTC,7,1006.5,0,99,0,-1,7,6.8,8920,284,5.2,3.7
2022,10,23,05:10,UTC,7,1006.6,-,98,0,-1,7,6.8,9960,300,4.5,2.6
2022,10,23,05:20,UTC,8,1006.6,-,99,0,-1,7,6.7,9380,293,5.4,3.1
2022,10,23,05:30,UTC,8,1006.7,-,98,0,-1,7,6.8,10480,300,4.3,2.8
2022,10,23,05:40,UTC,7,1006.6,-,98,0,-1,7,6.7,10730,306,5.1,3.3
2022,10,23,05:50,UTC,7,1006.6,-,97,0,-1,6.8,6.3,11560,310,4.4,2.6
2022,10,23,06:00,UTC,7,1006.6,0,98,0,-1,6.5,6.3,9240,308,3.8,2.4
2022,10,23,06:10,UTC,7,1006.6,-,99,0,-1,6.5,6.3,9350,306,3.8,2.6
2022,10,23,06:20,UTC,5,1006.6,-,98,0,-1,6.4,6.1,11780,293,4.9,3.1
2022,10,23,06:30,UTC,3,1006.7,-,98,0,-1,6.3,6,10840,291,5.5,2.9
2022,10,23,06:40,UTC,1,1006.7,-,99,0,-1,6.5,6.3,12380,306,6.5,3.3
2022,10,23,06:50,UTC,1,1006.7,-,95,0,-1,7.2,6.4,20890,307,7.2,4
2022,10,23,07:00,UTC,3,1006.7,0,84,0,-1,7.5,5,38000,302,7.6,4
2022,10,23,07:10,UTC,5,1006.7,-,88,0,-1,7.3,5.5,35550,297,6.4,3.8
2022,10,23,07:20,UTC,5,1006.9,-,89,0,-1,7.6,5.9,33350,301,6,3.1
2022,10,23,07:30,UTC,5,1006.9,-,83,0,-1,7.8,5.1,47270,316,5.4,3
2022,10,23,07:40,UTC,5,1006.9,-,83,0,-1,7.7,5,50000,306,6.1,3.5
2022,10,23,07:50,UTC,7,1007,-,84,0,-1,7.6,5,47210,302,6.4,3.9
2022,10,23,08:00,UTC,8,1007.1,0,84,0,-1,7.6,5.1,47350,312,7.8,4.1
2022,10,23,08:10,UTC,7,1007.2,-,79,0,-1,7.5,4.1,49310,316,8.6,4.8
2022,10,23,08:20,UTC,7,1007.3,-,78,0,-1,7.4,3.8,50000,313,8.8,5
2022,10,23,08:30,UTC,8,1007.4,-,75,0,-1,7.4,3.2,50000,317,7.7,3.6
2022,10,23,08:40,UTC,8,1007.5,-,74,0,-1,7.3,3,50000,318,8.5,4.3
2022,10,23,08:50,UTC,7,1007.6,-,72,0,-1,7.7,3,50000,329,7.8,4.5
2022,10,23,09:00,UTC,7,1007.6,0,70,0,-1,7.6,2.5,50000,337,8.8,4.9
2022,10,23,09:10,UTC,7,1007.7,-,72,0,-1,7.7,2.9,50000,335,7.3,4.8
2022,10,23,09:20,UTC,7,1007.7,-,71,0,-1,7.4,2.4,50000,336,8.7,5.6
2022,10,23,09:30,UTC,3,1007.7,-,71,0,-1,7.4,2.4,50000,335,8.8,4.7
2022,10,23,09:40,UTC,1,1007.7,-,71,0,-1,7.7,2.7,50000,324,8.5,4.9
2022,10,23,09:50,UTC,1,1007.8,-,68,0,-1,8.1,2.6,49060,331,8,5.2
2022,10,23,10:00,UTC,1,1007.9,0,66,0,-1,8.5,2.6,50000,335,7,4.7
2022,10,23,10:10,UTC,3,1007.9,-,66,0,-1,8.9,2.9,50000,337,7.4,4.2
2022,10,23,10:20,UTC,5,1008,-,66,0,-1,8.7,2.7,50000,319,7.4,4
2022,10,23,10:30,UTC,5,1008,-,65,0,-1,8.8,2.5,47310,346,8.7,5.6
2022,10,23,10:40,UTC,3,1008,-,63,0,-1,8.9,2.3,50000,333,8.5,5.4
2022,10,23,10:50,UTC,1,1008,-,64,0,-1,9.1,2.5,50000,335,7,4.4
2022,10,23,11:00,UTC,0,1008,0,63,0,-1,9.1,2.5,48930,335,6.8,3.9
2022,10,23,11:10,UTC,1,1008.1,-,63,0,-1,9.4,2.6,49440,319,6.9,3.3
2022,10,23,11:20,UTC,3,1008.1,-,62,0,-1,9.5,2.7,50000,314,8,4
2022,10,23,11:30,UTC,5,1008.2,-,63,0,-1,9.2,2.7,50000,318,7.4,4.5
2022,10,23,11:40,UTC,5,1008.2,-,64,0,-1,9,2.5,50000,313,7.8,4.4
2022,10,23,11:50,UTC,5,1008.1,-,63,0,-1,8.9,2.3,50000,315,8.2,4.4
2022,10,23,12:00,UTC,3,1008,0,63,0,-1,8.8,2.2,50000,319,7.6,4.2
2022,10,23,12:10,UTC,3,1008.1,-,64,0,-1,8.9,2.6,50000,322,6.6,3.6
2022,10,23,12:20,UTC,1,1008,-,63,0,-1,9.2,2.5,50000,319,6,3.6
2022,10,23,12:30,UTC,1,1008.1,-,64,0,-1,9.3,2.8,50000,316,7.9,4.3
2022,10,23,12:40,UTC,1,1008.1,-,64,0,-1,9.2,2.8,50000,316,7.8,4.5
2022,10,23,12:50,UTC,5,1008.2,-,65,0,-1,9.1,2.8,50000,333,6.5,3.4
2022,10,23,13:00,UTC,5,1008.2,0,66,0,-1,9,3.1,50000,330,5.8,3.3
2022,10,23,13:10,UTC,7,1008.4,-,65,0,-1,9.2,2.9,50000,344,5.1,3.2
2022,10,23,13:20,UTC,3,1008.5,-,67,0,-1,8.8,2.9,50000,347,6.7,3.8
2022,10,23,13:30,UTC,1,1008.5,-,66,0,-1,8.5,2.6,50000,332,6.3,3.7
2022,10,23,13:40,UTC,0,1008.6,-,67,0,-1,8.3,2.6,50000,338,5.5,3.4
2022,10,23,13:50,UTC,0,1008.7,-,66,0,-1,8.2,2.3,50000,334,5.8,3.4
2022,10,23,14:00,UTC,1,1008.7,0,67,0,-1,7.9,2.1,50000,325,5.2,3.1
2022,10,23,14:10,UTC,1,1008.7,-,66,0,-1,7.9,1.9,50000,325,5.4,3.5
2022,10,23,14:20,UTC,1,1008.7,-,67,0,-1,7.6,1.9,50000,328,6.2,4
2022,10,23,14:30,UTC,0,1008.8,-,68,0,-1,7.3,1.8,50000,336,5.5,3.1
2022,10,23,14:40,UTC,0,1008.7,-,69,0,-1,7.1,1.8,50000,325,6.9,3.7
2022,10,23,14:50,UTC,0,1008.7,-,71,0,-1,6.7,1.8,50000,315,5.3,3.7
2022,10,23,15:00,UTC,0,1008.8,0,72,0,-1,6.5,1.8,50000,319,5.4,3.3
2022,10,23,15:10,UTC,1,1009,-,75,0,-1,6,1.8,50000,318,4.5,3.3
2022,10,23,15:20,UTC,1,1009,-,75,0,-1,5.9,1.8,50000,321,3.9,2.6
2022,10,23,15:30,UTC,1,1009.1,-,78,0,-1,5.4,1.8,50000,309,3.3,2.3
2022,10,23,15:40,UTC,0,1009.3,-,77,0,-1,5.5,1.8,50000,322,3.1,2.5
2022,10,23,15:50,UTC,0,1009.4,-,80,0,-1,5,1.8,50000,315,2.9,2.3
2022,10,23,16:00,UTC,0,1009.5,0,81,0,-1,5,2,50000,317,3.6,2.5
2022,10,23,16:10,UTC,0,1009.6,-,81,0,-1,4.8,1.9,50000,325,4.2,2.9
2022,10,23,16:20,UTC,0,1009.7,-,79,0,-1,5,1.7,50000,336,4.4,2.9
2022,10,23,16:30,UTC,0,1009.9,-,78,0,-1,5.2,1.7,50000,345,4.3,2.5
2022,10,23,16:40,UTC,1,1010.1,-,80,0,-1,4.7,1.5,50000,337,3.3,2.3
2022,10,23,16:50,UTC,3,1010.2,-,81,0,-1,4.6,1.6,50000,333,2.9,2.2
2022,10,23,17:00,UTC,1,1010.3,0,82,0,-1,4.3,1.5,48160,332,4,2.5
2022,10,23,17:10,UTC,5,1010.4,-,81,0,-1,4.6,1.6,50000,339,4.5,3
2022,10,23,17:20,UTC,5,1010.5,-,81,0,-1,4.6,1.5,50000,343,4.3,2.7
2022,10,23,17:30,UTC,7,1010.5,-,84,0,-1,4,1.5,50000,329,4.9,3.4
2022,10,23,17:40,UTC,5,1010.5,-,84,0,-1,3.9,1.5,50000,319,4.4,2.8
2022,10,23,17:50,UTC,3,1010.7,-,85,0,-1,3.8,1.6,50000,318,5.3,3.2
2022,10,23,18:00,UTC,1,1010.9,0,84,0,-1,4,1.5,50000,335,4.8,3.4
2022,10,23,18:10,UTC,1,1011.1,-,83,0,-1,4,1.4,50000,338,4.6,3.1
2022,10,23,18:20,UTC,1,1011.1,-,85,0,-1,3.4,1.2,50000,328,4.6,2.8
2022,10,23,18:30,UTC,1,1011.2,-,88,0,-1,3.1,1.2,50000,324,5,3.5
2022,10,23,18:40,UTC,0,1011.4,-,88,0,-1,3.1,1.3,50000,323,4.7,3.5
2022,10,23,18:50,UTC,0,1011.5,-,86,0,-1,3.3,1.2,50000,327,5,3.5
2022,10,23,19:00,UTC,0,1011.6,0,87,0,-1,3.2,1.1,50000,331,5.7,3.6
2022,10,23,19:10,UTC,0,1011.7,-,87,0,-1,3.2,1.2,50000,336,5.1,3.4
2022,10,23,19:20,UTC,0,1011.8,-,87,0,-1,3.1,1.1,50000,338,4.5,3
2022,10,23,19:30,UTC,0,1012,-,87,0,-1,3.1,1.2,50000,343,5,3
2022,10,23,19:40,UTC,0,1012.1,-,88,0,-1,2.8,1,50000,340,4.7,3.1
2022,10,23,19:50,UTC,0,1012.2,-,89,0,-1,2.5,0.8,50000,336,4.5,2.9
2022,10,23,20:00,UTC,0,1012.2,0,90,0,-1,2.3,0.9,50000,332,4.4,2.9
2022,10,23,20:10,UTC,0,1012.3,-,91,0,-1,2,0.7,50000,337,5.1,3.4
2022,10,23,20:20,UTC,0,1012.4,-,91,0,-1,1.8,0.5,50000,334,5.3,3.4
2022,10,23,20:30,UTC,0,1012.4,-,93,0,-1,1.7,0.6,50000,332,5.3,3.6
2022,10,23,20:40,UTC,0,1012.4,-,91,0,-1,2,0.6,50000,345,4.7,3
2022,10,23,20:50,UTC,0,1012.5,-,91,0,-1,1.7,0.5,50000,345,5.6,3.6
2022,10,23,21:00,UTC,0,1012.6,0,92,0,-1,1.7,0.6,50000,345,5.4,3.3
2022,10,23,21:10,UTC,0,1012.7,-,92,0,-1,1.7,0.6,50000,343,5.8,3.5
2022,10,23,21:20,UTC,0,1012.8,-,91,0,-1,1.6,0.3,50000,344,4.5,3.2
2022,10,23,21:30,UTC,0,1012.8,-,92,0,-1,1.3,0.1,50000,341,5,3.4
2022,10,23,21:40,UTC,0,1013,-,92,0,-1,1.4,0.2,50000,343,5.1,3.2
2022,10,23,21:50,UTC,0,1013,-,92,0,-1,1.3,0.1,50000,340,5.2,3.5
2022,10,23,22:00,UTC,0,1013.1,0,92,0,-1,1.2,0,50000,345,4.5,3
2022,10,23,22:10,UTC,0,1013.2,-,92,0,-1,1.1,-0.1,50000,343,5,3.1
2022,10,23,22:20,UTC,0,1013.2,-,93,0,-1,0.7,-0.4,50000,338,4.6,3.2
2022,10,23,22:30,UTC,0,1013.4,-,94,0,-1,0.7,-0.1,50000,342,4.8,3.5
2022,10,23,22:40,UTC,0,1013.4,-,93,0,-1,0.8,-0.2,50000,345,5.1,3.2
2022,10,23,22:50,UTC,0,1013.6,-,94,0,-1,0.4,-0.4,50000,335,4.7,3.3
2022,10,23,23:00,UTC,0,1013.6,0,94,0,-1,0.4,-0.4,50000,338,4.7,3.3
2022,10,23,23:10,UTC,0,1013.6,-,95,0,-1,0.3,-0.3,50000,343,4.7,3.1
2022,10,23,23:20,UTC,0,1013.8,-,95,0,-1,0.2,-0.5,50000,342,4.2,2.5
2022,10,23,23:30,UTC,0,1013.8,-,95,0,-1,-0.2,-0.9,50000,335,4,2.5
2022,10,23,23:40,UTC,0,1013.9,-,96,0,-1,-0.6,-1.1,50000,319,3.7,2.6
2022,10,23,23:50,UTC,0,1013.9,-,98,0,-1,-0.6,-0.9,50000,315,3.3,2.5
2022,10,24,00:00,UTC,0,1014,0,98,0,-1,-0.7,-1,50000,306,3.7,2.8
2022,10,24,00:10,UTC,0,1014,-,98,0,-1,-0.7,-0.9,50000,307,3.6,2.9
2022,10,24,00:20,UTC,0,1014.2,-,98,0,-1,-0.7,-1,50000,314,3.4,3
2022,10,24,00:30,UTC,0,1014.2,-,98,0,-1,-0.9,-1.1,50000,309,3.7,3
2022,10,24,00:40,UTC,0,1014.4,-,98,0,-1,-1.1,-1.3,50000,322,3.6,3
2022,10,24,00:50,UTC,0,1014.5,-,99,0,-1,-1.2,-1.4,50000,319,3.7,2.9
2022,10,24,01:00,UTC,0,1014.5,0,99,0,-1,-1.3,-1.4,50000,313,3.3,2.7
2022,10,24,01:10,UTC,0,1014.5,-,99,0,-1,-1.3,-1.4,50000,314,3.5,2.7
2022,10,24,01:20,UTC,0,1014.6,-,100,0,-1,-1.3,-1.4,50000,314,3.3,2.7
2022,10,24,01:30,UTC,0,1014.7,-,99,0,-1,-1.4,-1.5,50000,307,3.7,2.8
2022,10,24,01:40,UTC,0,1014.7,-,100,0,-1,-1.3,-1.4,50000,318,3.3,2.7
2022,10,24,01:50,UTC,0,1014.7,-,100,0,-1,-1.4,-1.4,50000,319,3.2,2.7
2022,10,24,02:00,UTC,0,1014.7,0,100,0,-1,-1.6,-1.6,50000,311,3.5,3
2022,10,24,02:10,UTC,0,1014.6,-,100,0,-1,-1.4,-1.4,50000,307,4.3,3.2
2022,10,24,02:20,UTC,0,1014.7,-,100,0,-1,-1.3,-1.3,50000,305,4.3,3.5
2022,10,24,02:30,UTC,0,1014.6,-,100,0,-1,-1.4,-1.5,50000,319,3.7,3.2
2022,10,24,02:40,UTC,0,1014.9,-,100,0,-1,-1.3,-1.3,50000,346,3.2,2.1
2022,10,24,02:50,UTC,0,1014.9,-,100,0,-1,-1.5,-1.5,50000,7,2.6,1.3
2022,10,24,03:00,UTC,0,1015.1,0,100,0,-1,-1.7,-1.7,50000,344,1.6,1.1
2022,10,24,03:10,UTC,0,1015.2,-,100,0,-1,-1.6,-1.6,50000,355,3.3,1.3
2022,10,24,03:20,UTC,0,1015.2,-,100,0,-1,-1.5,-1.5,50000,357,3.7,2
2022,10,24,03:30,UTC,0,1015.3,-,100,0,-1,-1.6,-1.6,50000,338,2.6,1.8
2022,10,24,03:40,UTC,0,1015.5,-,100,0,-1,-1.4,-1.4,50000,351,3.8,2
2022,10,24,03:50,UTC,0,1015.5,-,100,0,-1,-1.7,-1.7,50000,333,2.3,1.8
2022,10,24,04:00,UTC,0,1015.6,0,100,0,-1,-2.1,-2.1,50000,288,2.4,1.6
2022,10,24,04:10,UTC,0,1015.6,-,100,0,-1,-1.8,-1.8,50000,317,2.8,2.1
2022,10,24,04:20,UTC,0,1015.6,-,100,0,-1,-1.9,-1.9,50000,315,3,2.5
2022,10,24,04:30,UTC,0,1015.7,-,100,0,-1,-1.7,-1.7,50000,317,3,2.5
2022,10,24,04:40,UTC,0,1015.7,-,100,0,-1,-1.5,-1.5,50000,321,2.8,2.6
2022,10,24,04:50,UTC,0,1015.8,-,100,0,-1,-1.7,-1.7,50000,331,3.1,2.7
2022,10,24,05:00,UTC,0,1015.8,0,100,0,-1,-2,-2.1,50000,333,3.4,2.8
2022,10,24,05:10,UTC,0,1015.9,-,100,0,-1,-2.1,-2.1,48360,332,3.5,2.7
2022,10,24,05:20,UTC,0,1016,-,100,0,-1,-2.2,-2.2,48040,333,3.4,2.7
2022,10,24,05:30,UTC,0,1016,-,100,0,-1,-2.1,-2.1,40170,336,3.7,3
2022,10,24,05:40,UTC,0,1016,-,100,0,-1,-1.8,-1.8,50000,349,3.6,2.3
2022,10,24,05:50,UTC,0,1016,-,100,0,-1,-2,-2,42340,345,3.4,2.5
2022,10,24,06:00,UTC,0,1016.2,0,100,0,-1,-1.5,-1.5,50000,349,4.8,3.1
2022,10,24,06:10,UTC,0,1016.2,-,100,0,-1,-1.3,-1.3,50000,7,4.5,2.8
2022,10,24,06:20,UTC,0,1016.2,-,100,0,-1,-1.3,-1.3,41750,6,3.7,2.4
2022,10,24,06:30,UTC,0,1016.3,-,100,0,-1,-1.2,-1.3,49850,357,4,2.2
2022,10,24,06:40,UTC,0,1016.3,-,100,0,-1,-0.7,-0.7,50000,8,3.7,2.2
2022,10,24,06:50,UTC,0,1016.4,-,98,0,-1,-0.3,-0.5,44060,34,3.3,1.8
2022,10,24,07:00,UTC,0,1016.5,0,97,0,-1,-0.1,-0.6,46290,26,2.8,1.5
2022,10,24,07:10,UTC,0,1016.5,-,95,0,-1,0.6,-0.2,45300,20,2.8,1.7
2022,10,24,07:20,UTC,0,1016.5,-,91,0,-1,0.8,-0.4,46330,16,2.2,1.3
2022,10,24,07:30,UTC,0,1016.4,-,88,0,-1,1.7,-0.1,50000,18,2.6,1.4
2022,10,24,07:40,UTC,0,1016.5,-,85,0,-1,2,-0.2,45790,17,2.2,1
2022,10,24,07:50,UTC,0,1016.5,-,87,0,-1,2.3,0.3,45880,25,1.9,0.8
2022,10,24,08:00,UTC,0,1016.6,0,80,0,-1,2.8,-0.4,37630,50,4.5,1.7
2022,10,24,08:10,UTC,0,1016.7,-,80,0,-1,2.5,-0.5,40650,48,3.3,1.7
2022,10,24,08:20,UTC,0,1016.8,-,79,0,-1,2.4,-0.9,40660,33,2.4,1.4
2022,10,24,08:30,UTC,0,1016.7,-,78,0,-1,2.8,-0.6,43700,46,2,1.1
2022,10,24,08:40,UTC,0,1016.8,-,75,0,-1,3.2,-0.8,40880,58,2.8,1.5
2022,10,24,08:50,UTC,0,1016.8,-,75,0,-1,3.4,-0.7,42310,61,3,1.6
2022,10,24,09:00,UTC,0,1016.9,0,72,0,-1,3.8,-0.8,45070,62,2.1,1.2
2022,10,24,09:10,UTC,0,1016.9,-,68,0,-1,4.1,-1.3,38060,29,2.9,1.3
2022,10,24,09:20,UTC,0,1017,-,67,0,-1,4.4,-1.3,44080,60,2.4,1.5
2022,10,24,09:30,UTC,0,1017,-,64,0,-1,4.6,-1.7,47410,61,2.7,1.6
2022,10,24,09:40,UTC,0,1017.1,-,64,0,-1,4.9,-1.4,41620,58,3.3,1.7
2022,10,24,09:50,UTC,0,1017.1,-,63,0,-1,5.1,-1.4,39840,46,2.7,1.6
2022,10,24,10:00,UTC,0,1017.1,0,61,0,-1,5.3,-1.7,50000,89,3,2
2022,10,24,10:10,UTC,0,1017.1,-,57,0,-1,5.5,-2.3,47810,102,3.9,1.8
2022,10,24,10:20,UTC,0,1017,-,58,0,-1,5.7,-2,46400,120,3.7,1.6
2022,10,24,10:30,UTC,0,1017,-,57,0,-1,5.7,-2.1,50000,90,3.8,2.5
2022,10,24,10:40,UTC,0,1017,-,56,0,-1,5.7,-2.5,39520,98,3.9,2.5
2022,10,24,10:50,UTC,0,1017,-,51,0,-1,5.8,-3.6,48300,112,4.1,2.4
2022,10,24,11:00,UTC,0,1017,0,51,0,-1,5.9,-3.5,43660,93,3.5,1.7
2022,10,24,11:10,UTC,0,1017,-,53,0,-1,6,-2.8,47650,127,3.2,1.8
2022,10,24,11:20,UTC,0,1017,-,54,0,-1,5.9,-2.7,44000,107,3.1,1.8
2022,10,24,11:30,UTC,0,1016.9,-,53,0,-1,5.9,-3,49180,96,3.3,2.2
2022,10,24,11:40,UTC,0,1016.9,-,54,0,-1,6,-2.6,43930,87,4,2.4
2022,10,24,11:50,UTC,1,1016.9,-,53,0,-1,6,-2.9,44650,111,3.7,2.2
2022,10,24,12:00,UTC,0,1016.9,0,53,0,-1,5.9,-3.1,50000,108,3.9,2.1
2022,10,24,12:10,UTC,0,1016.8,-,52,0,-1,6.1,-3.1,45660,122,2.9,1.6
2022,10,24,12:20,UTC,0,1016.7,-,51,0,-1,6.2,-3.3,48800,142,3.7,2
2022,10,24,12:30,UTC,0,1016.7,-,53,0,-1,6.2,-2.7,50000,166,4.4,2.5
2022,10,24,12:40,UTC,0,1016.6,-,50,0,-1,6.8,-2.9,43660,184,3.2,1.9
2022,10,24,12:50,UTC,0,1016.5,-,52,0,-1,6.3,-2.8,44100,150,3.8,2.7
2022,10,24,13:00,UTC,0,1016.5,0,52,0,-1,6.1,-3,49100,143,3.7,3
2022,10,24,13:10,UTC,0,1016.5,-,54,0,-1,6.1,-2.6,50000,147,4.3,2.9
2022,10,24,13:20,UTC,0,1016.5,-,53,0,-1,6.1,-2.8,47680,154,3.3,2.6
2022,10,24,13:30,UTC,0,1016.4,-,54,0,-1,5.7,-2.9,50000,156,3.6,2.5
2022,10,24,13:40,UTC,0,1016.4,-,55,0,-1,5.5,-2.8,50000,150,3.4,2.2
2022,10,24,13:50,UTC,0,1016.4,-,55,0,-1,5.3,-3,50000,145,3.4,2.3
2022,10,24,14:00,UTC,0,1016.4,0,56,0,-1,4.9,-3.1,50000,153,3.2,2.3
2022,10,24,14:10,UTC,0,1016.3,-,56,0,-1,4.8,-3.2,50000,144,3.1,2.3
2022,10,24,14:20,UTC,0,1016.2,-,57,0,-1,4.5,-3.2,50000,139,2.8,2
2022,10,24,14:30,UTC,0,1016.2,-,57,0,-1,4.6,-3.1,50000,128,3,2.4
2022,10,24,14:40,UTC,0,1016.3,-,59,0,-1,4.3,-3.1,50000,134,2.5,2
2022,10,24,14:50,UTC,0,1016.3,-,60,0,-1,4,-3.2,50000,131,2.4,1.8
2022,10,24,15:00,UTC,0,1016.3,0,60,0,-1,3.9,-3.2,37700,133,2.7,2.2
2022,10,24,15:10,UTC,0,1016.3,-,62,0,-1,3.6,-3.1,48400,140,2.7,2.2
2022,10,24,15:20,UTC,0,1016.3,-,63,0,-1,3.3,-3,30320,143,2.8,2.3
2022,10,24,15:30,UTC,0,1016.3,-,64,0,-1,3.2,-3,25920,143,2.7,2.2
2022,10,24,15:40,UTC,0,1016.3,-,63,0,-1,3.5,-2.8,36240,137,2.7,2.2
2022,10,24,15:50,UTC,0,1016.3,-,65,0,-1,3.4,-2.6,36310,137,2.7,2.4
2022,10,24,16:00,UTC,0,1016.4,0,67,0,-1,3.2,-2.4,40060,131,2.5,2.3
2022,10,24,16:10,UTC,0,1016.4,-,68,0,-1,3,-2.3,50000,124,2.5,2.1
2022,10,24,16:20,UTC,0,1016.4,-,69,0,-1,2.6,-2.6,50000,120,2.7,2.3
2022,10,24,16:30,UTC,0,1016.4,-,69,0,-1,2.4,-2.7,50000,114,3.2,2.6
2022,10,24,16:40,UTC,0,1016.5,-,71,0,-1,1.7,-3,50000,108,2.9,2.4
2022,10,24,16:50,UTC,0,1016.5,-,75,0,-1,0.8,-3.1,50000,116,2.5,2.2
2022,10,24,17:00,UTC,0,1016.4,0,77,0,-1,1,-2.5,50000,117,2.9,2.5
2022,10,24,17:10,UTC,0,1016.4,-,77,0,-1,0.7,-2.8,50000,121,2.7,2.4
2022,10,24,17:20,UTC,0,1016.4,-,79,0,-1,0.4,-2.8,50000,113,3.1,2.5
2022,10,24,17:30,UTC,0,1016.5,-,80,0,-1,0.2,-2.9,50000,107,2.8,2.5
2022,10,24,17:40,UTC,0,1016.5,-,81,0,-1,-0.1,-2.9,50000,103,3.4,2.7
2022,10,24,17:50,UTC,0,1016.5,-,83,0,-1,-0.2,-2.8,50000,101,3.5,2.9
2022,10,24,18:00,UTC,0,1016.5,0,82,0,-1,-0.2,-2.8,50000,104,3.8,3
2022,10,24,18:10,UTC,0,1016.5,-,82,0,-1,-0.5,-3.1,50000,95,4.3,3.6
2022,10,24,18:20,UTC,0,1016.4,-,84,0,-1,-0.5,-2.9,50000,95,4.3,3.7
2022,10,24,18:30,UTC,0,1016.3,-,83,0,-1,-0.6,-3,50000,92,4.7,3.8
2022,10,24,18:40,UTC,0,1016.3,-,85,0,-1,-0.9,-3.2,50000,94,4.7,3.6
2022,10,24,18:50,UTC,0,1016.2,-,86,0,-1,-0.9,-3,50000,86,4.3,3.7
2022,10,24,19:00,UTC,0,1016.2,0,86,0,-1,-0.8,-2.8,50000,89,4.8,3.8
2022,10,24,19:10,UTC,0,1016.1,-,88,0,-1,-1,-2.9,50000,91,4.7,4
2022,10,24,19:20,UTC,0,1016,-,87,0,-1,-0.9,-2.8,50000,87,4.5,4
2022,10,24,19:30,UTC,0,1016,-,89,0,-1,-1.1,-2.7,49870,86,4.7,4
2022,10,24,19:40,UTC,0,1015.9,-,90,0,-1,-0.8,-2.3,48020,86,5,4.3
2022,10,24,19:50,UTC,0,1015.9,-,89,0,-1,-0.9,-2.6,50000,86,4.7,3.7
2022,10,24,20:00,UTC,0,1015.8,0,90,0,-1,-1,-2.3,49640,83,4.4,3.4
2022,10,24,20:10,UTC,0,1015.8,-,91,0,-1,-0.9,-2.2,45290,87,3.8,3.1
2022,10,24,20:20,UTC,0,1015.7,-,89,0,-1,-0.8,-2.3,50000,85,4.6,3.4
2022,10,24,20:30,UTC,0,1015.6,-,90,0,-1,-0.6,-2,48080,84,4.4,3.7
2022,10,24,20:40,UTC,0,1015.6,-,89,0,-1,-0.6,-2.1,50000,85,4.4,3.6
2022,10,24,20:50,UTC,0,1015.5,-,88,0,-1,-0.3,-2,49380,85,4.9,3.7
2022,10,24,21:00,UTC,0,1015.4,0,89,0,-1,-0.5,-2.1,50000,82,4.6,3.7
2022,10,24,21:10,UTC,1,1015.5,-,88,0,-1,-0.5,-2.2,50000,83,4.6,3.7
2022,10,24,21:20,UTC,1,1015.6,-,88,0,-1,-0.5,-2.3,50000,85,4.2,3.2
2022,10,24,21:30,UTC,1,1015.6,-,89,0,-1,-0.5,-2.1,50000,86,3.9,3
2022,10,24,21:40,UTC,3,1015.6,-,88,0,-1,-0.4,-2.1,50000,89,4.2,3
2022,10,24,21:50,UTC,1,1015.6,-,87,0,-1,0.4,-1.5,50000,88,4.9,3.4
2022,10,24,22:00,UTC,1,1015.6,0,86,0,-1,0.5,-1.6,50000,86,4.5,3.4
2022,10,24,22:10,UTC,1,1015.6,-,83,0,-1,0.8,-1.7,50000,86,4.8,3.5
2022,10,24,22:20,UTC,1,1015.5,-,84,0,-1,0.8,-1.5,50000,86,4.3,3.4
2022,10,24,22:30,UTC,1,1015.5,-,84,0,-1,0.6,-1.9,50000,86,4.2,3.3
2022,10,24,22:40,UTC,1,1015.4,-,85,0,-1,0,-2.1,50000,87,4.3,3.5
2022,10,24,22:50,UTC,1,1015.4,-,87,0,-1,-0.5,-2.4,50000,86,4.5,3.4
2022,10,24,23:00,UTC,1,1015.3,0,91,0,-1,-0.8,-2.1,50000,88,3.9,3
2022,10,24,23:10,UTC,1,1015.2,-,91,0,-1,-0.4,-1.8,50000,86,3.9,3
2022,10,24,23:20,UTC,1,1015.1,-,90,0,-1,0.2,-1.2,50000,89,4.4,3.4
2022,10,24,23:30,UTC,0,1015,-,90,0,-1,-0.3,-1.7,50000,85,4.6,3.5
2022,10,24,23:40,UTC,3,1014.9,-,90,0,-1,0.7,-0.8,50000,88,4.5,3.5
2022,10,24,23:50,UTC,5,1014.9,-,89,0,-1,0.3,-1.3,50000,89,4.1,3.2
2022,10,25,00:00,UTC,7,1014.8,0,90,0,-1,0.4,-1.1,50000,94,4.1,3.1
2022,10,25,00:10,UTC,8,1014.7,-,89,0,-1,0.5,-1.1,50000,96,4.1,3
2022,10,25,00:20,UTC,8,1014.6,-,89,0,-1,0.7,-0.9,50000,93,4.2,3.1
2022,10,25,00:30,UTC,7,1014.5,-,90,0,-1,0.7,-0.8,50000,89,4.4,3
2022,10,25,00:40,UTC,8,1014.5,-,89,0,-1,1,-0.7,50000,94,4.1,2.9
2022,10,25,00:50,UTC,8,1014.4,-,88,0,-1,1.1,-0.7,50000,115,4.4,3
2022,10,25,01:00,UTC,8,1014.3,0,88,0,-1,1.3,-0.5,50000,114,4.8,3.1
2022,10,25,01:10,UTC,8,1014.1,-,82,0,-1,2.4,-0.4,50000,112,5,3.7
2022,10,25,01:20,UTC,8,1014.1,-,87,0,-1,1.7,-0.3,50000,108,4.7,3.5
2022,10,25,01:30,UTC,7,1013.9,-,82,0,-1,2.9,0.2,50000,111,4.4,3.2
2022,10,25,01:40,UTC,8,1013.8,-,80,0,-1,3.3,0.1,50000,130,5.6,4.1
2022,10,25,01:50,UTC,7,1013.8,-,80,0,-1,3.7,0.6,50000,134,6.4,4.4
2022,10,25,02:00,UTC,3,1013.7,0,79,0,-1,4.3,1,50000,138,7.4,4.7
2022,10,25,02:10,UTC,1,1013.6,-,79,0,-1,4.6,1.3,50000,135,8.4,5.1
2022,10,25,02:20,UTC,0,1013.5,-,78,0,-1,5.1,1.7,50000,130,7.9,5.1
2022,10,25,02:30,UTC,0,1013.4,-,79,0,-1,5,1.7,50000,132,7.1,4.9
2022,10,25,02:40,UTC,0,1013.3,-,80,0,-1,5,1.9,50000,132,7.7,5
2022,10,25,02:50,UTC,3,1013.1,-,80,0,-1,5.3,2.2,50000,128,8.3,5.4
2022,10,25,03:00,UTC,5,1013.1,0,81,0,-1,5.3,2.2,50000,129,7.3,4.9
2022,10,25,03:10,UTC,7,1013,-,80,0,-1,5.5,2.4,50000,130,7.3,5
2022,10,25,03:20,UTC,5,1012.9,-,80,0,-1,5.6,2.4,50000,132,7.7,5.5
2022,10,25,03:30,UTC,7,1012.9,-,81,0,-1,5.8,2.7,50000,134,8.3,5.8
2022,10,25,03:40,UTC,7,1012.9,-,81,0,-1,5.9,2.9,50000,135,8.7,4.7
2022,10,25,03:50,UTC,8,1012.7,-,80,0,-1,6,2.9,50000,136,8,5.5
2022,10,25,04:00,UTC,8,1012.6,0,80,0,-1,6.1,2.9,50000,133,8.5,5.1
2022,10,25,04:10,UTC,7,1012.5,-,79,0,-1,6.2,2.9,50000,132,9.3,5.6
2022,10,25,04:20,UTC,8,1012.4,-,80,0,-1,6.2,3,50000,131,9.4,5.2
2022,10,25,04:30,UTC,7,1012.3,-,80,0,-1,6.4,3.1,50000,131,9.4,5.6
2022,10,25,04:40,UTC,7,1012.2,-,80,0,-1,6.4,3.2,50000,131,9.4,6
2022,10,25,04:50,UTC,8,1012.2,-,81,0,-1,6.5,3.4,50000,128,10,6.3
2022,10,25,05:00,UTC,8,1012.1,0,82,0,-1,6.5,3.6,50000,129,9.3,6.1
2022,10,25,05:10,UTC,8,1012,-,82,0,-1,6.5,3.8,50000,130,9.1,5.3
2022,10,25,05:20,UTC,8,1011.9,-,83,0,-1,6.6,4,50000,127,10.4,6.3
2022,10,25,05:30,UTC,7,1011.9,-,85,0,-1,6.7,4.3,50000,127,10.6,6.5
2022,10,25,05:40,UTC,7,1011.8,-,85,0,-1,6.7,4.4,50000,127,8.8,6.1
2022,10,25,05:50,UTC,8,1011.9,-,86,0,-1,6.7,4.6,50000,129,8.2,5.7
2022,10,25,06:00,UTC,8,1011.8,0,87,0,-1,6.7,4.7,48630,129,10.2,6.4
2022,10,25,06:10,UTC,7,1011.8,-,88,0,-1,6.7,4.8,50000,126,9.3,5.4
2022,10,25,06:20,UTC,7,1011.8,-,88,0,-1,6.7,4.9,50000,129,9.3,5.6
2022,10,25,06:30,UTC,7,1011.7,-,88,0,-1,6.7,4.9,49950,130,8.7,5.6
2022,10,25,06:40,UTC,7,1011.7,-,89,0,-1,6.7,5,44380,131,9.5,5.8
2022,10,25,06:50,UTC,8,1011.7,-,91,0.6,-1,6.6,5.2,23090,130,8.4,5.4
2022,10,25,07:00,UTC,8,1011.6,0.1,92,0.2,-1,6.5,5.4,21120,128,9.6,6
2022,10,25,07:10,UTC,8,1011.5,-,93,0.6,-1,6.5,5.5,25640,126,8.8,4.9
2022,10,25,07:20,UTC,7,1011.4,-,94,0.4,-1,6.5,5.7,20860,130,7.7,5.2
2022,10,25,07:30,UTC,7,1011.3,-,95,0.5,-1,6.6,5.8,28050,132,6.9,4.8
2022,10,25,07:40,UTC,7,1011.3,-,95,0.3,-1,6.6,5.8,32190,133,8.6,5.3
2022,10,25,07:50,UTC,8,1011.3,-,95,0.1,-1,6.7,5.9,31600,129,8.1,5.1
2022,10,25,08:00,UTC,8,1011.2,0.3,95,0,-1,6.7,6,26980,127,7.4,4.7
2022,10,25,08:10,UTC,7,1011.1,-,96,0.5,-1,6.8,6.1,18720,127,8.4,5
2022,10,25,08:20,UTC,7,1011.1,-,96,0.9,-1,6.8,6.1,12860,126,8,5.3
2022,10,25,08:30,UTC,7,1011.2,-,96,1.5,-1,6.8,6.3,10580,127,8.3,5.2
2022,10,25,08:40,UTC,7,1011.2,-,96,1.3,-1,6.9,6.3,10010,125,9,5.7
2022,10,25,08:50,UTC,8,1011.1,-,97,1.3,-1,6.9,6.4,15080,123,9.3,6.3
2022,10,25,09:00,UTC,8,1011.1,1.1,96,0.8,-1,6.9,6.4,14640,122,8.7,6.3
2022,10,25,09:10,UTC,8,1011,-,97,0.7,-1,7,6.5,19580,121,9.7,7
2022,10,25,09:20,UTC,7,1010.9,-,97,0.7,-1,7,6.5,16840,122,9.3,6.6
2022,10,25,09:30,UTC,7,1010.9,-,96,0.5,-1,7,6.5,18750,123,10,6.7
2022,10,25,09:40,UTC,7,1010.8,-,96,0.8,-1,6.9,6.3,15220,125,9.1,6.5
2022,10,25,09:50,UTC,8,1010.7,-,96,0.8,-1,6.9,6.3,19460,125,9.7,6.8
2022,10,25,10:00,UTC,8,1010.8,0.7,96,0.4,-1,6.9,6.4,13490,125,9.4,6.5
2022,10,25,10:10,UTC,8,1010.7,-,97,1,-1,6.9,6.4,6950,124,10.4,6.7
2022,10,25,10:20,UTC,8,1010.6,-,97,1.7,-1,6.9,6.5,5810,123,9.9,6.3
2022,10,25,10:30,UTC,7,1010.5,-,98,1.1,-1,6.8,6.5,6990,122,9.7,6.5
2022,10,25,10:40,UTC,7,1010.5,-,98,0.4,-1,6.8,6.6,8220,122,8.6,6.2
2022,10,25,10:50,UTC,8,1010.4,-,98,0.1,-1,6.9,6.6,9510,122,9.6,6.7
2022,10,25,11:00,UTC,8,1010.3,0.8,98,0.3,-1,6.9,6.7,8630,120,10.3,7.5
2022,10,25,11:10,UTC,8,1010.2,-,99,0.4,-1,6.9,6.8,8480,119,10.2,7.2
2022,10,25,11:20,UTC,8,1010.2,-,99,0.7,-1,7,6.8,10300,120,10.2,7.1
2022,10,25,11:30,UTC,7,1010.2,-,99,1.2,-1,7,6.9,9610,120,10.1,6.6
2022,10,25,11:40,UTC,7,1010,-,99,0.4,-1,7.1,7,7330,125,11.5,7.5
2022,10,25,11:50,UTC,8,1009.9,-,99,0.3,-1,7.2,7,5310,121,10.6,7.4
2022,10,25,12:00,UTC,8,1009.8,0.5,99,0.1,-1,7.2,7.1,4560,125,9.9,7.4
2022,10,25,12:10,UTC,8,1009.7,-,100,0.3,-1,7.2,7.2,5560,121,11,7.9
2022,10,25,12:20,UTC,7,1009.7,-,100,0.1,-1,7.3,7.2,7640,123,10.7,7.2
2022,10,25,12:30,UTC,7,1009.7,-,99,0.4,-1,7.2,7.1,5990,125,10.2,7.1
2022,10,25,12:40,UTC,7,1009.8,-,99,0.3,-1,7.2,7.1,4190,126,9.6,5.8
2022,10,25,12:50,UTC,8,1009.8,-,99,0.7,-1,7.2,7.1,5690,131,10.2,6
2022,10,25,13:00,UTC,8,1009.7,0.4,99,0.3,-1,7.2,7.1,7560,126,10.2,6.3
2022,10,25,13:10,UTC,8,1009.7,-,99,0,-1,7.2,7.1,6140,129,10.7,6.8
2022,10,25,13:20,UTC,8,1009.6,-,99,0,-1,7.2,7.1,6770,131,10.7,6.7
2022,10,25,13:30,UTC,8,1009.5,-,100,0.3,-1,7.2,7.2,6470,132,11.5,6.8
2022,10,25,13:40,UTC,7,1009.4,-,100,0,-1,7.2,7.2,9080,131,9.2,6.5
2022,10,25,13:50,UTC,8,1009.4,-,100,0,-1,7.3,7.3,8350,130,11.1,6.6
2022,10,25,14:00,UTC,8,1009.4,0.1,100,0,-1,7.3,7.3,11480,131,9.8,6.1
2022,10,25,14:10,UTC,8,1009.4,-,100,0,-1,7.3,7.3,14810,134,9.3,6.1
2022,10,25,14:20,UTC,8,1009.3,-,100,0,-1,7.4,7.3,9920,132,8.9,6.1
2022,10,25,14:30,UTC,8,1009.3,-,100,0,-1,7.4,7.3,11340,132,8.9,6.1
2022,10,25,14:40,UTC,7,1009.3,-,100,0,-1,7.4,7.4,6930,135,8.8,5.5
2022,10,25,14:50,UTC,7,1009.2,-,100,0.3,-1,7.4,7.4,6020,131,8.7,5.6
2022,10,25,15:00,UTC,8,1009.3,0.1,100,0,-1,7.3,7.3,4160,133,9,5.7
2022,10,25,15:10,UTC,8,1009.2,-,100,0.4,-1,7.3,7.3,3640,132,8.3,5.4
2022,10,25,15:20,UTC,8,1009.2,-,100,0.5,-1,7.4,7.4,4230,128,7.9,5.5
2022,10,25,15:30,UTC,7,1009.2,-,100,0.2,-1,7.3,7.3,5090,129,7.8,5.5
2022,10,25,15:40,UTC,7,1009.2,-,100,0,-1,7.4,7.4,5960,128,7.7,5.8
2022,10,25,15:50,UTC,7,1009.2,-,100,0.3,-1,7.4,7.4,5840,132,7.5,5.4
2022,10,25,16:00,UTC,7,1009.2,0.3,100,0.6,-1,7.4,7.4,4680,135,8.5,5.6
2022,10,25,16:10,UTC,8,1009,-,100,0.5,-1,7.4,7.4,4790,131,7.9,5
2022,10,25,16:20,UTC,8,1009,-,100,0.6,-1,7.3,7.3,4330,130,8,5.2
2022,10,25,16:30,UTC,8,1009,-,100,0.2,-1,7.3,7.3,3760,134,6.8,4.8
2022,10,25,16:40,UTC,7,1009,-,100,0.5,-1,7.4,7.4,3540,133,6.1,4
2022,10,25,16:50,UTC,8,1009,-,100,0.1,-1,7.4,7.4,3940,135,6.5,4.5
2022,10,25,17:00,UTC,8,1009,0.5,100,0.7,-1,7.4,7.4,3740,131,6.4,4.3
2022,10,25,17:10,UTC,8,1008.9,-,100,0.6,-1,7.3,7.3,3830,128,6.1,4.2
2022,10,25,17:20,UTC,8,1008.9,-,100,0.1,-1,7.3,7.3,4450,130,6.2,4
2022,10,25,17:30,UTC,8,1008.9,-,100,0.8,-1,7.4,7.4,5860,131,6.3,4.1
2022,10,25,17:40,UTC,7,1008.9,-,100,1.4,-1,7.4,7.4,5570,133,5.4,3.5
2022,10,25,17:50,UTC,8,1008.9,-,100,2.3,-1,7.4,7.4,4200,131,5.6,4.1
2022,10,25,18:00,UTC,8,1008.8,1.2,100,1.8,-1,7.4,7.4,3620,128,6.1,3.1
2022,10,25,18:10,UTC,7,1008.8,-,100,1,-1,7.4,7.4,5030,128,5.8,4
2022,10,25,18:20,UTC,8,1008.7,-,100,0.4,-1,7.5,7.5,6550,126,5.2,3.8
2022,10,25,18:30,UTC,8,1008.6,-,100,0.1,-1,7.5,7.5,8280,125,5.6,4.1
2022,10,25,18:40,UTC,7,1008.6,-,100,0.3,-1,7.5,7.5,6080,125,5.2,3.7
2022,10,25,18:50,UTC,7,1008.5,-,100,0.2,-1,7.5,7.5,5560,125,5.2,3.6
2022,10,25,19:00,UTC,8,1008.5,0.4,100,0.3,-1,7.5,7.5,4940,128,4.7,3.3
2022,10,25,19:10,UTC,8,1008.5,-,100,0.4,-1,7.5,7.5,6570,128,5.5,3.8
2022,10,25,19:20,UTC,7,1008.4,-,100,0,-1,7.6,7.6,10910,131,5.6,3.9
2022,10,25,19:30,UTC,7,1008.4,-,100,0,-1,7.6,7.6,21140,133,5.7,3.7
2022,10,25,19:40,UTC,7,1008.3,-,100,0,-1,7.7,7.7,34540,131,5.7,3.8
2022,10,25,19:50,UTC,8,1008.3,-,100,0,-1,7.7,7.7,30580,129,5.2,3.8
2022,10,25,20:00,UTC,8,1008.4,0.1,100,0,-1,7.7,7.7,38500,133,6.1,4.3
2022,10,25,20:10,UTC,8,1008.3,-,100,0,-1,7.7,7.7,19550,131,5.2,3.8
2022,10,25,20:20,UTC,8,1008.3,-,100,0,-1,7.7,7.7,7400,131,4.9,3.9
2022,10,25,20:30,UTC,8,1008.2,-,100,0,-1,7.7,7.7,3450,131,5.4,3.6
2022,10,25,20:40,UTC,7,1008.2,-,100,0,-1,7.8,7.8,3730,131,4.8,3.2
2022,10,25,20:50,UTC,8,1008.1,-,100,0.3,-1,7.7,7.7,3210,135,5.5,3.5
2022,10,25,21:00,UTC,8,1008.1,0.1,100,0.4,-1,7.8,7.8,4020,137,5.3,3.8
2022,10,25,21:10,UTC,8,1008.1,-,100,0,-1,7.8,7.8,3350,139,4.6,3.1
2022,10,25,21:20,UTC,8,1008.1,-,100,0,-1,7.8,7.8,1970,132,4.4,3.2
2022,10,25,21:30,UTC,8,1008.1,-,100,1,-1,7.8,7.8,1770,135,4.1,2.8
2022,10,25,21:40,UTC,9,1008,-,100,1,-1,7.9,7.9,2510,131,5,3.3
2022,10,25,21:50,UTC,9,1008.1,-,100,3.4,-1,7.9,7.9,2420,133,3.4,2.3
2022,10,25,22:00,UTC,8,1008.1,1.8,100,5.5,-1,7.9,7.9,2930,133,4.3,2.9
2022,10,25,22:10,UTC,8,1008.1,-,100,5.8,-1,8,8,2270,135,4.1,3.1
2022,10,25,22:20,UTC,8,1008.1,-,100,1,-1,8,8,5600,133,4.1,3
2022,10,25,22:30,UTC,8,1008,-,100,0,-1,8,8,7060,129,4,3
2022,10,25,22:40,UTC,7,1008,-,100,0,-1,8.1,8.1,7260,125,3.8,3
2022,10,25,22:50,UTC,8,1008,-,100,0,-1,8.1,8.1,4630,127,3.8,3
2022,10,25,23:00,UTC,8,1008,1.2,100,0.3,-1,8.1,8.1,2480,129,3.9,3.2
2022,10,25,23:10,UTC,8,1008,-,100,0,-1,8.2,8.2,1880,126,4,3.2
2022,10,25,23:20,UTC,8,1007.9,-,100,0,-1,8.2,8.2,1350,127,3.8,3
2022,10,25,23:30,UTC,9,1007.9,-,100,0,-1,8.2,8.2,1220,128,3.5,2.8
2022,10,25,23:40,UTC,9,1007.9,-,100,1,-1,8.2,8.2,1240,132,3.3,2.6
2022,10,25,23:50,UTC,9,1007.8,-,100,0.1,-1,8.2,8.2,1240,134,3.9,3
2022,10,26,00:00,UTC,9,1007.8,0.2,100,0,-1,8.3,8.3,1100,126,4.3,3.2
2022,10,26,00:10,UTC,9,1007.7,-,100,0.3,-1,8.4,8.4,1400,126,3.5,2.8
2022,10,26,00:20,UTC,9,1007.7,-,100,0,-1,8.4,8.4,1060,123,4.3,3.1
2022,10,26,00:30,UTC,9,1007.7,-,100,0,-1,8.3,8.3,890,130,3.2,2.2
2022,10,26,00:40,UTC,9,1007.7,-,100,0,-1,8.4,8.4,610,128,3.4,2.5
2022,10,26,00:50,UTC,9,1007.6,-,100,0,-1,8.4,8.4,500,128,2.9,2.3
2022,10,26,01:00,UTC,9,1007.6,0.1,100,0,-1,8.5,8.5,380,129,3.2,2.6
2022,10,26,01:10,UTC,9,1007.6,-,100,0,-1,8.5,8.5,330,131,2.9,2.3
2022,10,26,01:20,UTC,9,1007.6,-,100,0,-1,8.5,8.5,310,127,3.6,2.9
2022,10,26,01:30,UTC,9,1007.6,-,100,0,-1,8.6,8.6,240,133,2.9,2
2022,10,26,01:40,UTC,9,1007.5,-,100,0,-1,8.7,8.7,190,142,2.4,1.8
2022,10,26,01:50,UTC,9,1007.5,-,100,0,-1,8.7,8.7,170,149,3,1.7
2022,10,26,02:00,UTC,9,1007.5,0,100,0,-1,8.7,8.7,190,158,2.8,1.8
2022,10,26,02:10,UTC,9,1007.4,-,100,0.3,-1,9,9,210,184,2.9,2.1
2022,10,26,02:20,UTC,9,1007.4,-,100,0,-1,9.1,9.1,260,192,3.2,2
2022,10,26,02:30,UTC,9,1007.3,-,100,0,-1,9.2,9.2,310,183,3.2,1.9
2022,10,26,02:40,UTC,9,1007.3,-,100,0,-1,9.3,9.3,300,187,3.8,2.1
2022,10,26,02:50,UTC,9,1007.2,-,100,0,-1,9.4,9.4,350,186,3.8,2.1
2022,10,26,03:00,UTC,9,1007.2,0.1,100,0,-1,9.5,9.5,340,196,4.4,2.5
2022,10,26,03:10,UTC,9,1007.2,-,100,0,-1,9.6,9.6,360,190,4.1,2.3
2022,10,26,03:20,UTC,9,1007.1,-,100,0,-1,9.6,9.6,400,180,4,2.2
2022,10,26,03:30,UTC,9,1007.1,-,100,0,-1,9.5,9.5,400,184,4.3,2.5
2022,10,26,03:40,UTC,9,1007.1,-,100,0,-1,9.6,9.6,460,187,5,2.7
2022,10,26,03:50,UTC,9,1007.2,-,100,0,-1,9.6,9.6,560,191,5.2,3.1
2022,10,26,04:00,UTC,9,1007.1,0.1,100,0.4,-1,9.8,9.8,620,192,6.1,3.6
2022,10,26,04:10,UTC,9,1007.1,-,100,0.5,-1,9.7,9.7,780,191,5.6,3.1
2022,10,26,04:20,UTC,8,1007.1,-,100,0.5,-1,9.8,9.8,1580,196,6.5,4
2022,10,26,04:30,UTC,7,1007.1,-,100,2,-1,9.8,9.8,2330,198,6.7,4.1
2022,10,26,04:40,UTC,7,1007,-,100,2.5,-1,9.8,9.8,3010,194,5.1,3.2
2022,10,26,04:50,UTC,7,1007,-,100,1.3,-1,9.8,9.8,3650,199,6.2,3.1
2022,10,26,05:00,UTC,8,1007,1.9,100,4.4,-1,9.9,9.9,3750,200,5.6,3.5
2022,10,26,05:10,UTC,8,1007,-,100,2.3,-1,9.9,9.9,7950,180,5.1,2.6
2022,10,26,05:20,UTC,7,1007,-,100,3.7,-1,9.9,9.9,3800,183,5.5,3.2
2022,10,26,05:30,UTC,7,1007.1,-,100,1.5,-1,9.9,9.9,4710,181,5.8,3.4
2022,10,26,05:40,UTC,7,1007.1,-,100,0.1,-1,10,10,3520,196,8.4,4.1
2022,10,26,05:50,UTC,7,1007.1,-,100,0.3,-1,10.1,10.1,2860,197,6.7,4.1
2022,10,26,06:00,UTC,8,1007.1,1.3,100,0,-1,10.1,10.1,2750,199,6.9,4.1
2022,10,26,06:10,UTC,8,1007.1,-,100,0,-1,10.1,10.1,2350,201,6.5,4.3
2022,10,26,06:20,UTC,8,1007.2,-,100,0,-1,10.1,10.1,1690,203,7.4,4
2022,10,26,06:30,UTC,8,1007.2,-,100,0,-1,10.1,10.1,1690,207,6.2,3.7
2022,10,26,06:40,UTC,7,1007.3,-,100,0.3,-1,10.1,10.1,1810,205,6.2,4.1
2022,10,26,06:50,UTC,7,1007.3,-,100,0,-1,10.1,10.1,2230,202,5.4,3.1
2022,10,26,07:00,UTC,7,1007.3,0.1,100,0,-1,10.1,10.1,3050,206,6,3.5
2022,10,26,07:10,UTC,7,1007.3,-,100,0,-1,10.2,10.2,3340,203,4.6,2.6
2022,10,26,07:20,UTC,7,1007.4,-,100,0,-1,10.2,10.2,4270,201,5.8,3
2022,10,26,07:30,UTC,7,1007.4,-,100,0,-1,10.2,10.2,5420,208,6.1,3.2
2022,10,26,07:40,UTC,7,1007.4,-,100,0,-1,10.3,10.3,5410,208,4.3,2.5
2022,10,26,07:50,UTC,7,1007.5,-,100,0,-1,10.3,10.3,6680,210,5.2,3.2
2022,10,26,08:00,UTC,8,1007.5,0,100,0,-1,10.3,10.3,7280,228,7.4,4
2022,10,26,08:10,UTC,8,1007.6,-,100,0,-1,10.4,10.4,4280,224,7,4.4
2022,10,26,08:20,UTC,8,1007.6,-,100,0,-1,10.4,10.4,5350,223,7.8,4.9
2022,10,26,08:30,UTC,8,1007.6,-,100,0,-1,10.5,10.5,7840,224,7.7,5
2022,10,26,08:40,UTC,7,1007.6,-,100,0,-1,10.5,10.5,5320,223,6.6,3.8
2022,10,26,08:50,UTC,7,1007.7,-,100,0,-1,10.7,10.7,9430,227,7.8,4.9
2022,10,26,09:00,UTC,8,1007.7,0,100,0,-1,10.7,10.7,4410,223,7.6,4.7
2022,10,26,09:10,UTC,7,1007.7,-,100,0,-1,10.6,10.6,2870,219,6.9,3.8
2022,10,26,09:20,UTC,7,1007.7,-,100,0.4,-1,10.6,10.6,3120,213,7.5,3
2022,10,26,09:30,UTC,8,1007.8,-,100,0,-1,10.6,10.6,3940,218,6.4,3.8
2022,10,26,09:40,UTC,7,1007.8,-,100,0.3,-1,10.6,10.6,3640,218,6.8,3.9
2022,10,26,09:50,UTC,7,1007.8,-,100,0,-1,10.6,10.6,2220,212,6.5,3.6
2022,10,26,10:00,UTC,8,1007.8,0.2,100,0.3,-1,10.6,10.6,3670,219,7.1,4.2
2022,10,26,10:10,UTC,8,1007.8,-,100,0,-1,10.6,10.6,3040,222,7.2,4.5
2022,10,26,10:20,UTC,8,1007.9,-,100,0,-1,10.8,10.8,4250,225,7.7,4.1
2022,10,26,10:30,UTC,8,1007.9,-,100,0,-1,10.8,10.8,5500,225,6.8,4.2
2022,10,26,10:40,UTC,8,1008,-,100,0,-1,10.6,10.6,5370,225,8.1,4.4
2022,10,26,10:50,UTC,7,1008,-,100,0,-1,10.6,10.6,5050,224,7.2,4.7
2022,10,26,11:00,UTC,7,1008,0,100,0,-1,10.7,10.7,7150,218,7.3,4.1
2022,10,26,11:10,UTC,7,1008.1,-,100,0,-1,10.6,10.6,5680,221,5.4,3.4
2022,10,26,11:20,UTC,8,1008.1,-,100,0,-1,10.6,10.6,3330,236,5.7,3.2
2022,10,26,11:30,UTC,8,1008.1,-,100,0,-1,10.6,10.6,4590,234,5.1,3.2
2022,10,26,11:40,UTC,8,1008.2,-,100,0,-1,10.7,10.7,6310,233,5.4,3.1
2022,10,26,11:50,UTC,7,1008.3,-,100,0,-1,10.7,10.7,9860,221,3.9,2.5
2022,10,26,12:00,UTC,8,1008.2,0,100,0,-1,10.8,10.8,7380,222,4.2,2.3
2022,10,26,12:10,UTC,7,1008.3,-,100,0,-1,10.7,10.7,10710,227,4.8,2.6
2022,10,26,12:20,UTC,8,1008.3,-,100,0,-1,10.8,10.8,12400,231,4.6,2.8
2022,10,26,12:30,UTC,8,1008.3,-,100,0,-1,10.8,10.8,18490,238,5.5,3.4
2022,10,26,12:40,UTC,8,1008.3,-,100,0,-1,10.7,10.7,26680,236,6.4,3.5
2022,10,26,12:50,UTC,7,1008.3,-,100,0,-1,10.7,10.7,32070,243,6.4,3.5
2022,10,26,13:00,UTC,8,1008.5,0,100,0,-1,10.6,10.6,43670,243,6,3.4
2022,10,26,13:10,UTC,8,1008.5,-,100,0,-1,10.5,10.5,40010,-,-,-
2022,10,26,13:20,UTC,8,1008.6,-,100,0,-1,10.4,10.4,40890,-,-,-
2022,10,26,13:30,UTC,8,1008.7,-,100,0,-1,10.3,10.3,39710,250,5.4,3.2
2022,10,26,13:40,UTC,8,1008.7,-,100,0,-1,10.2,10.2,26470,248,5.6,3.9
2022,10,26,13:50,UTC,7,1008.9,-,100,0,-1,10.2,10.2,10820,250,5.3,3.5
2022,10,26,14:00,UTC,8,1008.9,0,100,0,-1,10.1,10.1,7290,251,5.6,3.4
2022,10,26,14:10,UTC,8,1009,-,100,0,-1,10.1,10.1,7910,252,5.3,3.5
2022,10,26,14:20,UTC,8,1009,-,100,0,-1,10.1,10.1,12270,248,6,3.5
2022,10,26,14:30,UTC,8,1009.1,-,100,0,-1,10,10,10850,243,4.8,2.9
2022,10,26,14:40,UTC,8,1009.2,-,100,0,-1,9.9,9.9,8840,250,4.8,2.9
2022,10,26,14:50,UTC,7,1009.3,-,100,0,-1,9.9,9.9,8840,244,3.4,2.1
2022,10,26,15:00,UTC,8,1009.3,0,100,0,-1,9.9,9.9,8970,240,3.4,2.2
2022,10,26,15:10,UTC,8,1009.4,-,100,0,-1,9.9,9.9,4630,235,3.6,2.2
2022,10,26,15:20,UTC,8,1009.4,-,100,0,-1,9.8,9.8,2990,246,4.3,2.5
2022,10,26,15:30,UTC,8,1009.5,-,100,0,-1,9.9,9.9,3610,247,4.5,2.9
2022,10,26,15:40,UTC,8,1009.5,-,100,0,-1,9.9,9.9,4440,243,4.1,2.7
2022,10,26,15:50,UTC,7,1009.5,-,100,0,-1,9.8,9.8,2020,246,3.8,2.2
2022,10,26,16:00,UTC,8,1009.7,0,100,0,-1,9.9,9.9,2050,240,4.9,3.2
2022,10,26,16:10,UTC,8,1009.8,-,100,0,-1,9.8,9.8,3530,247,4.8,3.1
2022,10,26,16:20,UTC,8,1009.9,-,100,0,-1,9.8,9.8,4000,248,4.2,3
2022,10,26,16:30,UTC,8,1010,-,100,0,-1,9.8,9.8,3130,262,3.6,2.1
2022,10,26,16:40,UTC,8,1010,-,100,0,-1,9.8,9.8,2350,264,3.2,2.1
2022,10,26,16:50,UTC,7,1010.2,-,100,0.3,-1,9.7,9.7,3350,264,2.7,2
2022,10,26,17:00,UTC,8,1010.2,0.1,100,0,-1,9.8,9.8,5370,259,3.1,2.5
2022,10,26,17:10,UTC,8,1010.3,-,100,0,-1,9.8,9.8,5360,263,2.9,2.2
2022,10,26,17:20,UTC,8,1010.4,-,100,0,-1,9.8,9.8,3960,266,3,2.1
2022,10,26,17:30,UTC,8,1010.5,-,100,0,-1,9.8,9.8,4950,275,3.5,2.4
2022,10,26,17:40,UTC,8,1010.6,-,100,0,-1,9.9,9.9,5330,275,4,2.5
2022,10,26,17:50,UTC,7,1010.7,-,100,0,-1,10,10,7250,280,3.3,2.4
2022,10,26,18:00,UTC,8,1010.8,0,100,0,-1,10.1,10.1,8570,285,3.6,2.7
2022,10,26,18:10,UTC,8,1010.8,-,100,0,-1,10.2,10.2,9980,285,3.5,2.7
2022,10,26,18:20,UTC,8,1010.8,-,100,0,-1,10.3,10.3,12360,284,5.5,3.7
2022,10,26,18:30,UTC,8,1010.8,-,100,0,-1,10.2,10.2,10980,290,5.7,3.4
2022,10,26,18:40,UTC,8,1010.9,-,100,0,-1,10.1,10.1,9990,295,5.1,3.3
2022,10,26,18:50,UTC,7,1011,-,100,0,-1,9.9,9.9,8770,313,3.7,2.8
2022,10,26,19:00,UTC,7,1011.2,0,100,0,-1,9.6,9.6,5520,307,4.2,2.9
2022,10,26,19:10,UTC,7,1011.3,-,100,0,-1,9.7,9.7,4200,300,4,2.9
2022,10,26,19:20,UTC,7,1011.5,-,100,0,-1,9.6,9.6,5090,291,5.1,3.3
2022,10,26,19:30,UTC,7,1011.7,-,100,0,-1,9.8,9.8,6590,287,5.9,3.8
2022,10,26,19:40,UTC,7,1011.8,-,100,0,-1,10.1,10.1,9510,286,6.3,4.3
2022,10,26,19:50,UTC,7,1012,-,100,0,-1,10.1,10.1,9910,289,5.3,3.8
2022,10,26,20:00,UTC,8,1012.1,0,100,0,-1,10,10,9620,291,5,3.7
2022,10,26,20:10,UTC,8,1012.2,-,100,0,-1,10.2,10.2,11240,297,6.1,3.7
2022,10,26,20:20,UTC,8,1012.2,-,100,0,-1,10.3,10.3,15050,306,5.7,2.9
2022,10,26,20:30,UTC,7,1012.3,-,100,0,-1,10.2,10.2,11610,317,3.9,2.1
2022,10,26,20:40,UTC,7,1012.4,-,100,0,-1,10.2,10.2,11560,322,4.2,2.5
2022,10,26,20:50,UTC,7,1012.5,-,100,0,-1,10.3,10.3,18780,326,5.5,3.1
2022,10,26,21:00,UTC,7,1012.5,0,100,0,-1,10.3,10.3,17740,319,5.1,2.8
2022,10,26,21:10,UTC,8,1012.6,-,100,0,-1,10.2,10.2,22140,323,5.1,3
2022,10,26,21:20,UTC,8,1012.7,-,100,0,-1,10,10,24290,326,4.2,2.6
2022,10,26,21:30,UTC,8,1012.8,-,100,0,-1,9.9,9.9,24000,320,4.5,2.3
2022,10,26,21:40,UTC,8,1012.8,-,100,0,-1,9.7,9.7,34080,312,6,3
2022,10,26,21:50,UTC,7,1013,-,100,0,-1,9.6,9.6,40730,306,4.4,2.8
2022,10,26,22:00,UTC,7,1013.1,0,100,0,-1,9.7,9.7,30870,290,6.3,3.7
2022,10,26,22:10,UTC,8,1013.2,-,100,0,-1,9.7,9.7,33380,297,6,3.4
2022,10,26,22:20,UTC,8,1013.4,-,99,0,-1,9.6,9.5,29800,291,7.6,3.9
2022,10,26,22:30,UTC,8,1013.5,-,99,0,-1,9.2,9,35500,294,7.2,5
2022,10,26,22:40,UTC,8,1013.5,-,99,0,-1,9,8.8,39720,294,6.8,4.1
2022,10,26,22:50,UTC,7,1013.6,-,98,0,-1,8.8,8.5,47710,304,7.1,4.2
2022,10,26,23:00,UTC,7,1013.8,0,98,0,-1,8.6,8.3,50000,301,7,3.8
2022,10,26,23:10,UTC,7,1014,-,98,0,-1,8.3,8,50000,304,7.5,5
2022,10,26,23:20,UTC,8,1014.1,-,98,0,-1,8,7.8,50000,307,8.6,4.3
2022,10,26,23:30,UTC,8,1014.3,-,99,0,-1,7.8,7.6,37220,307,8.2,4.9
2022,10,26,23:40,UTC,8,1014.4,-,98,0,-1,7.6,7.3,45890,310,7.5,4.1
2022,10,26,23:50,UTC,7,1014.5,-,98,0,-1,7.5,7.2,49760,316,6.5,3.5
2022,10,27,00:00,UTC,7,1014.5,0,96,0,-1,7.5,7,50000,318,8,3.7
2022,10,27,00:10,UTC,8,1014.6,-,96,0,-1,7.4,6.8,50000,317,7,3.6
2022,10,27,00:20,UTC,8,1014.7,-,96,0,-1,7.4,6.7,50000,323,7.1,3.9
2022,10,27,00:30,UTC,8,1014.7,-,95,0,-1,7.4,6.6,50000,327,7.6,4.6
2022,10,27,00:40,UTC,8,1014.8,-,96,0,-1,7.3,6.6,50000,323,8.8,4.2
2022,10,27,00:50,UTC,7,1014.7,-,95,0,-1,7.3,6.5,50000,327,7,4.1
2022,10,27,01:00,UTC,7,1014.8,0,96,0,-1,7.3,6.6,50000,325,7.9,3.4
2022,10,27,01:10,UTC,8,1014.9,-,96,0,-1,7.3,6.7,50000,336,6.8,4
2022,10,27,01:20,UTC,8,1015,-,96,0,-1,7.2,6.6,50000,330,5.4,2.7
2022,10,27,01:30,UTC,8,1015.1,-,96,0,-1,7.3,6.7,50000,323,7.9,4
2022,10,27,01:40,UTC,8,1015.1,-,96,0,-1,7.2,6.6,50000,330,5.8,3.2
2022,10,27,01:50,UTC,7,1015.2,-,97,0,-1,7.3,6.8,50000,322,4.5,2.8
2022,10,27,02:00,UTC,7,1015.3,0,97,0,-1,7.3,6.8,50000,330,5.4,3.3
2022,10,27,02:10,UTC,8,1015.4,-,97,0,-1,7.2,6.7,50000,320,6.8,3.5
2022,10,27,02:20,UTC,8,1015.5,-,96,0,-1,7.3,6.7,50000,326,6.4,3.6
2022,10,27,02:30,UTC,8,1015.5,-,97,0,-1,7.2,6.8,45400,322,4.5,2.5
2022,10,27,02:40,UTC,8,1015.5,-,96,0,-1,7.3,6.8,50000,311,5.8,3.7
2022,10,27,02:50,UTC,7,1015.6,-,96,0,-1,7.4,6.8,50000,318,7.3,3.8
2022,10,27,03:00,UTC,7,1015.8,0,96,0,-1,7.4,6.8,50000,310,6.2,3.7
2022,10,27,03:10,UTC,8,1015.8,-,96,0,-1,7.4,6.8,42100,313,6.5,3.7
2022,10,27,03:20,UTC,8,1015.9,-,97,0,-1,7.3,6.8,50000,325,5,2.7
2022,10,27,03:30,UTC,8,1016,-,97,0,-1,7.4,7,34020,310,5.6,3.2
2022,10,27,03:40,UTC,8,1016,-,96,0,-1,7.5,6.9,43220,319,5.1,2.6
2022,10,27,03:50,UTC,7,1016.1,-,97,0,-1,7.4,7,34170,312,3.2,2
2022,10,27,04:00,UTC,7,1016.1,0,98,0,-1,7.4,7.1,32870,297,3.2,1.8
2022,10,27,04:10,UTC,8,1016.3,-,97,0,-1,7.5,7,42600,285,5.2,3.4
2022,10,27,04:20,UTC,8,1016.3,-,96,0,-1,7.4,6.9,50000,291,4.9,3
2022,10,27,04:30,UTC,8,1016.3,-,96,0,-1,7.4,6.8,43860,305,5.9,3.3
2022,10,27,04:40,UTC,8,1016.4,-,95,0,-1,7.4,6.6,39550,327,5.2,2.7
2022,10,27,04:50,UTC,7,1016.4,-,96,0,-1,7.3,6.7,36650,312,3.6,2.5
2022,10,27,05:00,UTC,7,1016.5,0,96,0,-1,7.3,6.7,16720,321,4,2.3
2022,10,27,05:10,UTC,8,1016.5,-,97,0,-1,7.2,6.7,12700,320,3.2,2.2
2022,10,27,05:20,UTC,8,1016.6,-,97,0,-1,7.3,6.8,34170,318,4.2,2.3
2022,10,27,05:30,UTC,8,1016.7,-,96,0,-1,7.3,6.7,25590,316,4.7,2.5
2022,10,27,05:40,UTC,8,1016.7,-,98,0,-1,7.3,7,10290,281,5.6,2.7
2022,10,27,05:50,UTC,8,1016.9,-,98,0,-1,7.2,6.9,9950,276,5.4,3.2
2022,10,27,06:00,UTC,7,1016.9,0,98,0,-1,7.1,6.8,9490,285,6.3,3.8
2022,10,27,06:10,UTC,8,1016.9,-,99,0,-1,6.9,6.7,7340,280,5.4,3.4
2022,10,27,06:20,UTC,8,1017,-,98,0,-1,6.9,6.7,16170,287,5.2,3
2022,10,27,06:30,UTC,8,1017,-,97,0,-1,6.9,6.5,31920,308,4.9,2.5
2022,10,27,06:40,UTC,8,1017.1,-,98,0,-1,6.9,6.6,40360,323,4.4,2.1
2022,10,27,06:50,UTC,8,1017.2,-,97,0,-1,6.9,6.5,40620,325,3.8,2.1
2022,10,27,07:00,UTC,7,1017.3,0,98,0,-1,6.9,6.6,36330,303,3.5,2.2
2022,10,27,07:10,UTC,8,1017.3,-,98,0,-1,7,6.7,40470,284,5.2,2.9
2022,10,27,07:20,UTC,8,1017.4,-,97,0,-1,7,6.5,50000,280,5.3,3.7
2022,10,27,07:30,UTC,8,1017.6,-,96,0,-1,6.9,6.3,50000,291,4.8,3.1
2022,10,27,07:40,UTC,8,1017.6,-,96,0,-1,6.9,6.3,50000,294,4.3,2.5
2022,10,27,07:50,UTC,8,1017.6,-,95,0,-1,7.1,6.3,50000,289,5.5,3.5
2022,10,27,08:00,UTC,7,1017.8,0,94,0,-1,7.1,6.2,50000,292,8.1,4.5
2022,10,27,08:10,UTC,8,1017.8,-,94,0,-1,7.2,6.2,50000,283,7.7,4.9
2022,10,27,08:20,UTC,8,1017.9,-,94,0,-1,7.3,6.4,50000,296,5.7,3.3
2022,10,27,08:30,UTC,8,1017.9,-,93,0,-1,7.3,6.3,50000,301,5.4,2.7
2022,10,27,08:40,UTC,8,1017.9,-,94,0,-1,7.4,6.4,50000,303,5.4,2.8
2022,10,27,08:50,UTC,8,1017.7,-,92,0,-1,7.4,6.3,50000,299,4.6,2.5
2022,10,27,09:00,UTC,7,1017.7,0,92,0,-1,7.6,6.4,50000,280,4.3,2.1
2022,10,27,09:10,UTC,8,1017.6,-,91,0,-1,7.9,6.5,50000,259,3.6,1.6
2022,10,27,09:20,UTC,8,1017.6,-,89,0,-1,8,6.3,50000,270,2.4,1.1
2022,10,27,09:30,UTC,8,1017.5,-,89,0,-1,8.3,6.7,50000,222,2.6,1
2022,10,27,09:40,UTC,8,1017.6,-,88,0,-1,8.4,6.6,50000,223,2.3,1.1
2022,10,27,09:50,UTC,8,1017.5,-,87,0,-1,8.4,6.3,50000,219,3.5,2.2
2022,10,27,10:00,UTC,7,1017.7,0,89,0,-1,8.5,6.7,50000,242,3.4,2.1
2022,10,27,10:10,UTC,8,1017.5,-,89,0,-1,8.3,6.5,50000,249,6.2,3.5
2022,10,27,10:20,UTC,8,1017.6,-,88,0,-1,8.4,6.5,50000,241,5.7,3.8
2022,10,27,10:30,UTC,8,1017.5,-,88,0,-1,8.4,6.6,50000,257,6,4.1
2022,10,27,10:40,UTC,8,1017.5,-,89,0,-1,8.5,6.9,50000,244,6.6,4
2022,10,27,10:50,UTC,8,1017.5,-,89,0,-1,8.6,6.8,50000,229,6.3,3.9
2022,10,27,11:00,UTC,7,1017.5,0,90,0,-1,8.6,6.9,50000,226,5.9,3.3
2022,10,27,11:10,UTC,8,1017.6,-,91,0,-1,8.7,7.3,50000,229,5.4,3.5
2022,10,27,11:20,UTC,8,1017.6,-,90,0,-1,8.9,7.4,50000,239,6.9,3.7
2022,10,27,11:30,UTC,8,1017.3,-,90,0,-1,9.1,7.6,50000,242,6.2,3.5
2022,10,27,11:40,UTC,8,1017.2,-,90,0,-1,9.2,7.6,50000,235,6.2,3.8
2022,10,27,11:50,UTC,8,1017.1,-,90,0,-1,9.2,7.5,50000,238,7.2,4.1
2022,10,27,12:00,UTC,7,1017,0,91,0,-1,9.1,7.7,50000,243,6.6,4.3
2022,10,27,12:10,UTC,8,1016.8,-,91,0,-1,9.1,7.7,50000,237,5.4,3.4
2022,10,27,12:20,UTC,8,1016.7,-,92,0,-1,9.2,7.9,50000,231,5.9,3.6
2022,10,27,12:30,UTC,7,1016.8,-,91,0,-1,9.4,8,50000,235,6.8,4.5
2022,10,27,12:40,UTC,8,1016.6,-,91,0,-1,9.3,8,35470,243,7,4.2
2022,10,27,12:50,UTC,8,1016.4,-,91,0,-1,9.3,8,50000,238,7.1,4.1
2022,10,27,13:00,UTC,7,1016.2,0,92,0,-1,9.4,8.1,40200,226,7.9,4.7
2022,10,27,13:10,UTC,8,1016.4,-,94,0,-1,9.3,8.4,40010,239,8.2,4.9
2022,10,27,13:20,UTC,8,1016.3,-,96,0,-1,9.3,8.7,50000,245,7.6,4.9
2022,10,27,13:30,UTC,8,1016.3,-,97,0,-1,9.3,8.8,45770,236,7.7,5
2022,10,27,13:40,UTC,8,1016.3,-,98,0,-1,9.4,9,26490,-,-,-
2022,10,27,13:50,UTC,8,1016.4,-,98,0,-1,9.4,9.1,25660,238,9.8,5.4
2022,10,27,14:00,UTC,7,1016.2,0,98,0,-1,9.4,9.1,33880,238,8.6,5.5
2022,10,27,14:10,UTC,8,1016,-,98,0,-1,9.5,9.2,40810,234,9.1,5.4
2022,10,27,14:20,UTC,8,1015.8,-,98,0,-1,9.5,9.2,41090,231,7.3,4.6
2022,10,27,14:30,UTC,8,1015.8,-,98,0,-1,9.5,9.2,41480,228,8.7,5.6
2022,10,27,14:40,UTC,8,1015.7,-,98,0,-1,9.5,9.2,35360,227,8.8,5
2022,10,27,14:50,UTC,8,1015.5,-,97,0,-1,9.6,9.2,14570,230,9,4.6
2022,10,27,15:00,UTC,7,1015.4,0,99,0,-1,9.6,9.4,4320,228,10.4,6
2022,10,27,15:10,UTC,8,1015.3,-,99,0,-1,9.7,9.5,9220,228,10.4,6.7
2022,10,27,15:20,UTC,8,1015.2,-,99,0,-1,9.7,9.6,8190,230,8.9,6.2
2022,10,27,15:30,UTC,8,1015.1,-,100,0,-1,9.7,9.7,3240,237,10.7,6.2
2022,10,27,15:40,UTC,8,1015.1,-,100,0,-1,9.7,9.7,3230,238,9.3,5.3
2022,10,27,15:50,UTC,8,1015,-,100,0.3,-1,9.7,9.7,2670,235,10.3,5.5
2022,10,27,16:00,UTC,7,1014.9,0.1,100,0,-1,9.8,9.8,3080,236,10.5,6.3
2022,10,27,16:10,UTC,8,1014.8,-,100,0,-1,9.9,9.9,3390,240,10.3,6.6
2022,10,27,16:20,UTC,8,1014.8,-,100,0.3,-1,9.8,9.8,2830,245,8.5,6
2022,10,27,16:30,UTC,8,1015,-,100,0,-1,9.9,9.9,2990,257,8.2,5.4
2022,10,27,16:40,UTC,7,1015,-,100,0,-1,10.1,10.1,3030,254,9.1,5
2022,10,27,16:50,UTC,8,1015,-,100,0,-1,10.1,10.1,3810,255,7.2,4.5
2022,10,27,17:00,UTC,7,1014.8,0.1,100,0,-1,10.2,10.2,5060,256,6.9,4.6
2022,10,27,17:10,UTC,7,1014.7,-,100,0.3,-1,10.2,10.2,6630,259,6.7,4
2022,10,27,17:20,UTC,8,1014.7,-,100,0,-1,10.2,10.2,8080,256,6.4,4
2022,10,27,17:30,UTC,8,1014.7,-,100,0,-1,10.2,10.2,7870,254,5.8,4.1
2022,10,27,17:40,UTC,8,1014.8,-,100,0,-1,10.2,10.2,8180,255,6.6,4.4
2022,10,27,17:50,UTC,8,1014.8,-,100,0,-1,10.2,10.2,6300,257,7.1,4.6
2022,10,27,18:00,UTC,7,1014.9,0.1,100,0,-1,10.2,10.2,7930,255,6.8,5
2022,10,27,18:10,UTC,7,1014.9,-,100,0,-1,10.2,10.2,8240,255,6.4,4.4
2022,10,27,18:20,UTC,7,1015,-,100,0,-1,10.2,10.2,8780,259,7.1,4.4
2022,10,27,18:30,UTC,7,1015,-,100,0,-1,10.2,10.2,8660,256,6.4,4.3
2022,10,27,18:40,UTC,7,1015.2,-,100,0,-1,10.2,10.2,9240,258,7.5,4.5
2022,10,27,18:50,UTC,8,1015.1,-,100,0,-1,10.2,10.2,9480,255,6.1,4.3
2022,10,27,19:00,UTC,7,1015.1,0,100,0,-1,10.2,10.2,9670,258,7.7,5
2022,10,27,19:10,UTC,7,1015.2,-,100,0,-1,10.3,10.3,12120,264,7.2,4.3
2022,10,27,19:20,UTC,7,1015.2,-,100,0,-1,10.3,10.3,11340,260,7.6,4.9
2022,10,27,19:30,UTC,7,1015.2,-,99,0,-1,10.3,10.2,12040,253,7.6,5.1
2022,10,27,19:40,UTC,7,1015.2,-,99,0,-1,10.2,10.1,12290,260,7.9,5
2022,10,27,19:50,UTC,7,1015.3,-,99,0,-1,10.3,10.2,13000,262,7.8,4.8
2022,10,27,20:00,UTC,7,1015.3,0,99,0,-1,10.4,10.2,14060,263,7.1,4.8
2022,10,27,20:10,UTC,7,1015.3,-,99,0,-1,10.4,10.2,14260,262,6.6,4.4
2022,10,27,20:20,UTC,8,1015.3,-,99,0,-1,10.3,10.1,14630,257,7.6,4.5
2022,10,27,20:30,UTC,8,1015.3,-,99,0,-1,10.4,10.1,14860,251,6.5,4.5
2022,10,27,20:40,UTC,8,1015.3,-,99,0,-1,10.3,10.1,13430,250,6.7,4.3
2022,10,27,20:50,UTC,8,1015.2,-,99,0,-1,10.2,10.1,12320,257,6.4,3.9
2022,10,27,21:00,UTC,7,1015.2,0,99,0,-1,10.1,10,11990,258,6,3.7
2022,10,27,21:10,UTC,7,1015.2,-,99,0,-1,10.1,10,11440,248,5.2,3.7
2022,10,27,21:20,UTC,7,1015.1,-,100,0,-1,10,10,10240,244,5.9,3.8
2022,10,27,21:30,UTC,7,1015.2,-,100,0,-1,9.8,9.7,8980,249,5.7,4.1
2022,10,27,21:40,UTC,7,1015.2,-,100,0,-1,10.1,10.1,9690,249,7,4.4
2022,10,27,21:50,UTC,7,1015.1,-,100,0,-1,9.9,9.9,9920,250,6.9,4.3
2022,10,27,22:00,UTC,7,1015,0,100,0,-1,9.9,9.9,9610,252,6.9,4.5
2022,10,27,22:10,UTC,7,1015,-,100,0,-1,9.7,9.7,9680,257,7.5,4.6
2022,10,27,22:20,UTC,7,1014.9,-,100,0,-1,9.6,9.6,9600,255,6.4,4.4
2022,10,27,22:30,UTC,7,1014.9,-,100,0,-1,9.6,9.6,10180,259,7,4.5
2022,10,27,22:40,UTC,7,1014.9,-,100,0,-1,9.7,9.7,11140,265,8.4,5.1
2022,10,27,22:50,UTC,7,1015.1,-,100,0,-1,9.7,9.7,12040,262,8,5
2022,10,27,23:00,UTC,7,1015,0,100,0,-1,9.8,9.8,14000,266,7.7,4.6
2022,10,27,23:10,UTC,7,1015,-,100,0,-1,9.7,9.6,14080,261,7.3,4.4
2022,10,27,23:20,UTC,8,1015,-,100,0,-1,9.5,9.5,12130,255,6.3,3.9
2022,10,27,23:30,UTC,8,1015.1,-,100,0,-1,9.5,9.5,11200,254,6.6,4.7
2022,10,27,23:40,UTC,7,1015,-,100,0,-1,9.5,9.5,10650,253,6.9,4.3
2022,10,27,23:50,UTC,7,1015.1,-,100,0,-1,9.6,9.6,10330,263,7.5,4.7
2022,10,28,00:00,UTC,7,1015.1,0,100,0,-1,9.8,9.8,11480,268,6.6,4.3
2022,10,28,00:10,UTC,7,1015.1,-,100,0,-1,10,10,12970,277,8.9,5.1
2022,10,28,00:20,UTC,7,1015,-,100,0,-1,10,9.9,12840,279,7.5,4.6
2022,10,28,00:30,UTC,7,1014.8,-,99,0,-1,10,9.9,13640,281,6.1,4.2
2022,10,28,00:40,UTC,7,1014.8,-,99,0,-1,10,9.9,13720,281,5.6,4
2022,10,28,00:50,UTC,8,1014.8,-,99,0,-1,10.1,10,13670,282,7.1,4
2022,10,28,01:00,UTC,7,1014.7,0,99,0,-1,9.9,9.8,12570,287,5.2,3.5
2022,10,28,01:10,UTC,7,1014.7,-,100,0,-1,9.5,9.5,10690,280,4.8,3.1
2022,10,28,01:20,UTC,7,1014.8,-,100,0,-1,9.7,9.7,10630,278,5.7,3.3
2022,10,28,01:30,UTC,7,1014.7,-,100,0,-1,9.7,9.7,10130,275,4.7,2.7
2022,10,28,01:40,UTC,7,1014.5,-,100,0,-1,9.8,9.8,10200,257,4.4,2.6
2022,10,28,01:50,UTC,7,1014.5,-,100,0,-1,9.7,9.7,10370,242,3.8,2.7
2022,10,28,02:00,UTC,7,1014.6,0,100,0,-1,9.8,9.8,10520,253,5.1,2.9
2022,10,28,02:10,UTC,7,1014.6,-,100,0,-1,9.7,9.7,10510,255,4.8,3.1
2022,10,28,02:20,UTC,8,1014.5,-,100,0,-1,9.8,9.8,10820,256,4.2,2.7
2022,10,28,02:30,UTC,8,1014.5,-,100,0,-1,9.9,9.9,11670,244,4.8,3.4
2022,10,28,02:40,UTC,8,1014.4,-,100,0,-1,10,10,12580,259,6.4,3.8
2022,10,28,02:50,UTC,8,1014.4,-,100,0,-1,10,10,12430,252,6.3,3.5
2022,10,28,03:00,UTC,8,1014.5,0,100,0,-1,9.9,9.9,12240,259,5.9,3.4
2022,10,28,03:10,UTC,7,1014.5,-,100,0,-1,9.9,9.9,12210,254,5.4,3.3
2022,10,28,03:20,UTC,8,1014.6,-,100,0,-1,9.9,9.8,11270,256,5.9,3.8
2022,10,28,03:30,UTC,8,1014.5,-,100,0,-1,9.9,9.8,12170,254,5.2,2.7
2022,10,28,03:40,UTC,8,1014.4,-,100,0,-1,9.9,9.9,12230,274,4.7,2.6
2022,10,28,03:50,UTC,7,1014.3,-,99,0,-1,10.1,9.9,14550,277,5.6,3.3
2022,10,28,04:00,UTC,8,1014.2,0,98,0,-1,10.1,9.8,16520,289,6.3,4
2022,10,28,04:10,UTC,7,1014.1,-,98,0,-1,10.1,9.8,15710,276,6.1,3.7
2022,10,28,04:20,UTC,8,1014,-,98,0,-1,10.2,9.9,13790,267,6,3.3
2022,10,28,04:30,UTC,8,1014,-,99,0,-1,10.1,9.9,12540,265,4.6,2.3
2022,10,28,04:40,UTC,8,1014,-,99,0,-1,10.1,10,10700,251,6.5,3.3
2022,10,28,04:50,UTC,8,1013.9,-,99,0,-1,10.1,9.9,9660,267,5,2.7
2022,10,28,05:00,UTC,8,1013.8,0,100,0,-1,10.1,10,9440,264,6,3.8
2022,10,28,05:10,UTC,7,1013.7,-,100,0,-1,10.1,10,9820,262,5.5,2.9
2022,10,28,05:20,UTC,8,1013.7,-,100,0,-1,10.1,10,10450,262,6.7,3.5
2022,10,28,05:30,UTC,7,1013.6,-,100,0,-1,10.2,10.1,10800,252,7.4,4.6
2022,10,28,05:40,UTC,7,1013.5,-,100,0,-1,10.1,10,9660,250,7,4.6
2022,10,28,05:50,UTC,7,1013.6,-,100,0,-1,10.1,10.1,8630,250,7.4,5.2
2022,10,28,06:00,UTC,8,1013.6,0,100,0,-1,10.1,10.1,8540,250,8,4.8
2022,10,28,06:10,UTC,7,1013.7,-,100,0,-1,10.1,10.1,7530,253,7.8,5.3
2022,10,28,06:20,UTC,8,1013.7,-,100,0,-1,10.2,10.2,7590,265,7.4,4.3
2022,10,28,06:30,UTC,8,1013.6,-,100,0,-1,10.3,10.2,8730,259,7.5,4.2
2022,10,28,06:40,UTC,8,1013.5,-,99,0,-1,10.4,10.2,8790,256,6.6,4.2
2022,10,28,06:50,UTC,8,1013.5,-,99,0,-1,10.5,10.3,9700,262,7.5,3.5
2022,10,28,07:00,UTC,7,1013.6,0,98,0,-1,10.6,10.2,10200,255,8.3,4.7
2022,10,28,07:10,UTC,5,1013.6,-,97,0,-1,10.6,10.2,10570,265,7.8,4.7
2022,10,28,07:20,UTC,7,1013.7,-,95,0,-1,10.7,10,12040,266,7.7,4.4
2022,10,28,07:30,UTC,7,1013.8,-,95,0,-1,10.9,10.1,12550,263,6.9,4
2022,10,28,07:40,UTC,7,1013.8,-,94,0,-1,10.9,9.9,12530,265,7.7,4.1
2022,10,28,07:50,UTC,7,1013.9,-,94,0,-1,10.9,10,12760,251,5.8,3.9
2022,10,28,08:00,UTC,7,1013.7,0,95,0,-1,10.9,10,12430,265,7.2,4.2
2022,10,28,08:10,UTC,7,1013.6,-,95,0,-1,10.7,9.9,12390,251,5.4,3.6
2022,10,28,08:20,UTC,3,1013.6,-,96,0,-1,10.7,10,12610,244,5.3,3.8
2022,10,28,08:30,UTC,5,1013.6,-,95,0,-1,11.2,10.4,13070,249,6.3,4.3
2022,10,28,08:40,UTC,5,1013.5,-,93,0,-1,11.1,10,13790,248,6.7,4.2
2022,10,28,08:50,UTC,5,1013.6,-,91,0,-1,11.3,9.9,14360,251,7,4.2
2022,10,28,09:00,UTC,5,1013.7,0,90,0,-1,11.3,9.8,16190,255,6.7,3.1
2022,10,28,09:10,UTC,5,1013.6,-,91,0,-1,11.4,9.9,17170,251,5.6,3.5
2022,10,28,09:20,UTC,7,1013.6,-,92,0,-1,11.4,10,16790,251,6.3,3.8
2022,10,28,09:30,UTC,7,1013.6,-,91,0,-1,11.4,10,16880,252,5.7,3.9
2022,10,28,09:40,UTC,8,1013.6,-,90,0,-1,11.3,9.7,17360,247,7,4
2022,10,28,09:50,UTC,8,1013.6,-,90,0,-1,11.5,9.9,16690,247,7.1,4.1
2022,10,28,10:00,UTC,8,1013.5,0,90,0,-1,11.4,9.7,17850,248,5.7,3.8
2022,10,28,10:10,UTC,7,1013.3,-,90,0,-1,11.4,9.8,16190,241,6.8,3.7
2022,10,28,10:20,UTC,8,1013.2,-,89,0,-1,11.2,9.5,17300,241,5.8,4
2022,10,28,10:30,UTC,8,1013,-,91,0,-1,11.1,9.6,15160,234,6,4.1
2022,10,28,10:40,UTC,7,1013.2,-,92,0,-1,11,9.7,14790,245,7,4.3
2022,10,28,10:50,UTC,7,1013,-,92,0,-1,11.3,10,15510,240,6.5,4.6
2022,10,28,11:00,UTC,7,1012.8,0,89,0,-1,11.5,9.8,16110,240,7.3,4.3
2022,10,28,11:10,UTC,7,1012.8,-,88,0,-1,11.5,9.6,15560,239,6.8,4.7
2022,10,28,11:20,UTC,7,1012.9,-,89,0,-1,11.5,9.7,16260,242,7.1,4.6
2022,10,28,11:30,UTC,7,1012.9,-,89,0,-1,11.3,9.6,15480,244,7,4.2
2022,10,28,11:40,UTC,7,1012.8,-,90,0,-1,11.4,9.8,15870,249,6.9,4.3
2022,10,28,11:50,UTC,7,1012.8,-,90,0,-1,11.4,9.8,15790,244,6.6,4.1
2022,10,28,12:00,UTC,7,1012.9,0,91,0,-1,11.3,9.9,15460,254,7.1,4
2022,10,28,12:10,UTC,7,1012.9,-,90,0,-1,11.3,9.7,14830,252,5.6,3.3
2022,10,28,12:20,UTC,8,1012.6,-,91,0,-1,11.4,9.9,16150,241,4.4,3.3
2022,10,28,12:30,UTC,8,1012.5,-,91,0,-1,11.4,9.9,15370,236,5.3,3.8
2022,10,28,12:40,UTC,7,1012.5,-,91,0,-1,11.3,9.9,15680,236,5.1,3.4
2022,10,28,12:50,UTC,7,1012.4,-,92,0,-1,11.4,10.1,15670,240,4.8,3.2
2022,10,28,13:00,UTC,8,1012.4,0,92,0,-1,11.2,10,15340,238,5.7,3.3
2022,10,28,13:10,UTC,7,1012.5,-,92,0,-1,11.2,10,14670,241,5.4,3.4
2022,10,28,13:20,UTC,7,1012.4,-,93,0,-1,11.2,10.1,13960,241,5.1,3.5
2022,10,28,13:30,UTC,8,1012.3,-,94,0,-1,11.1,10.1,13720,241,5.1,2.9
2022,10,28,13:40,UTC,8,1012.3,-,96,0,-1,10.9,10.2,4550,237,4.9,3.3
2022,10,28,13:50,UTC,8,1012.1,-,99,0,-1,10.6,10.4,2400,237,5.2,3.7
2022,10,28,14:00,UTC,8,1012.1,0,100,0,-1,10.7,10.6,4730,249,6.6,3.9
2022,10,28,14:10,UTC,7,1012,-,100,0,-1,10.7,10.7,5670,249,6.3,3.9
2022,10,28,14:20,UTC,7,1012,-,100,0,-1,10.7,10.7,2430,249,7.3,5.1
2022,10,28,14:30,UTC,8,1011.9,-,100,0,-1,10.7,10.7,3570,249,6.6,4.1
2022,10,28,14:40,UTC,8,1011.9,-,100,0,-1,10.6,10.6,3950,244,6.1,4.1
2022,10,28,14:50,UTC,8,1012,-,100,0,-1,10.6,10.6,5030,249,6.5,4.3
2022,10,28,15:00,UTC,8,1012,0,100,0,-1,10.6,10.6,5990,250,9.1,5.6
2022,10,28,15:10,UTC,7,1011.8,-,100,0,-1,10.5,10.5,5080,251,8.6,5.4
2022,10,28,15:20,UTC,7,1011.8,-,100,0,-1,10.5,10.5,4810,251,9.9,6.2
2022,10,28,15:30,UTC,8,1011.7,-,100,0,-1,10.5,10.5,3720,250,9.8,6.7
2022,10,28,15:40,UTC,8,1011.6,-,100,0,-1,10.5,10.5,3800,247,10.2,6.6
2022,10,28,15:50,UTC,8,1011.4,-,100,0,-1,10.5,10.5,3320,249,9.6,6.2
2022,10,28,16:00,UTC,8,1011.4,0,100,0,-1,10.5,10.5,5160,250,10.1,6.4
2022,10,28,16:10,UTC,7,1011.3,-,100,0,-1,10.5,10.5,6450,248,8.9,6.1
2022,10,28,16:20,UTC,7,1011.2,-,100,0,-1,10.5,10.5,4250,247,8.9,6.2
2022,10,28,16:30,UTC,7,1011.1,-,100,0.3,-1,10.5,10.5,4740,244,8.3,5.9
2022,10,28,16:40,UTC,8,1011.1,-,100,0.1,-1,10.5,10.5,6860,240,7.8,5.5
2022,10,28,16:50,UTC,8,1011.1,-,100,0,-1,10.5,10.5,9720,243,7.7,5.5
2022,10,28,17:00,UTC,8,1011.2,0.1,100,0,-1,10.5,10.5,10780,249,7.7,5.1
2022,10,28,17:10,UTC,7,1011.1,-,100,0,-1,10.5,10.5,7910,253,7,4.5
2022,10,28,17:20,UTC,7,1011,-,100,0,-1,10.5,10.5,4880,258,6.8,4.1
2022,10,28,17:30,UTC,8,1011,-,100,0,-1,10.6,10.6,3220,252,5.3,3.6
2022,10,28,17:40,UTC,8,1010.9,-,100,0,-1,10.6,10.6,1520,246,6.7,4.8
2022,10,28,17:50,UTC,9,1010.7,-,100,0,-1,10.6,10.6,1080,245,7.4,4.7
2022,10,28,18:00,UTC,9,1010.5,0,100,0,-1,10.6,10.6,1000,245,7.3,4.6
2022,10,28,18:10,UTC,9,1010.5,-,100,0,-1,10.6,10.6,1550,243,7.3,4.7
2022,10,28,18:20,UTC,7,1010.3,-,100,0,-1,10.6,10.6,4780,239,8.2,5.2
2022,10,28,18:30,UTC,8,1010.2,-,100,0,-1,10.7,10.7,6210,243,8.4,5.5
2022,10,28,18:40,UTC,8,1010.2,-,100,0,-1,10.8,10.8,6320,247,10,5.6
2022,10,28,18:50,UTC,8,1010.1,-,100,0.4,-1,10.8,10.8,5240,250,8.1,5.7
2022,10,28,19:00,UTC,8,1010,0.1,100,0.1,-1,10.8,10.8,5510,249,7.8,4.9
2022,10,28,19:10,UTC,7,1009.8,-,100,0,-1,10.7,10.7,9230,251,7.6,5.2
2022,10,28,19:20,UTC,7,1009.9,-,100,0,-1,10.8,10.8,15530,251,8,5.8
2022,10,28,19:30,UTC,8,1009.7,-,100,0,-1,10.8,10.8,15620,250,7.7,5
2022,10,28,19:40,UTC,8,1009.6,-,100,0,-1,10.7,10.7,11530,246,8.2,5.4
2022,10,28,19:50,UTC,7,1009.6,-,100,0,-1,10.8,10.8,9960,251,9,6
2022,10,28,20:00,UTC,7,1009.6,0,100,0,-1,10.8,10.8,10000,252,8.6,5.6
2022,10,28,20:10,UTC,7,1009.5,-,100,0,-1,10.8,10.8,12930,249,8.3,5.5
2022,10,28,20:20,UTC,7,1009.5,-,100,0,-1,10.8,10.8,13510,252,8.5,5.5
2022,10,28,20:30,UTC,7,1009.5,-,100,0,-1,10.8,10.8,11180,256,7.7,5.6
2022,10,28,20:40,UTC,8,1009.4,-,100,0,-1,10.9,10.9,9250,254,8.8,5.1
2022,10,28,20:50,UTC,8,1009.1,-,100,0,-1,10.8,10.8,9910,246,7.8,5.4
2022,10,28,21:00,UTC,8,1009.1,0,100,0,-1,10.8,10.8,6000,249,7.9,5.7
2022,10,28,21:10,UTC,7,1008.9,-,100,0,-1,10.8,10.8,5260,255,7.8,5
2022,10,28,21:20,UTC,7,1008.8,-,100,0,-1,10.7,10.7,3830,253,8.5,5.2
2022,10,28,21:30,UTC,7,1008.6,-,100,0,-1,10.7,10.7,2960,250,9,5.3
2022,10,28,21:40,UTC,8,1008.7,-,100,0,-1,10.7,10.7,2320,249,7.3,4.6
2022,10,28,21:50,UTC,8,1008.7,-,100,0,-1,10.6,10.6,2270,257,6.2,3.8
2022,10,28,22:00,UTC,8,1008.6,0,100,0,-1,10.6,10.6,2220,258,6.5,3.9
2022,10,28,22:10,UTC,8,1008.5,-,100,0,-1,10.6,10.6,2360,270,5.2,2.9
2022,10,28,22:20,UTC,7,1008.5,-,100,0,-1,10.6,10.6,2630,269,4.5,2.5
2022,10,28,22:30,UTC,8,1008.4,-,100,0,-1,10.6,10.6,2100,260,4.8,2.5
2022,10,28,22:40,UTC,8,1008.3,-,100,0,-1,10.6,10.6,1740,251,3.7,2.7
2022,10,28,22:50,UTC,9,1008.2,-,100,0,-1,10.6,10.6,1310,244,4.5,2.9
2022,10,28,23:00,UTC,9,1008.1,0,100,0,-1,10.5,10.5,1160,245,4.5,3.1
2022,10,28,23:10,UTC,9,1008,-,100,0,-1,10.5,10.5,1200,236,4.1,2.7
2022,10,28,23:20,UTC,9,1007.8,-,100,0,-1,10.4,10.4,1100,239,4.9,3.4
2022,10,28,23:30,UTC,9,1007.7,-,100,0,-1,10.4,10.4,1060,238,4.8,3.1
2022,10,28,23:40,UTC,9,1007.6,-,100,0,-1,10.4,10.4,920,236,5,3.2
2022,10,28,23:50,UTC,9,1007.4,-,100,0,-1,10.4,10.4,760,239,4.2,2.7
2022,10,29,00:00,UTC,9,1007.2,0,100,0,-1,10.4,10.4,730,245,5.8,3.9
2022,10,29,00:10,UTC,9,1007.1,-,100,0,-1,10.3,10.3,930,245,5.5,3.4
2022,10,29,00:20,UTC,9,1007.1,-,100,0,-1,10.3,10.3,900,246,5.7,3.5
2022,10,29,00:30,UTC,9,1007.1,-,100,0,-1,10.2,10.2,1210,253,6.3,4.3
2022,10,29,00:40,UTC,9,1007,-,100,0,-1,10.2,10.2,970,257,4.9,3.5
2022,10,29,00:50,UTC,9,1006.8,-,100,0,-1,10.2,10.2,840,251,5.3,3.7
2022,10,29,01:00,UTC,9,1006.7,0,100,0,-1,10.2,10.2,990,248,5.3,3.5
2022,10,29,01:10,UTC,9,1006.6,-,100,0,-1,10.2,10.2,1130,254,5.6,3.9
2022,10,29,01:20,UTC,9,1006.4,-,100,0,-1,10.2,10.2,1240,257,4.8,3.4
2022,10,29,01:30,UTC,8,1006.3,-,100,0,-1,10.2,10.2,1580,256,4.2,2.7
2022,10,29,01:40,UTC,8,1006.1,-,100,0,-1,10.2,10.2,1850,248,4.4,2.8
2022,10,29,01:50,UTC,8,1006,-,100,0,-1,10.2,10.2,2000,245,4.3,2.8
2022,10,29,02:00,UTC,8,1005.9,0,100,0,-1,10.2,10.2,2120,248,4.4,3.1
2022,10,29,02:10,UTC,8,1005.8,-,100,0,-1,10.2,10.2,1760,250,4.2,2.9
2022,10,29,02:20,UTC,7,1005.8,-,100,0,-1,10.2,10.2,1830,254,5.1,3.2
2022,10,29,02:30,UTC,7,1005.6,-,100,0,-1,10.2,10.2,1970,249,4.9,3.3
2022,10,29,02:40,UTC,7,1005.5,-,100,0,-1,10.3,10.3,2190,254,4.3,2.9
2022,10,29,02:50,UTC,7,1005.4,-,100,0,-1,10.2,10.2,2020,242,3.3,2.1
2022,10,29,03:00,UTC,8,1005.4,0,100,0,-1,10.2,10.2,1980,250,3.6,2.3
2022,10,29,03:10,UTC,7,1005.1,-,100,0,-1,10.2,10.2,2940,253,4.6,3.1
2022,10,29,03:20,UTC,7,1005,-,100,0,-1,10.3,10.3,3640,251,4.9,3
2022,10,29,03:30,UTC,8,1004.8,-,100,0,-1,10.3,10.3,3300,247,4.6,3
2022,10,29,03:40,UTC,8,1004.7,-,100,0,-1,10.2,10.2,1600,243,4.8,3.2
2022,10,29,03:50,UTC,9,1004.5,-,100,0,-1,10.3,10.3,1110,240,5.1,3.3
2022,10,29,04:00,UTC,9,1004.4,0,100,0,-1,10.3,10.3,950,242,5.7,3.5
2022,10,29,04:10,UTC,9,1004.2,-,100,0,-1,10.3,10.3,860,242,4.6,2.8
2022,10,29,04:20,UTC,9,1004.2,-,100,0,-1,10.2,10.2,1020,247,5,3
2022,10,29,04:30,UTC,9,1004,-,100,0,-1,10.2,10.2,1390,242,5,3.2
2022,10,29,04:40,UTC,8,1003.8,-,100,0,-1,10.2,10.2,2500,241,6.1,4
2022,10,29,04:50,UTC,8,1003.6,-,100,0,-1,10.3,10.3,2850,240,5.8,3.5
2022,10,29,05:00,UTC,8,1003.4,0,100,0,-1,10.2,10.2,2870,235,4.9,3
2022,10,29,05:10,UTC,8,1003.2,-,100,0,-1,10.2,10.2,1920,244,6.5,3.5
2022,10,29,05:20,UTC,7,1003,-,100,0,-1,10.2,10.2,1510,246,6.3,3.8
2022,10,29,05:30,UTC,8,1002.8,-,100,0,-1,10.3,10.3,1480,241,5.6,3.7
2022,10,29,05:40,UTC,8,1002.6,-,100,0,-1,10.4,10.4,1670,237,6.3,4.3
2022,10,29,05:50,UTC,8,1002.6,-,100,0,-1,10.4,10.4,1620,234,7.9,4.7
2022,10,29,06:00,UTC,9,1002.5,0,100,0,-1,10.3,10.3,820,230,6.8,4.4
2022,10,29,06:10,UTC,9,1002.3,-,100,0,-1,10.3,10.3,520,235,8.1,4.8
2022,10,29,06:20,UTC,9,1002.2,-,100,0,-1,10.4,10.4,480,237,8.8,5
2022,10,29,06:30,UTC,9,1002.1,-,100,0,-1,10.4,10.4,550,238,8.5,5.3
2022,10,29,06:40,UTC,9,1002,-,100,0,-1,10.4,10.4,1070,239,8.1,5.5
2022,10,29,06:50,UTC,7,1001.8,-,100,0,-1,10.5,10.5,4540,239,8.3,5.6
2022,10,29,07:00,UTC,7,1001.6,0,100,0,-1,10.5,10.5,8510,242,7.3,4.9
2022,10,29,07:10,UTC,8,1001.3,-,100,0,-1,10.6,10.6,8580,245,9.8,5.5
2022,10,29,07:20,UTC,7,1001,-,100,0,-1,10.7,10.7,7210,243,8.6,5.3
2022,10,29,07:30,UTC,7,1000.8,-,100,0,-1,10.7,10.7,6930,234,7.7,4.8
2022,10,29,07:40,UTC,8,1000.6,-,100,0,-1,10.5,10.5,4770,228,8.6,4.9
2022,10,29,07:50,UTC,8,1000.3,-,100,0,-1,10.6,10.6,5650,240,12,6.8
2022,10,29,08:00,UTC,8,1000.1,0,100,0,-1,10.5,10.5,3940,240,10.6,6.7
2022,10,29,08:10,UTC,8,999.9,-,100,1.2,-1,10.6,10.6,4910,239,11.1,7.4
2022,10,29,08:20,UTC,7,999.7,-,100,1.6,-1,10.5,10.5,5050,237,12.3,6.6
2022,10,29,08:30,UTC,8,999.7,-,100,2.6,-1,10.6,10.6,5590,241,11.2,6.6
2022,10,29,08:40,UTC,8,999.5,-,100,1.5,-1,10.6,10.6,6530,240,11.8,7.4
2022,10,29,08:50,UTC,7,999.3,-,100,1.7,-1,10.6,10.6,5520,238,12.4,7.7
2022,10,29,09:00,UTC,7,999,1.8,100,2.3,-1,10.6,10.6,6390,236,11,6.4
2022,10,29,09:10,UTC,7,998.9,-,100,0.6,-1,10.6,10.6,4720,241,10.9,6.7
2022,10,29,09:20,UTC,7,998.7,-,100,0.5,-1,10.7,10.7,4150,244,12,6.7
2022,10,29,09:30,UTC,7,998.4,-,100,1.7,-1,10.7,10.7,5090,241,12.8,7.4
2022,10,29,09:40,UTC,8,998.1,-,100,0.8,-1,10.7,10.7,6370,240,11.1,6.5
2022,10,29,09:50,UTC,8,997.8,-,100,0,-1,10.8,10.8,10760,242,11.3,7.5
2022,10,29,10:00,UTC,8,997.7,0.6,100,0,-1,10.9,10.9,6240,244,12.1,6.3
2022,10,29,10:10,UTC,8,997.6,-,100,0,-1,10.8,10.8,4830,242,10.9,7.1
2022,10,29,10:20,UTC,7,997.2,-,100,0,-1,10.9,10.9,4270,247,9.6,6.3
2022,10,29,10:30,UTC,7,997.1,-,100,0,-1,11,11,3950,-,-,-
2022,10,29,10:40,UTC,8,996.9,-,100,0,-1,11.1,11.1,4020,250,8.3,5.4
2022,10,29,10:50,UTC,8,996.7,-,100,0,-1,11.2,11.2,5250,251,9,5.6
2022,10,29,11:00,UTC,8,996.6,0,100,0,-1,11.3,11.3,5210,252,8.4,5.8
2022,10,29,11:10,UTC,8,996.5,-,100,0,-1,11.2,11.2,3880,250,7.4,5.1
2022,10,29,11:20,UTC,7,996.3,-,100,0,-1,11.2,11.2,2850,255,9.2,5.5
2022,10,29,11:30,UTC,7,996.3,-,100,0,-1,11.3,11.3,2810,255,9.7,6.2
2022,10,29,11:40,UTC,7,996.2,-,100,0,-1,11.3,11.3,3750,249,8.5,5.3
2022,10,29,11:50,UTC,7,996.1,-,100,0,-1,11.4,11.4,4840,258,8.8,4.9
2022,10,29,12:00,UTC,8,995.9,0.1,100,0.4,-1,11.6,11.6,5710,253,8.4,4.8
2022,10,29,12:10,UTC,7,995.9,-,100,0,-1,11.7,11.7,6710,257,6.9,4.1
2022,10,29,12:20,UTC,7,995.8,-,100,0,-1,11.9,11.9,11260,-,-,-
2022,10,29,12:30,UTC,7,995.7,-,100,0,-1,12.1,12.1,18080,271,9.8,5.1
2022,10,29,12:40,UTC,8,995.6,-,100,0,-1,12.2,12.2,28760,276,8.7,5.6
2022,10,29,12:50,UTC,8,995.6,-,98,0,-1,12.3,12,38150,274,11.2,6.8
2022,10,29,13:00,UTC,7,995.7,0,94,0,-1,12.5,11.6,46210,280,10.8,6.6
2022,10,29,13:10,UTC,7,995.6,-,92,0,-1,12.4,11.2,50000,279,11.5,7.1
2022,10,29,13:20,UTC,7,995.7,-,90,0,-1,12.3,10.8,50000,281,12.2,7.6
2022,10,29,13:30,UTC,7,995.8,-,89,0,-1,12.2,10.5,50000,291,10.7,6.2
2022,10,29,13:40,UTC,8,995.7,-,88,0,-1,12.2,10.3,50000,288,11.6,7
2022,10,29,13:50,UTC,7,996,-,88,0,-1,12.1,10.2,50000,287,11.5,6.7
2022,10,29,14:00,UTC,8,996,0,88,0,-1,12,10,50000,287,12.6,8
2022,10,29,14:10,UTC,8,996.1,-,87,0,-1,12,9.8,50000,284,10.8,7
2022,10,29,14:20,UTC,7,996.1,-,87,0,-1,12,9.8,50000,287,10.6,6.2
2022,10,29,14:30,UTC,7,996.3,-,85,0,-1,12,9.6,50000,289,12.5,6.6
2022,10,29,14:40,UTC,7,996.4,-,85,0,-1,11.8,9.4,50000,288,13.3,6.9
2022,10,29,14:50,UTC,7,996.5,-,85,0,-1,11.6,9.1,50000,286,12,7.1
2022,10,29,15:00,UTC,3,996.5,0,85,0,-1,11.3,9,50000,285,12.5,7.3
2022,10,29,15:10,UTC,3,996.5,-,85,0,-1,11.2,8.9,50000,284,10.6,6.9
2022,10,29,15:20,UTC,1,996.6,-,85,0,-1,11.1,8.6,50000,284,11.3,6.8
2022,10,29,15:30,UTC,1,996.8,-,86,0,-1,10.8,8.5,50000,283,10.2,7
2022,10,29,15:40,UTC,3,996.9,-,85,0,-1,10.9,8.5,50000,283,12.3,7
2022,10,29,15:50,UTC,3,996.8,-,84,0,-1,10.9,8.3,50000,283,11.5,7.4
2022,10,29,16:00,UTC,3,997,0,83,0,-1,10.8,8.1,50000,290,9.5,6.4
2022,10,29,16:10,UTC,5,997.1,-,80,0,-1,11,7.7,50000,296,11,7.1
2022,10,29,16:20,UTC,7,997.2,-,79,0,-1,10.9,7.4,50000,301,10.9,6.2
2022,10,29,16:30,UTC,7,997.2,-,77,0,-1,10.8,7,50000,304,11.3,7
2022,10,29,16:40,UTC,7,997.2,-,74,0,-1,10.9,6.4,50000,302,10.7,6.2
2022,10,29,16:50,UTC,5,997.4,-,77,0,-1,10.5,6.5,50000,302,8.4,5.3
2022,10,29,17:00,UTC,5,997.5,0,78,0,-1,10.3,6.6,50000,296,9,5.7
2022,10,29,17:10,UTC,5,997.5,-,74,0,-1,10.5,6.1,50000,299,10.1,6.3
2022,10,29,17:20,UTC,5,997.6,-,72,0,-1,10.5,5.7,42750,297,12.5,6.5
2022,10,29,17:30,UTC,7,997.6,-,71,0,-1,10.4,5.3,50000,301,12.4,8
2022,10,29,17:40,UTC,7,997.6,-,70,0,-1,10.3,5.1,50000,301,12.5,7.8
2022,10,29,17:50,UTC,3,997.7,-,69,0,-1,10.1,4.8,50000,304,14.2,8.1
2022,10,29,18:00,UTC,3,998.1,0,66,0,-1,9.9,3.9,50000,319,15.7,8.1
2022,10,29,18:10,UTC,1,998.5,-,61,0,-1,9.4,2.2,50000,328,14.5,8.7
2022,10,29,18:20,UTC,1,998.8,-,59,0,-1,8.8,1.2,50000,323,17.8,10.3
2022,10,29,18:30,UTC,1,999,-,61,0,-1,8.6,1.4,50000,318,16.9,9.4
2022,10,29,18:40,UTC,1,999.2,-,63,0,-1,8.1,1.4,50000,318,11.3,6.7
2022,10,29,18:50,UTC,1,999.4,-,64,0,-1,7.8,1.5,50000,315,12.7,7.3
2022,10,29,19:00,UTC,1,999.6,0,59,0,-1,7.9,0.4,50000,324,17.8,9.4
2022,10,29,19:10,UTC,1,999.8,-,59,0,-1,7.5,0,50000,325,16.2,8.7
2022,10,29,19:20,UTC,1,1000,-,59,0,-1,7.3,-0.1,50000,326,14.1,7.5
2022,10,29,19:30,UTC,0,1000.2,-,61,0,-1,7.2,0.1,50000,324,13.1,7.9
2022,10,29,19:40,UTC,0,1000.5,-,62,0,-1,6.9,0.2,50000,323,13.5,7.4
2022,10,29,19:50,UTC,0,1000.6,-,64,0,-1,6.7,0.3,50000,320,14.2,7
2022,10,29,20:00,UTC,0,1000.8,0,63,0,-1,6.8,0.3,50000,316,12.8,7.3
2022,10,29,20:10,UTC,0,1001,-,62,0,-1,7.1,0.3,50000,321,14.1,7.3
2022,10,29,20:20,UTC,0,1001.3,-,65,0,-1,6.8,0.8,50000,316,11.6,6.5
2022,10,29,20:30,UTC,0,1001.5,-,66,0,-1,6.7,0.8,50000,316,11,6.2
2022,10,29,20:40,UTC,0,1001.6,-,67,0,-1,6.5,0.8,50000,315,12,6.9
2022,10,29,20:50,UTC,0,1001.9,-,66,0,-1,6.6,0.7,50000,313,10.4,5.6
2022,10,29,21:00,UTC,0,1001.9,0,66,0,-1,6.3,0.5,50000,316,13.8,7
2022,10,29,21:10,UTC,0,1002.1,-,67,0,-1,6.2,0.5,50000,319,14.1,6.7
2022,10,29,21:20,UTC,0,1002.1,-,66,0,-1,6.3,0.4,50000,320,11,6.9
2022,10,29,21:30,UTC,0,1002.4,-,67,0,-1,6,0.4,50000,319,12.8,6.5
2022,10,29,21:40,UTC,0,1002.4,-,67,0,-1,6.1,0.4,50000,319,11.7,6.9
2022,10,29,21:50,UTC,0,1002.5,-,66,0,-1,6.2,0.4,50000,319,11.6,7
2022,10,29,22:00,UTC,0,1002.6,0,68,0,-1,5.9,0.5,50000,320,11.8,7.3
2022,10,29,22:10,UTC,0,1002.8,-,67,0,-1,6.1,0.5,50000,320,11.3,6.6
2022,10,29,22:20,UTC,0,1002.9,-,68,0,-1,5.9,0.5,50000,319,10.5,6.3
2022,10,29,22:30,UTC,0,1003,-,69,0,-1,5.9,0.5,50000,317,11.1,6.5
2022,10,29,22:40,UTC,0,1003.1,-,67,0,-1,6.1,0.4,50000,319,12.4,7.8
2022,10,29,22:50,UTC,0,1003.2,-,68,0,-1,5.9,0.5,50000,316,12.1,6.6
2022,10,29,23:00,UTC,0,1003.4,0,69,0,-1,5.8,0.5,50000,319,11.4,6.3
2022,10,29,23:10,UTC,0,1003.6,-,68,0,-1,5.9,0.3,50000,320,13.3,6.7
2022,10,29,23:20,UTC,0,1003.7,-,69,0,-1,5.7,0.4,50000,317,11.5,5.8
2022,10,29,23:30,UTC,0,1003.7,-,69,0,-1,5.6,0.3,50000,319,11.5,5.6
2022,10,29,23:40,UTC,0,1003.9,-,70,0,-1,5.5,0.4,50000,319,10.5,5.6
2022,10,29,23:50,UTC,0,1004,-,70,0,-1,5.5,0.5,50000,314,10.3,6.3
2022,10,30,00:00,UTC,0,1004,0,70,0,-1,5.6,0.5,50000,311,10,6.3
2022,10,30,00:10,UTC,0,1004.1,-,69,0,-1,5.7,0.4,50000,316,11.3,6.6
2022,10,30,00:20,UTC,0,1004.3,-,70,0,-1,5.5,0.5,50000,315,12.5,6
2022,10,30,00:30,UTC,0,1004.4,-,69,0,-1,5.7,0.4,50000,312,10.6,5.8
2022,10,30,00:40,UTC,0,1004.3,-,69,0,-1,5.7,0.5,50000,313,9.9,6.1
2022,10,30,00:50,UTC,0,1004.4,-,72,0,-1,5.3,0.6,50000,312,9.5,5.8
2022,10,30,01:00,UTC,0,1004.4,0,72,0,-1,5.4,0.8,50000,311,11.5,6.3
2022,10,30,01:10,UTC,0,1004.6,-,72,0,-1,5.4,0.8,50000,314,10.5,5.8
2022,10,30,01:20,UTC,0,1004.6,-,75,0,-1,5,1,50000,310,9.3,5.5
2022,10,30,01:30,UTC,0,1004.6,-,76,0,-1,5.1,1.1,50000,311,8.8,5.9
2022,10,30,01:40,UTC,0,1004.5,-,75,0,-1,5.3,1.2,50000,309,9.9,6.2
2022,10,30,01:50,UTC,0,1004.7,-,75,0,-1,5.2,1.1,50000,306,10.1,6
2022,10,30,02:00,UTC,0,1004.8,0,75,0,-1,5.3,1.2,50000,305,9.2,5.6
2022,10,30,02:10,UTC,0,1004.9,-,74,0,-1,5.3,1.1,50000,308,10.6,6.4
2022,10,30,02:20,UTC,0,1005,-,75,0,-1,5.1,1.1,50000,304,10.7,5.8
2022,10,30,02:30,UTC,0,1005,-,75,0,-1,5.1,1.1,50000,301,10,6.1
2022,10,30,02:40,UTC,0,1005.1,-,76,0,-1,5.1,1.1,50000,303,9.1,5.7
2022,10,30,02:50,UTC,0,1005.2,-,76,0,-1,5,1.1,50000,299,9.5,5.8
2022,10,30,03:00,UTC,0,1005.3,0,76,0,-1,5,1.1,50000,296,9.4,5.5
2022,10,30,03:10,UTC,0,1005.5,-,79,0,-1,4.5,1.2,50000,297,8,5.4
2022,10,30,03:20,UTC,0,1005.6,-,79,0,-1,4.5,1.2,50000,303,8.7,5
2022,10,30,03:30,UTC,1,1005.5,-,79,0,-1,4.8,1.4,50000,301,7.4,5.2
2022,10,30,03:40,UTC,1,1005.5,-,81,0,-1,4.4,1.4,50000,305,7.1,4.5
2022,10,30,03:50,UTC,1,1005.7,-,78,0,-1,4.9,1.4,50000,307,9.3,5.3
2022,10,30,04:00,UTC,1,1005.9,0,76,0,-1,5,1.2,50000,311,8.8,5
2022,10,30,04:10,UTC,3,1006,-,75,0,-1,5,1,50000,315,8.3,5
2022,10,30,04:20,UTC,3,1006.1,-,73,0,-1,5.1,0.7,50000,318,9.3,5.1
2022,10,30,04:30,UTC,5,1006.2,-,69,0,-1,5.2,0,50000,325,9.4,5.7
2022,10,30,04:40,UTC,3,1006.5,-,68,0,-1,5.3,-0.3,50000,324,11.3,5.3
2022,10,30,04:50,UTC,5,1006.6,-,67,0,-1,5.2,-0.4,50000,324,9.7,5.5
2022,10,30,05:00,UTC,5,1006.7,0,67,0,-1,5.2,-0.6,50000,326,10.7,5.9
2022,10,30,05:10,UTC,7,1006.8,-,66,0,-1,5.1,-0.6,50000,325,9.4,5
2022,10,30,05:20,UTC,7,1006.9,-,68,0,-1,4.9,-0.5,50000,328,9,4.8
2022,10,30,05:30,UTC,7,1007.1,-,67,0,-1,5,-0.6,50000,323,9.9,5.7
2022,10,30,05:40,UTC,7,1007.2,-,69,0,-1,4.8,-0.5,50000,320,7.7,4.6
2022,10,30,05:50,UTC,7,1007.3,-,68,0,-1,4.9,-0.5,50000,320,7.6,4.8
2022,10,30,06:00,UTC,5,1007.4,0,70,0,-1,4.6,-0.4,50000,320,8.8,4.8
2022,10,30,06:10,UTC,5,1007.4,-,68,0,-1,4.9,-0.5,50000,316,8.2,4.6
2022,10,30,06:20,UTC,3,1007.5,-,71,0,-1,4.5,-0.2,50000,327,7,3.8
2022,10,30,06:30,UTC,1,1007.6,-,70,0,-1,4.7,-0.3,50000,331,7.4,4.1
2022,10,30,06:40,UTC,3,1007.8,-,72,0,-1,4.5,-0.1,50000,-,-,-
2022,10,30,06:50,UTC,3,1007.9,-,70,0,-1,4.7,-0.3,50000,317,7.7,4.7
2022,10,30,07:00,UTC,5,1008,0,68,0,-1,4.8,-0.7,50000,319,7.4,4.5
2022,10,30,07:10,UTC,7,1008,-,66,0,-1,4.9,-0.9,50000,319,8,4.2
2022,10,30,07:20,UTC,7,1008.2,-,68,0,-1,4.8,-0.7,50000,318,8,4.5
2022,10,30,07:30,UTC,7,1008.1,-,66,0,-1,5,-0.9,50000,317,8.7,4.8
2022,10,30,07:40,UTC,7,1008.2,-,65,0,-1,5,-1,50000,326,8.7,5
2022,10,30,07:50,UTC,7,1008.4,-,66,0,-1,5,-0.8,50000,324,9.7,4.7
2022,10,30,08:00,UTC,7,1008.4,0,67,0,-1,5,-0.7,50000,324,7.9,4.9
2022,10,30,08:10,UTC,7,1008.5,-,66,0,-1,5,-0.8,50000,319,7.5,4.4
2022,10,30,08:20,UTC,7,1008.6,-,66,0,-1,5,-0.8,50000,318,9.2,4.8
2022,10,30,08:30,UTC,7,1008.8,-,67,0,-1,5,-0.6,50000,322,7.8,4
2022,10,30,08:40,UTC,7,1009.1,-,68,0,-1,4.9,-0.4,50000,311,7.4,4.7
2022,10,30,08:50,UTC,7,1009.3,-,66,0,-1,5,-0.7,50000,316,9.5,5.3
2022,10,30,09:00,UTC,7,1009.4,0,67,0,-1,5.1,-0.4,50000,-,-,-
2022,10,30,09:10,UTC,7,1009.3,-,65,0,-1,5.2,-0.8,50000,-,-,-
2022,10,30,09:20,UTC,7,1009.5,-,65,0,-1,5.1,-0.9,50000,317,9,5
2022,10,30,09:30,UTC,7,1009.6,-,65,0,-1,5.2,-0.8,50000,321,10.7,5.4
2022,10,30,09:40,UTC,7,1009.8,-,64,0,-1,5.2,-1,50000,317,7.5,4.7
2022,10,30,09:50,UTC,7,1009.9,-,64,0,-1,5.3,-1,50000,328,9.8,5.3
2022,10,30,10:00,UTC,7,1010,0,63,0,-1,5.5,-0.9,50000,322,10.3,5.3
2022,10,30,10:10,UTC,7,1010.1,-,62,0,-1,5.5,-1.3,50000,332,9.1,5.8
2022,10,30,10:20,UTC,7,1010.2,-,62,0,-1,5.4,-1.2,50000,326,9.4,5.3
2022,10,30,10:30,UTC,7,1010.3,-,62,0,-1,5.6,-1.1,50000,327,7.2,4.2
2022,10,30,10:40,UTC,7,1010.5,-,63,0,-1,5.7,-0.8,50000,336,8.4,4
2022,10,30,10:50,UTC,5,1010.7,-,58,0,-1,5.4,-2.3,50000,337,11.8,6.7
2022,10,30,11:00,UTC,7,1010.8,0,58,0,-1,5.4,-2.1,50000,337,10.1,5.5
2022,10,30,11:10,UTC,7,1011,-,55,0,-1,5.4,-3,50000,350,11.9,6.7
2022,10,30,11:20,UTC,7,1011,-,57,0,-1,5.5,-2.3,50000,340,8.8,3.7
2022,10,30,11:30,UTC,7,1011.1,-,56,0,-1,5.2,-2.9,50000,332,10.2,6.2
2022,10,30,11:40,UTC,5,1011.2,-,58,0,-1,5,-2.6,50000,333,8.4,5.3
2022,10,30,11:50,UTC,3,1011.3,-,56,0,-1,5,-3.1,50000,331,8.4,5.1
2022,10,30,12:00,UTC,1,1011.5,0,55,0,-1,5.5,-2.9,50000,331,9.5,5.1
2022,10,30,12:10,UTC,1,1011.6,-,54,0,-1,5.5,-3.2,50000,329,9.7,4.8
2022,10,30,12:20,UTC,1,1011.6,-,51,0,-1,5.6,-3.7,50000,323,8.8,5.1
2022,10,30,12:30,UTC,1,1011.6,-,51,0,-1,5.7,-3.6,50000,324,7.7,4.5
2022,10,30,12:40,UTC,3,1011.6,-,50,0,-1,5.6,-4,50000,320,8.5,4.5
2022,10,30,12:50,UTC,5,1011.7,-,50,0,-1,5.8,-3.8,50000,325,7.1,4.3
2022,10,30,13:00,UTC,7,1011.8,0,53,0,-1,5.4,-3.4,50000,321,6.7,4.1
2022,10,30,13:10,UTC,7,1012,-,50,0,-1,5.3,-4.4,50000,319,10.1,6.4
2022,10,30,13:20,UTC,7,1012.2,-,52,0,-1,5,-4,50000,318,9.5,5.4
2022,10,30,13:30,UTC,5,1012.2,-,53,0,-1,4.9,-3.9,50000,315,10.3,6.1
2022,10,30,13:40,UTC,3,1012.2,-,51,0,-1,4.9,-4.3,50000,311,8.6,6.1
2022,10,30,13:50,UTC,1,1012.2,-,55,0,-1,4.6,-3.8,50000,312,9.4,5.1
2022,10,30,14:00,UTC,0,1012.2,0,55,0,-1,4.4,-3.9,50000,312,8.4,5.3
2022,10,30,14:10,UTC,0,1012.2,-,55,0,-1,4.3,-3.9,50000,306,9.1,5.7
2022,10,30,14:20,UTC,0,1012.3,-,57,0,-1,4,-3.7,50000,304,8.8,5.4
2022,10,30,14:30,UTC,0,1012.3,-,58,0,-1,3.9,-3.6,50000,302,9.1,6.2
2022,10,30,14:40,UTC,0,1012.3,-,58,0,-1,4,-3.7,50000,305,9.5,6.1
2022,10,30,14:50,UTC,0,1012.4,-,59,0,-1,3.8,-3.5,50000,301,9.3,6.1
2022,10,30,15:00,UTC,0,1012.4,0,61,0,-1,3.7,-3.2,50000,297,10.7,6.4
2022,10,30,15:10,UTC,0,1012.5,-,61,0,-1,3.7,-3.1,50000,302,10.6,6.1
2022,10,30,15:20,UTC,0,1012.4,-,62,0,-1,3.6,-3,50000,301,10.3,6.4
2022,10,30,15:30,UTC,0,1012.5,-,62,0,-1,3.6,-2.9,50000,300,10,6.9
2022,10,30,15:40,UTC,0,1012.5,-,63,0,-1,3.6,-2.9,50000,300,11.2,7
2022,10,30,15:50,UTC,0,1012.7,-,63,0,-1,3.5,-2.9,50000,302,10.5,6.1
2022,10,30,16:00,UTC,0,1012.6,0,61,0,-1,3.6,-3.2,50000,302,10.1,6.4
2022,10,30,16:10,UTC,0,1012.6,-,60,0,-1,3.8,-3.3,50000,299,9.9,6.5
2022,10,30,16:20,UTC,0,1012.7,-,63,0,-1,3.3,-3.1,50000,301,9.9,6.6
2022,10,30,16:30,UTC,0,1012.8,-,62,0,-1,3.4,-3.2,50000,299,9.9,6.9
2022,10,30,16:40,UTC,0,1012.8,-,63,0,-1,3.3,-3,50000,302,9.2,6.5
2022,10,30,16:50,UTC,0,1012.9,-,62,0,-1,3.6,-3.1,50000,305,9.2,5.6
2022,10,30,17:00,UTC,0,1013,0,63,0,-1,3.6,-2.9,50000,310,8.6,5.4
2022,10,30,17:10,UTC,0,1013.1,-,64,0,-1,3.5,-2.7,50000,309,8,5.2
2022,10,30,17:20,UTC,0,1013.3,-,68,0,-1,3,-2.2,50000,312,8.1,5.1
2022,10,30,17:30,UTC,0,1013.3,-,69,0,-1,3.2,-2,50000,309,9.1,5.4
2022,10,30,17:40,UTC,0,1013.5,-,69,0,-1,3.4,-1.8,50000,311,7.7,4.9
2022,10,30,17:50,UTC,0,1013.5,-,71,0,-1,2.9,-1.7,50000,311,7.2,4.5
2022,10,30,18:00,UTC,0,1013.5,0,73,0,-1,3,-1.5,50000,317,7.3,4.4
2022,10,30,18:10,UTC,0,1013.6,-,73,0,-1,3.2,-1.1,50000,319,7.2,4.6
2022,10,30,18:20,UTC,0,1013.7,-,74,0,-1,3.2,-1.1,50000,326,8,4.5
2022,10,30,18:30,UTC,0,1013.9,-,77,0,-1,2.9,-0.7,50000,322,7.9,4.5
2022,10,30,18:40,UTC,0,1014,-,79,0,-1,2.8,-0.5,50000,321,8.4,4.8
2022,10,30,18:50,UTC,0,1014,-,79,0,-1,2.9,-0.3,50000,323,7.4,4.8
2022,10,30,19:00,UTC,0,1014.1,0,78,0,-1,3.3,-0.1,49790,321,8.1,4.8
2022,10,30,19:10,UTC,0,1014.1,-,81,0,-1,3,0,49830,321,6.5,4.4
2022,10,30,19:20,UTC,0,1014.2,-,80,0,-1,3.1,0.1,50000,323,7.4,4.4
2022,10,30,19:30,UTC,0,1014.2,-,81,0,-1,3.2,0.2,50000,324,7.1,4.2
2022,10,30,19:40,UTC,0,1014.3,-,81,0,-1,3.2,0.2,50000,325,6.6,4.3
2022,10,30,19:50,UTC,0,1014.4,-,83,0,-1,2.9,0.3,50000,326,6.9,4.6
2022,10,30,20:00,UTC,0,1014.5,0,83,0,-1,2.8,0.2,46590,324,6.1,3.4
2022,10,30,20:10,UTC,0,1014.6,-,85,0,-1,2.5,0.3,47390,319,6.1,3.8
2022,10,30,20:20,UTC,0,1014.7,-,88,0,-1,2,0.2,44640,307,6,4.1
2022,10,30,20:30,UTC,0,1014.7,-,87,0,-1,2.2,0.3,50000,306,5.9,3.8
2022,10,30,20:40,UTC,0,1014.9,-,89,0,-1,2.1,0.6,50000,301,6.1,4.2
2022,10,30,20:50,UTC,0,1014.8,-,89,0,-1,2,0.4,48110,310,5.9,3.8
2022,10,30,21:00,UTC,0,1014.9,0,91,0,-1,1.8,0.4,49970,307,6.5,4.4
2022,10,30,21:10,UTC,0,1014.9,-,89,0,-1,1.8,0.2,50000,310,6.2,4
2022,10,30,21:20,UTC,0,1014.9,-,90,0,-1,1.9,0.5,47680,306,6.3,4.1
2022,10,30,21:30,UTC,0,1015,-,91,0,-1,1.7,0.3,50000,308,6.6,4.6
2022,10,30,21:40,UTC,0,1015.1,-,91,0,-1,1.7,0.4,50000,304,7.7,4.8
2022,10,30,21:50,UTC,0,1015.2,-,91,0,-1,1.6,0.3,47520,303,8.6,5.3
2022,10,30,22:00,UTC,0,1015.3,0,91,0,-1,2,0.8,47680,306,7.3,4.9
2022,10,30,22:10,UTC,0,1015.4,-,92,0,-1,1.8,0.6,48530,308,7.2,5.1
2022,10,30,22:20,UTC,0,1015.5,-,92,0,-1,1.8,0.6,47660,310,7.9,4.9
2022,10,30,22:30,UTC,0,1015.5,-,92,0,-1,1.6,0.5,48770,315,7.2,4.8
2022,10,30,22:40,UTC,0,1015.3,-,94,0,-1,1.7,0.8,44690,319,7.6,5
2022,10,30,22:50,UTC,0,1015.4,-,93,0,-1,1.5,0.5,44320,321,6.6,4.8
2022,10,30,23:00,UTC,0,1015.6,0,93,0,-1,1.8,0.8,42950,316,6.7,4.5
2022,10,30,23:10,UTC,0,1015.8,-,91,0,-1,1.9,0.6,48990,314,6,3.7
2022,10,30,23:20,UTC,0,1015.9,-,93,0,-1,1.4,0.3,48160,314,5.5,3.9
2022,10,30,23:30,UTC,0,1015.9,-,95,0,-1,1.2,0.5,47150,320,5.2,3.6
2022,10,30,23:40,UTC,0,1015.9,-,94,0,-1,1,0.2,45440,321,5.7,4
2022,10,30,23:50,UTC,0,1015.9,-,96,0,-1,1.4,0.7,50000,329,5.3,3.5
2022,10,31,00:00,UTC,0,1016,0,95,0,-1,1.4,0.7,47100,335,5.1,3.2
2022,10,31,00:10,UTC,0,1016.2,-,95,0,-1,1,0.3,40170,323,4.4,2.8
2022,10,31,00:20,UTC,0,1016.3,-,96,0,-1,0.9,0.4,38820,315,4.3,3
2022,10,31,00:30,UTC,0,1016.2,-,98,0,-1,1,0.6,38070,332,4.9,3.6
2022,10,31,00:40,UTC,0,1016.3,-,97,0,-1,1.1,0.7,42980,337,4.8,3.2
2022,10,31,00:50,UTC,0,1016.4,-,96,0,-1,1.2,0.7,47470,344,4.9,3
2022,10,31,01:00,UTC,0,1016.5,0,96,0,-1,1.3,0.8,41060,351,4.2,2.4
2022,10,31,01:10,UTC,0,1016.6,-,96,0,-1,0.8,0.3,42210,334,4.1,2.8
2022,10,31,01:20,UTC,0,1016.5,-,98,0,-1,0.7,0.4,34420,335,3.4,2.5
2022,10,31,01:30,UTC,0,1016.7,-,98,0,-1,0.3,0,29050,328,3.8,2.9
2022,10,31,01:40,UTC,0,1016.7,-,99,0,-1,0.1,-0.1,28470,321,4.2,3.5
2022,10,31,01:50,UTC,0,1016.6,-,100,0,-1,0.5,0.5,33120,335,4.7,3.3
2022,10,31,02:00,UTC,0,1016.7,0,100,0,-1,0.6,0.6,34260,337,4.8,3.3
2022,10,31,02:10,UTC,0,1016.7,-,100,0,-1,0.6,0.5,38140,338,4.9,3.1
2022,10,31,02:20,UTC,0,1016.8,-,100,0,-1,0.3,0.2,30010,330,4.6,3.5
2022,10,31,02:30,UTC,0,1016.7,-,100,0,-1,0.7,0.7,35230,348,4.7,2.8
2022,10,31,02:40,UTC,0,1016.8,-,99,0,-1,0.6,0.4,37720,1,5.9,3.5
2022,10,31,02:50,UTC,0,1016.9,-,99,0,-1,-0.1,-0.2,25250,344,4.7,2.9
2022,10,31,03:00,UTC,0,1017.1,0,99,0,-1,-0.7,-0.7,24690,321,5.1,4
2022,10,31,03:10,UTC,0,1017,-,100,0,-1,-0.2,-0.2,25080,326,5.4,4
2022,10,31,03:20,UTC,0,1017.1,-,100,0,-1,0,0,30230,336,5.1,3.6
2022,10,31,03:30,UTC,0,1017,-,100,0,-1,0.1,0.1,28110,338,4.7,3.3
2022,10,31,03:40,UTC,0,1017.1,-,100,0,-1,-0.2,-0.2,29510,339,4.2,3.3
2022,10,31,03:50,UTC,0,1017.1,-,100,0,-1,0.2,0.2,34980,350,5.4,3.1
2022,10,31,04:00,UTC,0,1017.3,0,100,0,-1,0,0,33010,345,4.4,2.5
2022,10,31,04:10,UTC,0,1017.3,-,100,0,-1,-0.1,-0.1,27900,323,4.2,2.9
2022,10,31,04:20,UTC,0,1017.4,-,100,0,-1,-0.4,-0.4,29640,313,4.2,2.5
2022,10,31,04:30,UTC,0,1017.4,-,100,0,-1,-0.1,-0.1,31100,317,4.7,3.1
2022,10,31,04:40,UTC,0,1017.7,-,100,0,-1,-0.3,-0.3,34300,319,3.4,2.4
2022,10,31,04:50,UTC,0,1017.8,-,100,0,-1,0,0,33360,302,5.3,3.5
2022,10,31,05:00,UTC,0,1017.9,0,100,0,-1,0.1,0.1,35530,299,4.6,3.3
2022,10,31,05:10,UTC,0,1017.9,-,100,0,-1,0.4,0.4,39330,309,4.1,3.3
2022,10,31,05:20,UTC,0,1017.9,-,100,0,-1,0.2,0.2,32540,317,4.4,3.7
2022,10,31,05:30,UTC,0,1017.8,-,100,0,-1,-0.1,-0.1,28660,329,4.2,3.5
2022,10,31,05:40,UTC,0,1017.9,-,100,0,-1,0,0,32730,350,4.3,2.6
2022,10,31,05:50,UTC,0,1017.9,-,100,0,-1,-0.1,-0.1,29450,6,4.4,2.1
2022,10,31,06:00,UTC,0,1018,0,100,0,-1,-0.1,-0.1,24960,349,4,2.2
2022,10,31,06:10,UTC,0,1018,-,100,0,-1,0.1,0.1,25370,19,4.1,2.2
2022,10,31,06:20,UTC,0,1018,-,100,0,-1,-0.1,-0.1,26010,351,3.4,2
2022,10,31,06:30,UTC,0,1018.2,-,100,0,-1,-0.1,-0.1,25550,335,2.7,1.7
2022,10,31,06:40,UTC,0,1018.2,-,100,0,-1,0.1,0.1,22670,318,3.8,3
2022,10,31,06:50,UTC,0,1018.3,-,100,0,-1,0.2,0.2,23130,327,3.6,2.9
2022,10,31,07:00,UTC,0,1018.2,0,100,0,-1,1,1,30320,3,3.6,2.3
2022,10,31,07:10,UTC,0,1018.4,-,99,0,-1,1.1,0.9,32970,28,2.1,1.2
2022,10,31,07:20,UTC,0,1018.5,-,98,0,-1,1.5,1.3,33990,355,2.5,1.4
2022,10,31,07:30,UTC,0,1018.6,-,97,0,-1,1.7,1.2,30570,334,2,1.4
2022,10,31,07:40,UTC,0,1018.6,-,92,0,-1,3,1.7,32000,37,2.2,1.2
2022,10,31,07:50,UTC,0,1018.7,-,89,0,-1,2.8,1.2,30640,20,1.8,0.9
2022,10,31,08:00,UTC,0,1018.8,0,86,0,-1,3.3,1.2,28940,336,1.5,0.9
2022,10,31,08:10,UTC,1,1018.8,-,86,0,-1,3.5,1.3,41700,-,-,-
2022,10,31,08:20,UTC,1,1018.9,-,83,0,-1,4,1.4,40790,315,1.8,0.9
2022,10,31,08:30,UTC,1,1018.9,-,79,0,-1,4.5,1.2,34220,302,1.2,0.6
2022,10,31,08:40,UTC,0,1018.9,-,80,0,-1,4.7,1.5,32930,278,1.5,0.8
2022,10,31,08:50,UTC,0,1018.8,-,77,0,-1,5.2,1.6,37430,181,1.7,0.9
2022,10,31,09:00,UTC,0,1019,0,79,0,-1,5.3,2.1,35120,164,2,1.1
2022,10,31,09:10,UTC,0,1019.2,-,78,0,-1,5.4,1.8,30350,198,3.1,1.5
2022,10,31,09:20,UTC,0,1018.9,-,73,0,-1,6,1.5,32060,202,3.2,1.4
2022,10,31,09:30,UTC,0,1018.9,-,69,0,-1,6.1,0.9,47060,178,2.3,1.6
2022,10,31,09:40,UTC,0,1018.8,-,73,0,-1,6.2,1.8,22340,142,2.7,1.7
2022,10,31,09:50,UTC,0,1018.9,-,74,0,-1,6.2,1.9,23300,143,2.5,1.7
2022,10,31,10:00,UTC,0,1018.9,0,71,0,-1,6.5,1.5,30500,189,3,1.6
2022,10,31,10:10,UTC,0,1018.9,-,68,0,-1,6.7,1.3,41750,247,3.9,1.9
2022,10,31,10:20,UTC,0,1018.9,-,69,0,-1,6.9,1.7,45660,252,4.6,2.5
2022,10,31,10:30,UTC,0,1018.8,-,69,0,-1,6.9,1.6,42110,226,2.8,1.7
2022,10,31,10:40,UTC,0,1018.8,-,68,0,-1,7.1,1.7,38250,245,4.4,2.8
2022,10,31,10:50,UTC,0,1018.8,-,71,0,-1,7.2,2.3,42160,244,4.3,2.7
2022,10,31,11:00,UTC,0,1018.7,0,71,0,-1,7.1,2.1,48410,235,4.7,2.9
2022,10,31,11:10,UTC,0,1018.6,-,70,0,-1,7.3,2.3,41830,203,3.5,1.8
2022,10,31,11:20,UTC,0,1018.6,-,70,0,-1,7.5,2.4,40830,207,3.5,2.2
2022,10,31,11:30,UTC,0,1018.6,-,71,0,-1,7.5,2.6,49570,214,3.6,2.4
2022,10,31,11:40,UTC,0,1018.6,-,69,0,-1,7.6,2.3,47360,215,4.7,2.9
2022,10,31,11:50,UTC,1,1018.7,-,71,0,-1,7.7,2.8,42820,226,4.8,3.3
2022,10,31,12:00,UTC,1,1018.7,0,73,0,-1,7.4,2.9,42410,233,4.6,3.2
2022,10,31,12:10,UTC,5,1018.7,-,74,0,-1,7.5,3.3,39920,220,4.8,3.3
2022,10,31,12:20,UTC,5,1018.7,-,75,0,-1,7.5,3.4,41880,230,4.9,3.5
2022,10,31,12:30,UTC,3,1018.5,-,76,0,-1,7.8,3.7,39490,216,5,2.4
2022,10,31,12:40,UTC,1,1018.6,-,79,0,-1,7.3,4,45300,208,5.3,2.9
2022,10,31,12:50,UTC,0,1018.5,-,83,0,-1,6.7,4.1,50000,215,5.5,3.1
2022,10,31,13:00,UTC,0,1018.3,0,83,0,-1,6.9,4.2,42650,216,3.7,2.1
2022,10,31,13:10,UTC,0,1018.2,-,85,0,-1,6.8,4.4,47630,192,4.6,3
2022,10,31,13:20,UTC,3,1018.1,-,86,0,-1,7,4.7,45270,180,3.9,2.4
2022,10,31,13:30,UTC,5,1018.1,-,86,0,-1,7.1,4.9,45420,180,3.9,2.3
2022,10,31,13:40,UTC,8,1017.9,-,86,0,-1,7.3,5.1,45790,204,4.3,2.4
2022,10,31,13:50,UTC,7,1017.8,-,87,0,-1,7.5,5.4,49400,213,5.1,2.9
2022,10,31,14:00,UTC,8,1017.7,0,88,0,-1,7.6,5.7,50000,227,6.3,3.5
2022,10,31,14:10,UTC,8,1017.6,-,88,0,-1,7.6,5.7,50000,223,6.4,3.5
2022,10,31,14:20,UTC,7,1017.5,-,89,0,-1,7.7,5.9,49670,218,6.4,3.8
2022,10,31,14:30,UTC,7,1017.3,-,90,0,-1,7.8,6.4,45220,214,6.5,4
2022,10,31,14:40,UTC,8,1017.2,-,91,0,-1,7.9,6.5,50000,223,6.4,4.1
2022,10,31,14:50,UTC,7,1017.1,-,91,0,-1,8,6.7,50000,223,5.8,4
2022,10,31,15:00,UTC,8,1017.1,0,94,0,-1,8.1,7.1,27300,224,6.9,5
2022,10,31,15:10,UTC,8,1017.1,-,94,0,-1,8.1,7.2,30550,234,7.4,4.7
2022,10,31,15:20,UTC,8,1017,-,95,0,-1,8.2,7.4,40680,239,8.4,4.5
2022,10,31,15:30,UTC,8,1017,-,97,1.3,-1,8.1,7.6,12340,240,7.9,4.8
2022,10,31,15:40,UTC,7,1016.9,-,97,0.3,-1,8.1,7.8,44930,238,7.8,5
2022,10,31,15:50,UTC,7,1016.7,-,98,0,-1,8.1,7.9,36720,234,6.4,3.7
2022,10,31,16:00,UTC,7,1016.7,0.3,98,0,-1,8.2,8,39260,230,6.2,3.3
2022,10,31,16:10,UTC,7,1016.6,-,98,0.3,-1,8.3,8.1,50000,226,5.6,3.6
2022,10,31,16:20,UTC,7,1016.6,-,99,0,-1,8.3,8.1,46910,225,5.5,3.5
2022,10,31,16:30,UTC,8,1016.5,-,98,0,-1,8.5,8.2,42520,227,7.3,4.3
2022,10,31,16:40,UTC,8,1016.5,-,97,0,-1,8.7,8.2,31000,233,8.2,5.1
2022,10,31,16:50,UTC,7,1016.4,-,97,0,-1,8.7,8.2,30940,232,7.9,4.7
2022,10,31,17:00,UTC,7,1016.4,0.4,98,2.1,-1,8.5,8.2,13560,236,8.4,5.4
2022,10,31,17:10,UTC,7,1016.3,-,98,0,-1,8.4,8.1,42400,235,8.7,4.7
2022,10,31,17:20,UTC,7,1016.4,-,97,0,-1,8.5,8.1,50000,241,9,5.5
2022,10,31,17:30,UTC,8,1016.3,-,97,0,-1,8.4,7.9,50000,241,7.9,4.6
2022,10,31,17:40,UTC,8,1016.3,-,97,0,-1,8.4,7.9,31790,235,7.6,4.5
2022,10,31,17:50,UTC,7,1016.2,-,97,0,-1,8.4,8,22860,235,9.2,5
2022,10,31,18:00,UTC,8,1016.1,0,98,0,-1,8.4,8.1,11640,235,7.4,4.7
2022,10,31,18:10,UTC,8,1016.1,-,99,0,-1,8.4,8.2,10440,237,7.5,5.1
2022,10,31,18:20,UTC,8,1015.9,-,100,0,-1,8.3,8.3,4740,233,8.5,5.2
2022,10,31,18:30,UTC,8,1015.9,-,100,0,-1,8.4,8.4,3610,234,7.9,5.1
2022,10,31,18:40,UTC,8,1015.8,-,100,0,-1,8.4,8.4,2860,230,8.6,5.1
2022,10,31,18:50,UTC,7,1015.8,-,100,0,-1,8.5,8.5,2920,236,7.8,5.3
2022,10,31,19:00,UTC,8,1015.7,0,100,0,-1,8.6,8.6,3210,238,8.2,5.5
2022,10,31,19:10,UTC,8,1015.7,-,100,0,-1,8.6,8.6,3100,241,7.7,4.9
2022,10,31,19:20,UTC,8,1015.7,-,100,0,-1,8.7,8.7,2570,243,7.9,5.8
2022,10,31,19:30,UTC,8,1015.6,-,100,0.4,-1,8.7,8.7,2890,239,8.7,5.5
2022,10,31,19:40,UTC,8,1015.6,-,100,0.5,-1,8.7,8.7,3840,238,8.4,5
2022,10,31,19:50,UTC,7,1015.5,-,100,0,-1,8.5,8.5,3830,236,10,6.1
2022,10,31,20:00,UTC,8,1015.5,0.1,100,0,-1,8.6,8.6,3330,240,9.7,6.4
2022,10,31,20:10,UTC,8,1015.4,-,100,0,-1,8.5,8.5,3030,237,9,4.7
2022,10,31,20:20,UTC,8,1015.4,-,100,0,-1,8.6,8.6,2400,241,8.2,5.2
2022,10,31,20:30,UTC,8,1015.3,-,100,0.3,-1,8.7,8.7,2010,243,7.3,5.2
2022,10,31,20:40,UTC,8,1015.3,-,100,0,-1,8.7,8.7,1510,240,6.8,4.4
2022,10,31,20:50,UTC,9,1015.3,-,100,0,-1,8.8,8.8,890,243,6.1,4.2
2022,10,31,21:00,UTC,9,1015.3,0.1,100,0,-1,8.8,8.8,690,248,6.2,4.4
2022,10,31,21:10,UTC,9,1015.3,-,100,0,-1,8.9,8.9,650,251,5.1,3.9
2022,10,31,21:20,UTC,9,1015.2,-,100,0,-1,9,9,670,253,5.3,3.6
2022,10,31,21:30,UTC,9,1015.2,-,100,0,-1,9,9,1110,265,5,3.7
2022,10,31,21:40,UTC,8,1015.1,-,100,0,-1,9.2,9.2,2040,266,4.3,3
2022,10,31,21:50,UTC,7,1015,-,100,0,-1,9.2,9.2,3120,263,4.5,2.8
2022,10,31,22:00,UTC,7,1015,0,100,0,-1,9.2,9.2,4190,268,4.4,2.5
2022,10,31,22:10,UTC,7,1015,-,100,0,-1,9.3,9.3,4670,266,4.3,3
2022,10,31,22:20,UTC,7,1014.9,-,100,0,-1,9.2,9.2,4120,258,4.1,2.3
2022,10,31,22:30,UTC,7,1015,-,100,0,-1,9.2,9.2,3660,254,4.8,3.4
2022,10,31,22:40,UTC,7,1015,-,100,0,-1,9.2,9.2,3090,256,5.2,3.4
2022,10,31,22:50,UTC,7,1014.9,-,100,0,-1,9.2,9.2,3280,256,4.6,3.3
2022,10,31,23:00,UTC,7,1014.9,0,100,0,-1,9.3,9.3,4380,253,4.4,3.3
2022,10,31,23:10,UTC,7,1014.8,-,100,0,-1,9.3,9.3,4430,254,5.2,3
2022,10,31,23:20,UTC,7,1014.8,-,100,0,-1,9.2,9.2,4840,259,4.3,3.1
2022,10,31,23:30,UTC,8,1014.7,-,100,0,-1,9.3,9.3,4790,261,4.7,3
2022,10,31,23:40,UTC,7,1014.6,-,100,0,-1,9.2,9.2,5060,255,4.4,3
2022,10,31,23:50,UTC,7,1014.6,-,100,0,-1,9.1,9.1,4620,260,4.7,3.2
